{
"type": "FeatureCollection",
"name": "geo_32_通所介護",
"crs": { "type": "name", "properties": { "name": "urn:ogc:def:crs:OGC:1.3:CRS84" } },
"features": [
{ "type": "Feature", "properties": { "内容": "ながれぼし松江【通所介護】島根県松江市玉湯町湯町148-2", "url": "https://www.kaigokensaku.mhlw.go.jp/32/index.php?action_kouhyou_detail_004_kani=true&JigyosyoCd=3270104171-00&ServiceCd=150&Type=search", "url2": "https://www.choraku.co.jp/rk/index.html" }, "geometry": { "type": "Point", "coordinates": [ 133.012633, 35.4372169 ] } },
{ "type": "Feature", "properties": { "内容": "社会福祉法人松江市社会福祉協議会美保関介護センター【通所介護】松江市美保関町片江2268番8", "url": "https://www.kaigokensaku.mhlw.go.jp/32/index.php?action_kouhyou_detail_004_kani=true&JigyosyoCd=3271100350-00&ServiceCd=150&Type=search", "url2": null }, "geometry": { "type": "Point", "coordinates": [ 133.184426799999983, 35.5592852 ] } },
{ "type": "Feature", "properties": { "内容": "ぬくもりの里デイサービスセンター【通所介護】松江市山代町８２６－１", "url": "https://www.kaigokensaku.mhlw.go.jp/32/index.php?action_kouhyou_detail_004_kani=true&JigyosyoCd=3270101615-00&ServiceCd=150&Type=search", "url2": null }, "geometry": { "type": "Point", "coordinates": [ 133.084998, 35.445596 ] } },
{ "type": "Feature", "properties": { "内容": "湯の里　湖畔【通所介護】島根県松江市玉湯町湯町334番地39", "url": "https://www.kaigokensaku.mhlw.go.jp/32/index.php?action_kouhyou_detail_004_kani=true&JigyosyoCd=3270101938-00&ServiceCd=150&Type=search", "url2": null }, "geometry": { "type": "Point", "coordinates": [ 133.009561, 35.4378675 ] } },
{ "type": "Feature", "properties": { "内容": "八重の郷デイサービスセンター【通所介護】島根県松江市上乃木二丁目２１番１０号", "url": "https://www.kaigokensaku.mhlw.go.jp/32/index.php?action_kouhyou_detail_004_kani=true&JigyosyoCd=3270103702-00&ServiceCd=150&Type=search", "url2": null }, "geometry": { "type": "Point", "coordinates": [ 133.059405199999986, 35.4493898 ] } },
{ "type": "Feature", "properties": { "内容": "ツクイ松江古志原【通所介護】島根県松江市古志原5丁目14番4", "url": "https://www.kaigokensaku.mhlw.go.jp/32/index.php?action_kouhyou_detail_004_kani=true&JigyosyoCd=3270104221-00&ServiceCd=150&Type=search", "url2": "https://www.tsukui.net/" }, "geometry": { "type": "Point", "coordinates": [ 133.081510121338226, 35.441824925426324 ] } },
{ "type": "Feature", "properties": { "内容": "ツクイ松江城西【通所介護】島根県松江市黒田町359-1", "url": "https://www.kaigokensaku.mhlw.go.jp/32/index.php?action_kouhyou_detail_004_kani=true&JigyosyoCd=3270104197-00&ServiceCd=150&Type=search", "url2": null }, "geometry": { "type": "Point", "coordinates": [ 133.0419432, 35.4752016 ] } },
{ "type": "Feature", "properties": { "内容": "アイル松江【通所介護】西川津町4221", "url": "https://www.kaigokensaku.mhlw.go.jp/32/index.php?action_kouhyou_detail_004_kani=true&JigyosyoCd=3270103611-00&ServiceCd=150&Type=search", "url2": "www.airusanin.jp" }, "geometry": { "type": "Point", "coordinates": [ 133.074724800000013, 35.4814171 ] } },
{ "type": "Feature", "properties": { "内容": "デイサービスサイン【通所介護】島根県松江市東出雲町意宇東１丁目６番地1", "url": "https://www.kaigokensaku.mhlw.go.jp/32/index.php?action_kouhyou_detail_004_kani=true&JigyosyoCd=3270103744-00&ServiceCd=150&Type=search", "url2": "https://signpost-llc.com/" }, "geometry": { "type": "Point", "coordinates": [ 133.135303952639788, 35.435968274438991 ] } },
{ "type": "Feature", "properties": { "内容": "デイサービスサイン西津田【通所介護】島根県松江市西津田7丁目2-26", "url": "https://www.kaigokensaku.mhlw.go.jp/32/index.php?action_kouhyou_detail_004_kani=true&JigyosyoCd=3270104387-00&ServiceCd=150&Type=search", "url2": "https://signpost-llc.com/" }, "geometry": { "type": "Point", "coordinates": [ 133.0669342, 35.4577703 ] } },
{ "type": "Feature", "properties": { "内容": "ケアセンター咲花【通所介護】島根県松江市雑賀町40番地1ユニティーさいか１階・２階", "url": "https://www.kaigokensaku.mhlw.go.jp/32/index.php?action_kouhyou_detail_004_kani=true&JigyosyoCd=3270104205-00&ServiceCd=150&Type=search", "url2": "https://saika.cc/" }, "geometry": { "type": "Point", "coordinates": [ 133.056701299999986, 35.4579706 ] } },
{ "type": "Feature", "properties": { "内容": "デイサービス　わかくさ【通所介護】島根県松江市朝酌町２８－１", "url": "https://www.kaigokensaku.mhlw.go.jp/32/index.php?action_kouhyou_detail_004_kani=true&JigyosyoCd=3270100443-00&ServiceCd=150&Type=search", "url2": "www.waka-kusa.jp" }, "geometry": { "type": "Point", "coordinates": [ 133.101420299999972, 35.4645257 ] } },
{ "type": "Feature", "properties": { "内容": "デイサービス弥生【通所介護】島根県松江市春日町543番地5", "url": "https://www.kaigokensaku.mhlw.go.jp/32/index.php?action_kouhyou_detail_004_kani=true&JigyosyoCd=3270103181-00&ServiceCd=150&Type=search", "url2": "https://noblelife.co.jp/" }, "geometry": { "type": "Point", "coordinates": [ 133.0485255123032, 35.482328274812545 ] } },
{ "type": "Feature", "properties": { "内容": "こころの都デイサービスセンター【通所介護】松江市宍道町伊志見71番地2", "url": "https://www.kaigokensaku.mhlw.go.jp/32/index.php?action_kouhyou_detail_004_kani=true&JigyosyoCd=3270102662-00&ServiceCd=150&Type=search", "url2": null }, "geometry": { "type": "Point", "coordinates": [ 132.876614177246097, 35.396598971305259 ] } },
{ "type": "Feature", "properties": { "内容": "ニチイケアセンター浜乃木【通所介護】松江市浜乃木６丁目６番２３号", "url": "https://www.kaigokensaku.mhlw.go.jp/32/index.php?action_kouhyou_detail_004_kani=true&JigyosyoCd=3270100096-00&ServiceCd=150&Type=search", "url2": null }, "geometry": { "type": "Point", "coordinates": [ 133.056461200000058, 35.4440765 ] } },
{ "type": "Feature", "properties": { "内容": "心暖デイサービスセンター【通所介護】島根県松江市玉湯町湯町１９０番地１", "url": "https://www.kaigokensaku.mhlw.go.jp/32/index.php?action_kouhyou_detail_004_kani=true&JigyosyoCd=3270102571-00&ServiceCd=150&Type=search", "url2": "http://koharu-unity.com" }, "geometry": { "type": "Point", "coordinates": [ 133.014949500000057, 35.433821 ] } },
{ "type": "Feature", "properties": { "内容": "ぼたんの里通所介護事業所【通所介護】松江市八束町江島1128番地53", "url": "https://www.kaigokensaku.mhlw.go.jp/32/index.php?action_kouhyou_detail_004_kani=true&JigyosyoCd=3270102795-00&ServiceCd=150&Type=search", "url2": "http://botanhouse.web.fc2.com/" }, "geometry": { "type": "Point", "coordinates": [ 133.191192799999953, 35.5144158 ] } },
{ "type": "Feature", "properties": { "内容": "社会福祉法人　ふれあい　サン・フラワー指定通所介護、介護予防・日常生活支援総合事業【通所介護】松江市野原町５８５", "url": "https://www.kaigokensaku.mhlw.go.jp/32/index.php?action_kouhyou_detail_004_kani=true&JigyosyoCd=3270102092-00&ServiceCd=150&Type=search", "url2": "http://sunflower-en.jp/" }, "geometry": { "type": "Point", "coordinates": [ 133.136461599999961, 35.5188022 ] } },
{ "type": "Feature", "properties": { "内容": "湖北ふれあい　デイサービスセンター　Aspa【通所介護】松江市国屋町498番地6", "url": "https://www.kaigokensaku.mhlw.go.jp/32/index.php?action_kouhyou_detail_004_kani=true&JigyosyoCd=3270102357-00&ServiceCd=150&Type=search", "url2": "http://www.h3.dion.ne.jp/^kohoku/" }, "geometry": { "type": "Point", "coordinates": [ 133.037651, 35.4691896 ] } },
{ "type": "Feature", "properties": { "内容": "あいかの里　第1デイサービスセンター【通所介護】島根県松江市岡本町1138", "url": "https://www.kaigokensaku.mhlw.go.jp/32/index.php?action_kouhyou_detail_004_kani=true&JigyosyoCd=3270101946-00&ServiceCd=150&Type=search", "url2": "http://kohoku-aikanosato.jp" }, "geometry": { "type": "Point", "coordinates": [ 132.951284465081812, 35.481315921564033 ] } },
{ "type": "Feature", "properties": { "内容": "法吉デイサービスセンター【通所介護】松江市西法吉町35-20", "url": "https://www.kaigokensaku.mhlw.go.jp/32/index.php?action_kouhyou_detail_004_kani=true&JigyosyoCd=3270100526-00&ServiceCd=150&Type=search", "url2": "http://www.mizuumi.jp" }, "geometry": { "type": "Point", "coordinates": [ 133.0430136, 35.4954033 ] } },
{ "type": "Feature", "properties": { "内容": "湯の里湖畔【通所介護】島根県松江市玉湯町湯町334番地39", "url": "https://www.kaigokensaku.mhlw.go.jp/32/index.php?action_kouhyou_detail_004_kani=true&JigyosyoCd=3270104510-00&ServiceCd=150&Type=search", "url2": "https://signpost-llc.com/" }, "geometry": { "type": "Point", "coordinates": [ 133.0095297, 35.4378927 ] } },
{ "type": "Feature", "properties": { "内容": "デイサービスセンターえびすの郷【通所介護】松江市美保関町美保関869番地10", "url": "https://www.kaigokensaku.mhlw.go.jp/32/index.php?action_kouhyou_detail_004_kani=true&JigyosyoCd=3270101060-00&ServiceCd=150&Type=search", "url2": "http:/www.kyousei.jr.jp/" }, "geometry": { "type": "Point", "coordinates": [ 133.2934179, 35.5588632 ] } },
{ "type": "Feature", "properties": { "内容": "大庭通所介護事業所【通所介護】松江市佐草町2番地２", "url": "https://www.kaigokensaku.mhlw.go.jp/32/index.php?action_kouhyou_detail_004_kani=true&JigyosyoCd=3270100351-00&ServiceCd=150&Type=search", "url2": "ds-ooba@sf-keijinkai.or.jp" }, "geometry": { "type": "Point", "coordinates": [ 133.076579700000025, 35.4321752 ] } },
{ "type": "Feature", "properties": { "内容": "うみ通所介護事業所【通所介護】松江市島根町野波２３１８番地３", "url": "https://www.kaigokensaku.mhlw.go.jp/32/index.php?action_kouhyou_detail_004_kani=true&JigyosyoCd=3271100152-00&ServiceCd=150&Type=search", "url2": "httsp://www.sanin-kateigakuin.jp/establishment/sener-umi.html" }, "geometry": { "type": "Point", "coordinates": [ 133.100744121237199, 35.58634470409239 ] } },
{ "type": "Feature", "properties": { "内容": "憩いデイサービスセンター【通所介護】島根県松江市東出雲町下意東2810-2", "url": "https://www.kaigokensaku.mhlw.go.jp/32/index.php?action_kouhyou_detail_004_kani=true&JigyosyoCd=3271100228-00&ServiceCd=150&Type=search", "url2": "http://www.so-unkai.jp/ikoi/ikoi.html" }, "geometry": { "type": "Point", "coordinates": [ 133.166710119296226, 35.444104888737407 ] } },
{ "type": "Feature", "properties": { "内容": "ゆめハウスデイサービスセンター【通所介護】松江市宍道町西来待2071-1", "url": "https://www.kaigokensaku.mhlw.go.jp/32/index.php?action_kouhyou_detail_004_kani=true&JigyosyoCd=3271100301-00&ServiceCd=150&Type=search", "url2": "http://s-lighthouse.jp" }, "geometry": { "type": "Point", "coordinates": [ 132.93597079999995, 35.4132222 ] } },
{ "type": "Feature", "properties": { "内容": "学園デイサービス【通所介護】島根県松江市学園２丁目７－１６", "url": "https://www.kaigokensaku.mhlw.go.jp/32/index.php?action_kouhyou_detail_004_kani=true&JigyosyoCd=3270101565-00&ServiceCd=150&Type=search", "url2": null }, "geometry": { "type": "Point", "coordinates": [ 133.065342399999963, 35.4829444 ] } },
{ "type": "Feature", "properties": { "内容": "虹デイサービス【通所介護】松江市佐草町456-1", "url": "https://www.kaigokensaku.mhlw.go.jp/32/index.php?action_kouhyou_detail_004_kani=true&JigyosyoCd=3210112730-00&ServiceCd=150&Type=search", "url2": "https://www.mhs-niji.jp/" }, "geometry": { "type": "Point", "coordinates": [ 133.072057800000039, 35.43162520000002 ] } },
{ "type": "Feature", "properties": { "内容": "生協ふれあいデイサービス【通所介護】松江市西津田七丁目14番21号ふれあい診療所４階", "url": "https://www.kaigokensaku.mhlw.go.jp/32/index.php?action_kouhyou_detail_004_kani=true&JigyosyoCd=3210113092-00&ServiceCd=150&Type=search", "url2": null }, "geometry": { "type": "Point", "coordinates": [ 133.067504399999962, 35.4551365 ] } },
{ "type": "Feature", "properties": { "内容": "生協東出雲えがおデイサービス【通所介護】島根県松江市東出雲町揖屋1137-1", "url": "https://www.kaigokensaku.mhlw.go.jp/32/index.php?action_kouhyou_detail_004_kani=true&JigyosyoCd=3211111111-00&ServiceCd=150&Type=search", "url2": "higaimoday@sage.ocn.ne.jp" }, "geometry": { "type": "Point", "coordinates": [ 133.152783799999952, 35.428053500000011 ] } },
{ "type": "Feature", "properties": { "内容": "全労済在宅介護サービスセンターほほえみ【通所介護】島根県松江市東出雲町錦新町８丁目１番１号", "url": "https://www.kaigokensaku.mhlw.go.jp/32/index.php?action_kouhyou_detail_004_kani=true&JigyosyoCd=3270102837-00&ServiceCd=150&Type=search", "url2": "http://www.zenrosai-wic.co.jp" }, "geometry": { "type": "Point", "coordinates": [ 133.142806699999937, 35.4320478 ] } },
{ "type": "Feature", "properties": { "内容": "デイサービス二子【通所介護】松江市八束町二子1025番地1", "url": "https://www.kaigokensaku.mhlw.go.jp/32/index.php?action_kouhyou_detail_004_kani=true&JigyosyoCd=3270102720-00&ServiceCd=150&Type=search", "url2": "https://www.nakauminosato.com/" }, "geometry": { "type": "Point", "coordinates": [ 133.161826133204585, 35.507168717597004 ] } },
{ "type": "Feature", "properties": { "内容": "デイサービス湖畔の家【通所介護】松江市八束町二子1178番地5デイサービス湖畔の家", "url": "https://www.kaigokensaku.mhlw.go.jp/32/index.php?action_kouhyou_detail_004_kani=true&JigyosyoCd=3270102985-00&ServiceCd=150&Type=search", "url2": "dayhutago@palette.plala.or.jp" }, "geometry": { "type": "Point", "coordinates": [ 133.161697010975672, 35.507409653372989 ] } },
{ "type": "Feature", "properties": { "内容": "デイサービス　彩りテラス～東朝日町～【通所介護】島根県松江市東朝日町２７８番地１０", "url": "https://www.kaigokensaku.mhlw.go.jp/32/index.php?action_kouhyou_detail_004_kani=true&JigyosyoCd=3270103025-00&ServiceCd=150&Type=search", "url2": null }, "geometry": { "type": "Point", "coordinates": [ 133.076278300000013, 35.4639413 ] } },
{ "type": "Feature", "properties": { "内容": "あおぞらデイサービス【通所介護】島根県松江市東津田町１８０６－１", "url": "https://www.kaigokensaku.mhlw.go.jp/32/index.php?action_kouhyou_detail_004_kani=true&JigyosyoCd=3270102555-00&ServiceCd=150&Type=search", "url2": "lush-care.jp" }, "geometry": { "type": "Point", "coordinates": [ 133.091244400000051, 35.4505402 ] } },
{ "type": "Feature", "properties": { "内容": "スワンデイサービス【通所介護】島根県松江市浜乃木三丁目3-26GOOD　AGE　浜乃木", "url": "https://www.kaigokensaku.mhlw.go.jp/32/index.php?action_kouhyou_detail_004_kani=true&JigyosyoCd=3270104072-00&ServiceCd=150&Type=search", "url2": "swan.dayservice@videw.com" }, "geometry": { "type": "Point", "coordinates": [ 133.045501300000069, 35.4430541 ] } },
{ "type": "Feature", "properties": { "内容": "日吉デイサービスセンター【通所介護】松江市八雲町東岩坂８０６番地", "url": "https://www.kaigokensaku.mhlw.go.jp/32/index.php?action_kouhyou_detail_004_kani=true&JigyosyoCd=3271100277-00&ServiceCd=150&Type=search", "url2": "https;//www.yakumo-fukushikai.com/" }, "geometry": { "type": "Point", "coordinates": [ 133.099000846557601, 35.414131817825194 ] } },
{ "type": "Feature", "properties": { "内容": "カラフルデイサービスセンター【通所介護】島根県松江市大輪町４２０番地４０", "url": "https://www.kaigokensaku.mhlw.go.jp/32/index.php?action_kouhyou_detail_004_kani=true&JigyosyoCd=3270100971-00&ServiceCd=150&Type=search", "url2": "http://www.houshinkai-s.or.jp" }, "geometry": { "type": "Point", "coordinates": [ 133.059485499999937, 35.4787863 ] } },
{ "type": "Feature", "properties": { "内容": "鹿島デイサービスセンター「こぢょっこらと」【通所介護】島根県松江市鹿島町上講武894番地1", "url": "https://www.kaigokensaku.mhlw.go.jp/32/index.php?action_kouhyou_detail_004_kani=true&JigyosyoCd=3270101680-00&ServiceCd=150&Type=search", "url2": "https://yuugenngaisha-csg.com/" }, "geometry": { "type": "Point", "coordinates": [ 133.045659, 35.5284272 ] } },
{ "type": "Feature", "properties": { "内容": "デイ喫茶　六連星【通所介護】島根県松江市八雲町西岩坂1042番地", "url": "https://www.kaigokensaku.mhlw.go.jp/32/index.php?action_kouhyou_detail_004_kani=true&JigyosyoCd=3270103256-00&ServiceCd=150&Type=search", "url2": "http://www.toukou-g.com/" }, "geometry": { "type": "Point", "coordinates": [ 133.092978874868777, 35.405079827589404 ] } },
{ "type": "Feature", "properties": { "内容": "東寿苑デイサービスセンター【通所介護】島根県松江市東出雲町出雲郷493", "url": "https://www.kaigokensaku.mhlw.go.jp/32/index.php?action_kouhyou_detail_004_kani=true&JigyosyoCd=3271100210-00&ServiceCd=150&Type=search", "url2": "https://www.so-unkai.com/" }, "geometry": { "type": "Point", "coordinates": [ 133.127625099999932, 35.4322636 ] } },
{ "type": "Feature", "properties": { "内容": "デイサービスはとぽっぽ【通所介護】島根県浜田市朝日町93番地12", "url": "https://www.kaigokensaku.mhlw.go.jp/32/index.php?action_kouhyou_detail_004_kani=true&JigyosyoCd=3270700408-00&ServiceCd=150&Type=search", "url2": null }, "geometry": { "type": "Point", "coordinates": [ 132.08958240000004, 34.899325 ] } },
{ "type": "Feature", "properties": { "内容": "デイサービス　心の里　はるにれ【通所介護】島根県浜田市三隅町三隅382番地1", "url": "https://www.kaigokensaku.mhlw.go.jp/32/index.php?action_kouhyou_detail_004_kani=true&JigyosyoCd=3270701117-00&ServiceCd=150&Type=search", "url2": "http://harunire-tms.jp/" }, "geometry": { "type": "Point", "coordinates": [ 131.9565719398895, 34.794724207562965 ] } },
{ "type": "Feature", "properties": { "内容": "デイサービスセンターはまぼうふう【通所介護】浜田市久代町1-7", "url": "https://www.kaigokensaku.mhlw.go.jp/32/index.php?action_kouhyou_detail_004_kani=true&JigyosyoCd=3270700424-00&ServiceCd=150&Type=search", "url2": "http://mizusumikai.or.jp/" }, "geometry": { "type": "Point", "coordinates": [ 132.134674300000029, 34.9546034 ] } },
{ "type": "Feature", "properties": { "内容": "デイサービスセンター　アルク　ロング・レン【通所介護】島根県浜田市長沢町1428番地6特別養護老人ホーム　ロング・レン", "url": "https://www.kaigokensaku.mhlw.go.jp/32/index.php?action_kouhyou_detail_004_kani=true&JigyosyoCd=3270701224-00&ServiceCd=150&Type=search", "url2": "http://mizusumikai.jp/" }, "geometry": { "type": "Point", "coordinates": [ 132.096275800000058, 34.9138679 ] } },
{ "type": "Feature", "properties": { "内容": "緑ヶ丘デイサービスセンター【通所介護】島根県浜田市浅井町１２２番地２", "url": "https://www.kaigokensaku.mhlw.go.jp/32/index.php?action_kouhyou_detail_004_kani=true&JigyosyoCd=3270700754-00&ServiceCd=150&Type=search", "url2": "http://kanagi-fukushikai.com/" }, "geometry": { "type": "Point", "coordinates": [ 132.09287919999997, 34.9048939 ] } },
{ "type": "Feature", "properties": { "内容": "杉の森デイサービスセンター【通所介護】浜田市三隅町向野田1880-3", "url": "https://www.kaigokensaku.mhlw.go.jp/32/index.php?action_kouhyou_detail_004_kani=true&JigyosyoCd=3271900163-00&ServiceCd=150&Type=search", "url2": "http://hamada-shakyo.com" }, "geometry": { "type": "Point", "coordinates": [ 131.964518799999951, 34.7718243 ] } },
{ "type": "Feature", "properties": { "内容": "美川デイサービスセンター【通所介護】浜田市内村町365番地4", "url": "https://www.kaigokensaku.mhlw.go.jp/32/index.php?action_kouhyou_detail_004_kani=true&JigyosyoCd=3270700150-00&ServiceCd=150&Type=search", "url2": "http:www.mikawaen.com" }, "geometry": { "type": "Point", "coordinates": [ 132.049756600000023, 34.853087 ] } },
{ "type": "Feature", "properties": { "内容": "美川リハデイ　周布店【通所介護】島根県浜田市周布町イ61番地1", "url": "https://www.kaigokensaku.mhlw.go.jp/32/index.php?action_kouhyou_detail_004_kani=true&JigyosyoCd=3270701349-00&ServiceCd=150&Type=search", "url2": "http://mikawaen.com" }, "geometry": { "type": "Point", "coordinates": [ 132.0260257, 34.862953 ] } },
{ "type": "Feature", "properties": { "内容": "デイサービス　　やまももの家【通所介護】浜田市久代町３０９デイサービスやまももの家", "url": "https://www.kaigokensaku.mhlw.go.jp/32/index.php?action_kouhyou_detail_004_kani=true&JigyosyoCd=3270700473-00&ServiceCd=150&Type=search", "url2": "https://e-iwami.com/yamamomo/https://keibinkai.jp" }, "geometry": { "type": "Point", "coordinates": [ 132.129494499999964, 34.9381826 ] } },
{ "type": "Feature", "properties": { "内容": "デイサービスたんぽぽ【通所介護】浜田市長浜町1900", "url": "https://www.kaigokensaku.mhlw.go.jp/32/index.php?action_kouhyou_detail_004_kani=true&JigyosyoCd=3270700341-00&ServiceCd=150&Type=search", "url2": "http://www.tanpoponosato.com" }, "geometry": { "type": "Point", "coordinates": [ 132.0376986, 34.8675797 ] } },
{ "type": "Feature", "properties": { "内容": "デイサービスセンターなごみ【通所介護】島根県浜田市金城町今福281-7", "url": "https://www.kaigokensaku.mhlw.go.jp/32/index.php?action_kouhyou_detail_004_kani=true&JigyosyoCd=3270700804-00&ServiceCd=150&Type=search", "url2": null }, "geometry": { "type": "Point", "coordinates": [ 132.20389, 34.8846773 ] } },
{ "type": "Feature", "properties": { "内容": "集いの里【通所介護】島根県浜田市三隅町下古和９４９番地３", "url": "https://www.kaigokensaku.mhlw.go.jp/32/index.php?action_kouhyou_detail_004_kani=true&JigyosyoCd=3270701414-00&ServiceCd=150&Type=search", "url2": "https://tudoinosato.net" }, "geometry": { "type": "Point", "coordinates": [ 131.9955746, 34.739217615284929 ] } },
{ "type": "Feature", "properties": { "内容": "ＪＡしまねデイサービスセンターつつじ園【通所介護】島根県出雲市斐川町直江885番地", "url": "https://www.kaigokensaku.mhlw.go.jp/32/index.php?action_kouhyou_detail_004_kani=true&JigyosyoCd=3270402583-00&ServiceCd=150&Type=search", "url2": "http://ja-shimane.jp/" }, "geometry": { "type": "Point", "coordinates": [ 132.8163669, 35.3893385 ] } },
{ "type": "Feature", "properties": { "内容": "ひかわ生協デイサービス　きずな【通所介護】島根県出雲市斐川町直江4883-1", "url": "https://www.kaigokensaku.mhlw.go.jp/32/index.php?action_kouhyou_detail_004_kani=true&JigyosyoCd=3270402450-00&ServiceCd=150&Type=search", "url2": "http://www.hikawa-hp.com" }, "geometry": { "type": "Point", "coordinates": [ 132.823334700000032, 35.3927886 ] } },
{ "type": "Feature", "properties": { "内容": "ひかわ生協　デイサービスつむぎ【通所介護】島根県出雲市斐川町直江4778番地1", "url": "https://www.kaigokensaku.mhlw.go.jp/32/index.php?action_kouhyou_detail_004_kani=true&JigyosyoCd=3270403177-00&ServiceCd=150&Type=search", "url2": "http://www.hikawa-hp.com" }, "geometry": { "type": "Point", "coordinates": [ 132.8218349, 35.3920875 ] } },
{ "type": "Feature", "properties": { "内容": "ナカヤ寿楽【通所介護】島根県出雲市荒茅町3106番地", "url": "https://www.kaigokensaku.mhlw.go.jp/32/index.php?action_kouhyou_detail_004_kani=true&JigyosyoCd=3270402906-00&ServiceCd=150&Type=search", "url2": "https://www.nakaya-juraku.jp" }, "geometry": { "type": "Point", "coordinates": [ 132.695661216224607, 35.3614274549751 ] } },
{ "type": "Feature", "properties": { "内容": "ツクイ出雲下沢【通所介護】出雲市上塩冶町2655-2", "url": "https://www.kaigokensaku.mhlw.go.jp/32/index.php?action_kouhyou_detail_004_kani=true&JigyosyoCd=3270403185-00&ServiceCd=150&Type=search", "url2": null }, "geometry": { "type": "Point", "coordinates": [ 132.761461779762271, 35.35648392551078 ] } },
{ "type": "Feature", "properties": { "内容": "ポラリスデイサービスセンター出雲【通所介護】島根県出雲市今市町1323", "url": "https://www.kaigokensaku.mhlw.go.jp/32/index.php?action_kouhyou_detail_004_kani=true&JigyosyoCd=3270403243-00&ServiceCd=150&Type=search", "url2": "https://www.polaris.care/" }, "geometry": { "type": "Point", "coordinates": [ 132.7567434, 35.3636623 ] } },
{ "type": "Feature", "properties": { "内容": "通所介護事業所みずほの里　らいと【通所介護】島根県出雲市灘分町239番地6", "url": "https://www.kaigokensaku.mhlw.go.jp/32/index.php?action_kouhyou_detail_004_kani=true&JigyosyoCd=3270402765-00&ServiceCd=150&Type=search", "url2": "https://mizuhonoie.com" }, "geometry": { "type": "Point", "coordinates": [ 132.830182199999967, 35.4290822 ] } },
{ "type": "Feature", "properties": { "内容": "通所介護事業所みずほの里【通所介護】島根県出雲市灘分町239番地2", "url": "https://www.kaigokensaku.mhlw.go.jp/32/index.php?action_kouhyou_detail_004_kani=true&JigyosyoCd=3270402302-00&ServiceCd=150&Type=search", "url2": "https://mizuhonoie.com" }, "geometry": { "type": "Point", "coordinates": [ 132.82986569933621, 35.429165251016336 ] } },
{ "type": "Feature", "properties": { "内容": "通所介護事業所みずほの里　ひやま【通所介護】島根県出雲市岡田町136番地4", "url": "https://www.kaigokensaku.mhlw.go.jp/32/index.php?action_kouhyou_detail_004_kani=true&JigyosyoCd=3270403227-00&ServiceCd=150&Type=search", "url2": "https://mizuhonoie.com" }, "geometry": { "type": "Point", "coordinates": [ 132.831785297622673, 35.452041428766819 ] } },
{ "type": "Feature", "properties": { "内容": "穂なみデイサービスセンター【通所介護】島根県出雲市里方町１１６番地", "url": "https://www.kaigokensaku.mhlw.go.jp/32/index.php?action_kouhyou_detail_004_kani=true&JigyosyoCd=3270402427-00&ServiceCd=150&Type=search", "url2": null }, "geometry": { "type": "Point", "coordinates": [ 132.7434783, 35.392207 ] } },
{ "type": "Feature", "properties": { "内容": "デイサービス　MILK富ロングラフ【通所介護】島根県出雲市斐川町富村1465-1", "url": "https://www.kaigokensaku.mhlw.go.jp/32/index.php?action_kouhyou_detail_004_kani=true&JigyosyoCd=3270402518-00&ServiceCd=150&Type=search", "url2": null }, "geometry": { "type": "Point", "coordinates": [ 132.795426300000031, 35.384184 ] } },
{ "type": "Feature", "properties": { "内容": "デイサービスMILK富【通所介護】島根県出雲市斐川町富村１４６５－１", "url": "https://www.kaigokensaku.mhlw.go.jp/32/index.php?action_kouhyou_detail_004_kani=true&JigyosyoCd=3270402492-00&ServiceCd=150&Type=search", "url2": null }, "geometry": { "type": "Point", "coordinates": [ 132.795426300000031, 35.384184 ] } },
{ "type": "Feature", "properties": { "内容": "ニチイケアセンター出雲【通所介護】出雲市大津朝倉3丁目4-5", "url": "https://www.kaigokensaku.mhlw.go.jp/32/index.php?action_kouhyou_detail_004_kani=true&JigyosyoCd=3270402088-00&ServiceCd=150&Type=search", "url2": "http://www.nichiigakkan.co.jp" }, "geometry": { "type": "Point", "coordinates": [ 132.759188799999947, 35.3766563 ] } },
{ "type": "Feature", "properties": { "内容": "みどりの郷湖陵【通所介護】出雲市湖陵町三部1231-1", "url": "https://www.kaigokensaku.mhlw.go.jp/32/index.php?action_kouhyou_detail_004_kani=true&JigyosyoCd=3271600045-00&ServiceCd=150&Type=search", "url2": null }, "geometry": { "type": "Point", "coordinates": [ 132.674052599999982, 35.3166586 ] } },
{ "type": "Feature", "properties": { "内容": "みどりの郷出雲【通所介護】出雲市所原町2715-1", "url": "https://www.kaigokensaku.mhlw.go.jp/32/index.php?action_kouhyou_detail_004_kani=true&JigyosyoCd=3270400157-00&ServiceCd=150&Type=search", "url2": null }, "geometry": { "type": "Point", "coordinates": [ 132.761801500000047, 35.2988943 ] } },
{ "type": "Feature", "properties": { "内容": "みどりの郷大社【通所介護】出雲市大社町北荒木483", "url": "https://www.kaigokensaku.mhlw.go.jp/32/index.php?action_kouhyou_detail_004_kani=true&JigyosyoCd=3270401049-00&ServiceCd=150&Type=search", "url2": "https://jaizumo-fukushikai.jp" }, "geometry": { "type": "Point", "coordinates": [ 132.689164600000026, 35.3875983 ] } },
{ "type": "Feature", "properties": { "内容": "みどりの郷平田【通所介護】出雲市平田町２３０８番地９", "url": "https://www.kaigokensaku.mhlw.go.jp/32/index.php?action_kouhyou_detail_004_kani=true&JigyosyoCd=3270300175-00&ServiceCd=150&Type=search", "url2": "http://www.jaizumo.or.jp/welfare" }, "geometry": { "type": "Point", "coordinates": [ 132.824837900000034, 35.434715 ] } },
{ "type": "Feature", "properties": { "内容": "いなさ園デイサービスセンター【通所介護】出雲市大社町杵築西１６４３番地２", "url": "https://www.kaigokensaku.mhlw.go.jp/32/index.php?action_kouhyou_detail_004_kani=true&JigyosyoCd=3271600235-00&ServiceCd=150&Type=search", "url2": "http//www.kidukikai.or.jp" }, "geometry": { "type": "Point", "coordinates": [ 132.678423800000019, 35.3856095 ] } },
{ "type": "Feature", "properties": { "内容": "みせんの里デイサービスセンター【通所介護】出雲市大社町遙堪65番地2", "url": "https://www.kaigokensaku.mhlw.go.jp/32/index.php?action_kouhyou_detail_004_kani=true&JigyosyoCd=3270400942-00&ServiceCd=150&Type=search", "url2": "http://www.kidukikai.or.jp" }, "geometry": { "type": "Point", "coordinates": [ 132.7186, 35.3938704 ] } },
{ "type": "Feature", "properties": { "内容": "社会福祉法人ひらた福祉会　花水木【通所介護】島根県出雲市灘分町７８６－１", "url": "https://www.kaigokensaku.mhlw.go.jp/32/index.php?action_kouhyou_detail_004_kani=true&JigyosyoCd=3270401585-00&ServiceCd=150&Type=search", "url2": null }, "geometry": { "type": "Point", "coordinates": [ 132.825195042034807, 35.430772673490559 ] } },
{ "type": "Feature", "properties": { "内容": "浜山デイサービスセンター野いちご【通所介護】島根県出雲市大社町北荒木1512-5", "url": "https://www.kaigokensaku.mhlw.go.jp/32/index.php?action_kouhyou_detail_004_kani=true&JigyosyoCd=3270403458-00&ServiceCd=150&Type=search", "url2": "http://www.izumo-yamayuri.or.jp" }, "geometry": { "type": "Point", "coordinates": [ 132.7027388, 35.3844598 ] } },
{ "type": "Feature", "properties": { "内容": "ひまわり園デイサービスセンター【通所介護】出雲市神西沖町2513-8", "url": "https://www.kaigokensaku.mhlw.go.jp/32/index.php?action_kouhyou_detail_004_kani=true&JigyosyoCd=3270400298-00&ServiceCd=150&Type=search", "url2": "http://w-himawari.jp" }, "geometry": { "type": "Point", "coordinates": [ 132.681392800000026, 35.3368256 ] } },
{ "type": "Feature", "properties": { "内容": "清流園通所介護事業所【通所介護】出雲市大津町3529番地", "url": "https://www.kaigokensaku.mhlw.go.jp/32/index.php?action_kouhyou_detail_004_kani=true&JigyosyoCd=3270400082-00&ServiceCd=150&Type=search", "url2": null }, "geometry": { "type": "Point", "coordinates": [ 132.783658933729612, 35.358942857593206 ] } },
{ "type": "Feature", "properties": { "内容": "デイサービスセンターたき【通所介護】出雲市多伎町小田50－8", "url": "https://www.kaigokensaku.mhlw.go.jp/32/index.php?action_kouhyou_detail_004_kani=true&JigyosyoCd=3271600250-00&ServiceCd=150&Type=search", "url2": "http://www.takinosato.jp" }, "geometry": { "type": "Point", "coordinates": [ 132.6261101, 35.284382 ] } },
{ "type": "Feature", "properties": { "内容": "なのはな園デイサービスセンター【通所介護】斐川町上直江1829-1", "url": "https://www.kaigokensaku.mhlw.go.jp/32/index.php?action_kouhyou_detail_004_kani=true&JigyosyoCd=3271600177-00&ServiceCd=150&Type=search", "url2": "shimane@s-lighthouse.jp" }, "geometry": { "type": "Point", "coordinates": [ 132.810611261238137, 35.378338243334703 ] } },
{ "type": "Feature", "properties": { "内容": "あすなろ指定通所介護事業所【通所介護】島根県出雲市白枝町395-2", "url": "https://www.kaigokensaku.mhlw.go.jp/32/index.php?action_kouhyou_detail_004_kani=true&JigyosyoCd=3270400371-00&ServiceCd=150&Type=search", "url2": "http:/www.asunaro-izumo.or.jp" }, "geometry": { "type": "Point", "coordinates": [ 132.7297089, 35.3609767 ] } },
{ "type": "Feature", "properties": { "内容": "もくもく苑通所介護事業所【通所介護】出雲市矢野町845", "url": "https://www.kaigokensaku.mhlw.go.jp/32/index.php?action_kouhyou_detail_004_kani=true&JigyosyoCd=3270400413-00&ServiceCd=150&Type=search", "url2": "http://www.otuka-wel.jp" }, "geometry": { "type": "Point", "coordinates": [ 132.73560729999997, 35.3833578 ] } },
{ "type": "Feature", "properties": { "内容": "平田西デイサービスセンター【通所介護】島根県出雲市国富町57-1", "url": "https://www.kaigokensaku.mhlw.go.jp/32/index.php?action_kouhyou_detail_004_kani=true&JigyosyoCd=3270401072-00&ServiceCd=150&Type=search", "url2": "http://www.otuka-wel.jp" }, "geometry": { "type": "Point", "coordinates": [ 132.80005529999994, 35.4170719 ] } },
{ "type": "Feature", "properties": { "内容": "株式会社　デイサービス・キートス【通所介護】小山町４０４番地４ＹＡＭＡＭＯＴＯビル　１Ｆ", "url": "https://www.kaigokensaku.mhlw.go.jp/32/index.php?action_kouhyou_detail_004_kani=true&JigyosyoCd=3270402286-00&ServiceCd=150&Type=search", "url2": "https://kiitos0610.simdif.com/" }, "geometry": { "type": "Point", "coordinates": [ 132.73916795767218, 35.373241732776776 ] } },
{ "type": "Feature", "properties": { "内容": "第二ことぶき園通所介護事業所【通所介護】出雲市古志町2105－1", "url": "https://www.kaigokensaku.mhlw.go.jp/32/index.php?action_kouhyou_detail_004_kani=true&JigyosyoCd=3270400132-00&ServiceCd=150&Type=search", "url2": "https://kotobuki1071.jimdofree.com" }, "geometry": { "type": "Point", "coordinates": [ 132.743689363194676, 35.335956360261328 ] } },
{ "type": "Feature", "properties": { "内容": "デイサービス暖談【通所介護】島根県出雲市大社町遙堪666番地", "url": "https://www.kaigokensaku.mhlw.go.jp/32/index.php?action_kouhyou_detail_004_kani=true&JigyosyoCd=3271600532-00&ServiceCd=150&Type=search", "url2": null }, "geometry": { "type": "Point", "coordinates": [ 132.724349699999948, 35.3879738 ] } },
{ "type": "Feature", "properties": { "内容": "出雲ケアセンター　そよ風【通所介護】島根県出雲市今市町876-9", "url": "https://www.kaigokensaku.mhlw.go.jp/32/index.php?action_kouhyou_detail_004_kani=true&JigyosyoCd=3270401254-00&ServiceCd=150&Type=search", "url2": "https://www.sykz.co.jp/" }, "geometry": { "type": "Point", "coordinates": [ 132.754537199999959, 35.3620773 ] } },
{ "type": "Feature", "properties": { "内容": "平田ほのぼの通所介護事業所【通所介護】出雲市平田町7169", "url": "https://www.kaigokensaku.mhlw.go.jp/32/index.php?action_kouhyou_detail_004_kani=true&JigyosyoCd=3270300068-00&ServiceCd=150&Type=search", "url2": "http://mandanosato.jp/" }, "geometry": { "type": "Point", "coordinates": [ 132.822343497372458, 35.440938591765992 ] } },
{ "type": "Feature", "properties": { "内容": "出雲サンホーム地域福祉サービスセンターソレイユ【通所介護】島根県出雲市神西沖町１３１５", "url": "https://www.kaigokensaku.mhlw.go.jp/32/index.php?action_kouhyou_detail_004_kani=true&JigyosyoCd=3270403037-00&ServiceCd=150&Type=search", "url2": "https://www.keijukai.p/" }, "geometry": { "type": "Point", "coordinates": [ 132.707128900000043, 35.3337516 ] } },
{ "type": "Feature", "properties": { "内容": "デイサービス　サン・スマイル【通所介護】島根県出雲市神西沖町215-1", "url": "https://www.kaigokensaku.mhlw.go.jp/32/index.php?action_kouhyou_detail_004_kani=true&JigyosyoCd=3271600102-00&ServiceCd=150&Type=search", "url2": "https://www.keijukai.jp/" }, "geometry": { "type": "Point", "coordinates": [ 132.703463732622168, 35.33248222272077 ] } },
{ "type": "Feature", "properties": { "内容": "デイサービスセンターるんびにぃ苑【通所介護】出雲市園町字妻ノ神2606番地1", "url": "https://www.kaigokensaku.mhlw.go.jp/32/index.php?action_kouhyou_detail_004_kani=true&JigyosyoCd=3270300183-00&ServiceCd=150&Type=search", "url2": "http://lumbini-en.jp" }, "geometry": { "type": "Point", "coordinates": [ 132.855309600000027, 35.4506997 ] } },
{ "type": "Feature", "properties": { "内容": "デイサービス　ハートキュアひらた【通所介護】出雲市国富町832-2", "url": "https://www.kaigokensaku.mhlw.go.jp/32/index.php?action_kouhyou_detail_004_kani=true&JigyosyoCd=3270300209-00&ServiceCd=150&Type=search", "url2": null }, "geometry": { "type": "Point", "coordinates": [ 132.808634500000039, 35.4268349 ] } },
{ "type": "Feature", "properties": { "内容": "みどりの郷斐川通所介護事業所【通所介護】斐川町直江885番地", "url": "https://www.kaigokensaku.mhlw.go.jp/32/index.php?action_kouhyou_detail_004_kani=true&JigyosyoCd=3270403540-00&ServiceCd=150&Type=search", "url2": "https://jaizumo-fukushikai.jp" }, "geometry": { "type": "Point", "coordinates": [ 132.8163669, 35.3893385 ] } },
{ "type": "Feature", "properties": { "内容": "デイサービス「すみよし」【通所介護】島根県益田市本町3-19", "url": "https://www.kaigokensaku.mhlw.go.jp/32/index.php?action_kouhyou_detail_004_kani=true&JigyosyoCd=3270801081-00&ServiceCd=150&Type=search", "url2": null }, "geometry": { "type": "Point", "coordinates": [ 131.859257800000023, 34.6767199 ] } },
{ "type": "Feature", "properties": { "内容": "デイサービス　いわみ【通所介護】島根県益田市染羽町1番27号", "url": "https://www.kaigokensaku.mhlw.go.jp/32/index.php?action_kouhyou_detail_004_kani=true&JigyosyoCd=3270800984-00&ServiceCd=150&Type=search", "url2": "http://www.care-iwami.jp" }, "geometry": { "type": "Point", "coordinates": [ 131.861321979553964, 34.67959882962608 ] } },
{ "type": "Feature", "properties": { "内容": "デイサービスセンターつむぎ【通所介護】島根県益田市高津町イ2559-1", "url": "https://www.kaigokensaku.mhlw.go.jp/32/index.php?action_kouhyou_detail_004_kani=true&JigyosyoCd=3270801057-00&ServiceCd=150&Type=search", "url2": "http://akatsuki-hohoemi.jp/" }, "geometry": { "type": "Point", "coordinates": [ 131.803055017834254, 34.687066071030678 ] } },
{ "type": "Feature", "properties": { "内容": "デイサービスセンター　もやいの家うのはな【通所介護】島根県益田市遠田町179番2", "url": "https://www.kaigokensaku.mhlw.go.jp/32/index.php?action_kouhyou_detail_004_kani=true&JigyosyoCd=3270800760-00&ServiceCd=150&Type=search", "url2": "http://mizusumikai.or.jp/" }, "geometry": { "type": "Point", "coordinates": [ 131.85642801415554, 34.720703917024913 ] } },
{ "type": "Feature", "properties": { "内容": "社会福祉法人西益田福祉会清流苑通所介護事業所【通所介護】島根県益田市神田町イ197-6", "url": "https://www.kaigokensaku.mhlw.go.jp/32/index.php?action_kouhyou_detail_004_kani=true&JigyosyoCd=3270800208-00&ServiceCd=150&Type=search", "url2": "http:seiryuen-care.jp/" }, "geometry": { "type": "Point", "coordinates": [ 131.798976099999976, 34.611184900000019 ] } },
{ "type": "Feature", "properties": { "内容": "デイサービスセンター万葉苑【通所介護】益田市高津四丁目６番４０号", "url": "https://www.kaigokensaku.mhlw.go.jp/32/index.php?action_kouhyou_detail_004_kani=true&JigyosyoCd=3270800075-00&ServiceCd=150&Type=search", "url2": "https://www.baijukai.jp/" }, "geometry": { "type": "Point", "coordinates": [ 131.812150699999961, 34.6867599 ] } },
{ "type": "Feature", "properties": { "内容": "くしろデイサービスセンター【通所介護】島根県益田市久城町531番地", "url": "https://www.kaigokensaku.mhlw.go.jp/32/index.php?action_kouhyou_detail_004_kani=true&JigyosyoCd=3270800281-00&ServiceCd=150&Type=search", "url2": "https://www.baijukai.jp/" }, "geometry": { "type": "Point", "coordinates": [ 131.850564, 34.7012591 ] } },
{ "type": "Feature", "properties": { "内容": "デイサービスたかつ【通所介護】島根県益田市高津１丁目７番１１号", "url": "https://www.kaigokensaku.mhlw.go.jp/32/index.php?action_kouhyou_detail_004_kani=true&JigyosyoCd=3270800802-00&ServiceCd=150&Type=search", "url2": "http://www.kaneshima.or.jp/" }, "geometry": { "type": "Point", "coordinates": [ 131.826054800000065, 34.6852964 ] } },
{ "type": "Feature", "properties": { "内容": "からおと苑【通所介護】益田市西平原町671-1", "url": "https://www.kaigokensaku.mhlw.go.jp/32/index.php?action_kouhyou_detail_004_kani=true&JigyosyoCd=3270800224-00&ServiceCd=150&Type=search", "url2": "http://kamatefukushikai.jp/" }, "geometry": { "type": "Point", "coordinates": [ 131.878268912936392, 34.749893664143883 ] } },
{ "type": "Feature", "properties": { "内容": "七尾苑【通所介護】島根県益田市昭和町11番20号", "url": "https://www.kaigokensaku.mhlw.go.jp/32/index.php?action_kouhyou_detail_004_kani=true&JigyosyoCd=3270800331-00&ServiceCd=150&Type=search", "url2": "http://nanaofukushikai.jp" }, "geometry": { "type": "Point", "coordinates": [ 131.850955699999986, 34.6769448 ] } },
{ "type": "Feature", "properties": { "内容": "しろがねの里デイサービスセンター【通所介護】島根県大田市大田町大田ロ９８５-４、９８５－６、９８５－７", "url": "https://www.kaigokensaku.mhlw.go.jp/32/index.php?action_kouhyou_detail_004_kani=true&JigyosyoCd=3270500485-00&ServiceCd=150&Type=search", "url2": "https://shirogane.in/" }, "geometry": { "type": "Point", "coordinates": [ 132.500923599999965, 35.189506600000016 ] } },
{ "type": "Feature", "properties": { "内容": "シルバーハイツしろがねデイサービスセンター【通所介護】島根県大田市大田町大田イ３５３", "url": "https://www.kaigokensaku.mhlw.go.jp/32/index.php?action_kouhyou_detail_004_kani=true&JigyosyoCd=3270500626-00&ServiceCd=150&Type=search", "url2": "https://shirogane.in/" }, "geometry": { "type": "Point", "coordinates": [ 132.55343629999993, 35.175534 ] } },
{ "type": "Feature", "properties": { "内容": "デイサービスセンター　きれんげ元気館【通所介護】鳥井町鳥井１１９７－１１番地", "url": "https://www.kaigokensaku.mhlw.go.jp/32/index.php?action_kouhyou_detail_004_kani=true&JigyosyoCd=3270500717-00&ServiceCd=150&Type=search", "url2": "http://kirenge.com" }, "geometry": { "type": "Point", "coordinates": [ 132.47738093068844, 35.211516287530806 ] } },
{ "type": "Feature", "properties": { "内容": "湯の郷苑デイサービスセンター【通所介護】島根県大田市温泉津町上村461番地", "url": "https://www.kaigokensaku.mhlw.go.jp/32/index.php?action_kouhyou_detail_004_kani=true&JigyosyoCd=3271700050-00&ServiceCd=150&Type=search", "url2": "http://fukujikoukai.jp" }, "geometry": { "type": "Point", "coordinates": [ 132.349620800000025, 35.0698475 ] } },
{ "type": "Feature", "properties": { "内容": "デイサービスセンターむつみ苑【通所介護】大田市仁摩町天河内831番地", "url": "https://www.kaigokensaku.mhlw.go.jp/32/index.php?action_kouhyou_detail_004_kani=true&JigyosyoCd=3270500444-00&ServiceCd=150&Type=search", "url2": "http://www.shiosai.or.jp" }, "geometry": { "type": "Point", "coordinates": [ 132.407808299999942, 35.1443313 ] } },
{ "type": "Feature", "properties": { "内容": "ビラおおだデイサービスセンター【通所介護】大田市川合町川合1081-2", "url": "https://www.kaigokensaku.mhlw.go.jp/32/index.php?action_kouhyou_detail_004_kani=true&JigyosyoCd=3270500097-00&ServiceCd=150&Type=search", "url2": "http://www.ooda-sj.jp" }, "geometry": { "type": "Point", "coordinates": [ 132.506845500000054, 35.1520364 ] } },
{ "type": "Feature", "properties": { "内容": "ビラたかやま【通所介護】大田市祖式町546-1", "url": "https://www.kaigokensaku.mhlw.go.jp/32/index.php?action_kouhyou_detail_004_kani=true&JigyosyoCd=3270500030-00&ServiceCd=150&Type=search", "url2": "http://www.ooda-sj.jp/" }, "geometry": { "type": "Point", "coordinates": [ 132.453215099999966, 35.0673431 ] } },
{ "type": "Feature", "properties": { "内容": "ビラあさやま【通所介護】大田市朝山町朝倉706-1", "url": "https://www.kaigokensaku.mhlw.go.jp/32/index.php?action_kouhyou_detail_004_kani=true&JigyosyoCd=3270500048-00&ServiceCd=150&Type=search", "url2": "https://admin105.adming03.susanoo-inst.com/login/oodasj2022" }, "geometry": { "type": "Point", "coordinates": [ 132.561822200000051, 35.247427 ] } },
{ "type": "Feature", "properties": { "内容": "障害者地域生活支援センターせいふう【通所介護】島根県大田市大田町吉永1453番地24", "url": "https://www.kaigokensaku.mhlw.go.jp/32/index.php?action_kouhyou_detail_004_kani=true&JigyosyoCd=3270500808-00&ServiceCd=150&Type=search", "url2": "https://www.ssw.or.jp/" }, "geometry": { "type": "Point", "coordinates": [ 132.501451300000014, 35.1805604 ] } },
{ "type": "Feature", "properties": { "内容": "通所介護サンデイズ双葉園【通所介護】大田市鳥井町鳥井1881-1", "url": "https://www.kaigokensaku.mhlw.go.jp/32/index.php?action_kouhyou_detail_004_kani=true&JigyosyoCd=3270500162-00&ServiceCd=150&Type=search", "url2": null }, "geometry": { "type": "Point", "coordinates": [ 132.4854166, 35.2146537 ] } },
{ "type": "Feature", "properties": { "内容": "クローバーナイン【通所介護】久手町刺鹿1902-3", "url": "https://www.kaigokensaku.mhlw.go.jp/32/index.php?action_kouhyou_detail_004_kani=true&JigyosyoCd=3270500469-00&ServiceCd=150&Type=search", "url2": "https://www.clover-nine.com/" }, "geometry": { "type": "Point", "coordinates": [ 132.516428145925545, 35.224015268539418 ] } },
{ "type": "Feature", "properties": { "内容": "ドリームデイ　いろり【通所介護】大田市久手町刺鹿2194－1", "url": "https://www.kaigokensaku.mhlw.go.jp/32/index.php?action_kouhyou_detail_004_kani=true&JigyosyoCd=3270500345-00&ServiceCd=150&Type=search", "url2": "https://www.dreamday-irori.net/" }, "geometry": { "type": "Point", "coordinates": [ 132.507918722864105, 35.224662042949127 ] } },
{ "type": "Feature", "properties": { "内容": "デイサービスかじかの郷【通所介護】安来市広瀬町宇波484-2", "url": "https://www.kaigokensaku.mhlw.go.jp/32/index.php?action_kouhyou_detail_004_kani=true&JigyosyoCd=3270200318-00&ServiceCd=150&Type=search", "url2": "https://www.toukou-g.com/" }, "geometry": { "type": "Point", "coordinates": [ 133.190956599999936, 35.3110834 ] } },
{ "type": "Feature", "properties": { "内容": "デイサービスセンターフィットネス【通所介護】島根県安来市安来町９３４－２", "url": "https://www.kaigokensaku.mhlw.go.jp/32/index.php?action_kouhyou_detail_004_kani=true&JigyosyoCd=3270200334-00&ServiceCd=150&Type=search", "url2": "https://www.syourinkai.or.jp" }, "geometry": { "type": "Point", "coordinates": [ 133.252512199999956, 35.4335226 ] } },
{ "type": "Feature", "properties": { "内容": "せせらぎの里デイサービスセンターよしだ【通所介護】島根県安来市下吉田町２８６番地１", "url": "https://www.kaigokensaku.mhlw.go.jp/32/index.php?action_kouhyou_detail_004_kani=true&JigyosyoCd=3270200342-00&ServiceCd=150&Type=search", "url2": "http://yasugifukusikai.jp" }, "geometry": { "type": "Point", "coordinates": [ 133.234936006745897, 35.363211169604952 ] } },
{ "type": "Feature", "properties": { "内容": "しらさぎ苑第２デイサービスセンター【通所介護】島根県安来市古川町858-5", "url": "https://www.kaigokensaku.mhlw.go.jp/32/index.php?action_kouhyou_detail_004_kani=true&JigyosyoCd=3270200383-00&ServiceCd=150&Type=search", "url2": "http://www.sirasagi-yasugi.or.jp" }, "geometry": { "type": "Point", "coordinates": [ 133.195604399999979, 35.3749963 ] } },
{ "type": "Feature", "properties": { "内容": "いきいきの郷はくた指定通所介護事業所【通所介護】安来市伯太町安田1687いきいきの郷はくた", "url": "https://www.kaigokensaku.mhlw.go.jp/32/index.php?action_kouhyou_detail_004_kani=true&JigyosyoCd=3271200127-00&ServiceCd=150&Type=search", "url2": "http:/www.yasugishakyo.com" }, "geometry": { "type": "Point", "coordinates": [ 133.274121, 35.3725647 ] } },
{ "type": "Feature", "properties": { "内容": "広瀬デイサービスセンター【通所介護】島根県安来市広瀬町広瀬1911-1", "url": "https://www.kaigokensaku.mhlw.go.jp/32/index.php?action_kouhyou_detail_004_kani=true&JigyosyoCd=3271200135-00&ServiceCd=150&Type=search", "url2": "http://amago-taiyo.jp/" }, "geometry": { "type": "Point", "coordinates": [ 133.177536300000043, 35.3688437 ] } },
{ "type": "Feature", "properties": { "内容": "太陽デイサービスセンター【通所介護】島根県安来市広瀬町下山佐330番3", "url": "https://www.kaigokensaku.mhlw.go.jp/32/index.php?action_kouhyou_detail_004_kani=true&JigyosyoCd=3271200077-00&ServiceCd=150&Type=search", "url2": "http://amago-taiyo.jp/" }, "geometry": { "type": "Point", "coordinates": [ 133.157243599999987, 35.349481599999983 ] } },
{ "type": "Feature", "properties": { "内容": "社会福祉法人せんだん会　デイサービスセンター　ほほえみの園【通所介護】安来市安来町９６０－１", "url": "https://www.kaigokensaku.mhlw.go.jp/32/index.php?action_kouhyou_detail_004_kani=true&JigyosyoCd=3270200102-00&ServiceCd=150&Type=search", "url2": "http://www.sendankai.net" }, "geometry": { "type": "Point", "coordinates": [ 133.25298429999998, 35.4342197 ] } },
{ "type": "Feature", "properties": { "内容": "デイサービスしののめ【通所介護】安来市広瀬町東比田950-1", "url": "https://www.kaigokensaku.mhlw.go.jp/32/index.php?action_kouhyou_detail_004_kani=true&JigyosyoCd=3270200243-00&ServiceCd=150&Type=search", "url2": "http://www.toukou-g.com/" }, "geometry": { "type": "Point", "coordinates": [ 133.176988, 35.2512426 ] } },
{ "type": "Feature", "properties": { "内容": "ながれぼし江津【通所介護】島根県江津市都野津町2363-7", "url": "https://www.kaigokensaku.mhlw.go.jp/32/index.php?action_kouhyou_detail_004_kani=true&JigyosyoCd=3270600590-00&ServiceCd=150&Type=search", "url2": "https://www.choraku.co.jp" }, "geometry": { "type": "Point", "coordinates": [ 132.1884294, 34.986399 ] } },
{ "type": "Feature", "properties": { "内容": "青山デイサービスセンター【通所介護】島根県江津市二宮町神主1964-31", "url": "https://www.kaigokensaku.mhlw.go.jp/32/index.php?action_kouhyou_detail_004_kani=true&JigyosyoCd=3270600160-00&ServiceCd=150&Type=search", "url2": "https://www.iwamifukushikai.or.jp/" }, "geometry": { "type": "Point", "coordinates": [ 132.185512300000028, 34.9764347 ] } },
{ "type": "Feature", "properties": { "内容": "デイサービスセンター合歓の郷【通所介護】江津市後地町８２１番地", "url": "https://www.kaigokensaku.mhlw.go.jp/32/index.php?action_kouhyou_detail_004_kani=true&JigyosyoCd=3270600103-00&ServiceCd=150&Type=search", "url2": "https://www.hana-mura.net" }, "geometry": { "type": "Point", "coordinates": [ 132.301073299999985, 35.0376203 ] } },
{ "type": "Feature", "properties": { "内容": "白寿園【通所介護】江津市江津町1110", "url": "https://www.kaigokensaku.mhlw.go.jp/32/index.php?action_kouhyou_detail_004_kani=true&JigyosyoCd=3270690013-00&ServiceCd=150&Type=search", "url2": "http://hakujyuen.jp" }, "geometry": { "type": "Point", "coordinates": [ 132.217727800000034, 35.0132312 ] } },
{ "type": "Feature", "properties": { "内容": "よろこぼう屋デイサービスの家【通所介護】江津市和木町1173-5", "url": "https://www.kaigokensaku.mhlw.go.jp/32/index.php?action_kouhyou_detail_004_kani=true&JigyosyoCd=3270600319-00&ServiceCd=150&Type=search", "url2": "http://www.yorokobouya.jp/" }, "geometry": { "type": "Point", "coordinates": [ 132.203100190351819, 35.004504861789954 ] } },
{ "type": "Feature", "properties": { "内容": "ニチイケアセンターあかがわ【通所介護】島根県雲南市大東町仁和寺1918-7", "url": "https://www.kaigokensaku.mhlw.go.jp/32/index.php?action_kouhyou_detail_004_kani=true&JigyosyoCd=3271400271-00&ServiceCd=150&Type=search", "url2": null }, "geometry": { "type": "Point", "coordinates": [ 132.937134, 35.334698 ] } },
{ "type": "Feature", "properties": { "内容": "加茂デイサービスセンター【通所介護】島根県雲南市加茂町宇治328番地", "url": "https://www.kaigokensaku.mhlw.go.jp/32/index.php?action_kouhyou_detail_004_kani=true&JigyosyoCd=3271400347-00&ServiceCd=150&Type=search", "url2": "http://kamofukushikai.jp/publics/index/20/&anchor_link=page20#page20" }, "geometry": { "type": "Point", "coordinates": [ 132.905906499999986, 35.341807299999978 ] } },
{ "type": "Feature", "properties": { "内容": "デイサービスセンターみとや【通所介護】雲南市三刀屋町三刀屋1212-3", "url": "https://www.kaigokensaku.mhlw.go.jp/32/index.php?action_kouhyou_detail_004_kani=true&JigyosyoCd=3271500146-00&ServiceCd=150&Type=search", "url2": "http://unnanshakyo.jp/" }, "geometry": { "type": "Point", "coordinates": [ 132.885029300000042, 35.2941468 ] } },
{ "type": "Feature", "properties": { "内容": "通所介護事業所おおぎ【通所介護】雲南市大東町大東1038", "url": "https://www.kaigokensaku.mhlw.go.jp/32/index.php?action_kouhyou_detail_004_kani=true&JigyosyoCd=3271400131-00&ServiceCd=150&Type=search", "url2": null }, "geometry": { "type": "Point", "coordinates": [ 132.964192499999967, 35.3207671 ] } },
{ "type": "Feature", "properties": { "内容": "好老センター通所介護事業所【通所介護】雲南市掛合町掛合1310", "url": "https://www.kaigokensaku.mhlw.go.jp/32/index.php?action_kouhyou_detail_004_kani=true&JigyosyoCd=3271500302-00&ServiceCd=150&Type=search", "url2": "http://unnanshakyo.jp/" }, "geometry": { "type": "Point", "coordinates": [ 132.813388900000064, 35.1961584 ] } },
{ "type": "Feature", "properties": { "内容": "雲南ケアセンターそよ風【通所介護】島根県雲南市木次町里方1093-119", "url": "https://www.kaigokensaku.mhlw.go.jp/32/index.php?action_kouhyou_detail_004_kani=true&JigyosyoCd=3271400701-00&ServiceCd=150&Type=search", "url2": "https://www.sykz.co.jp/" }, "geometry": { "type": "Point", "coordinates": [ 132.9113925, 35.3156451 ] } },
{ "type": "Feature", "properties": { "内容": "木次町デイサービスセンター【通所介護】島根県雲南市木次町東日登345番地1", "url": "https://www.kaigokensaku.mhlw.go.jp/32/index.php?action_kouhyou_detail_004_kani=true&JigyosyoCd=3271400081-00&ServiceCd=150&Type=search", "url2": "https://www.sakurasaku-home.org/" }, "geometry": { "type": "Point", "coordinates": [ 132.92538890000003, 35.2792244 ] } },
{ "type": "Feature", "properties": { "内容": "デイサービス　ほっと【通所介護】雲南市大東町新庄283-1", "url": "https://www.kaigokensaku.mhlw.go.jp/32/index.php?action_kouhyou_detail_004_kani=true&JigyosyoCd=3271400248-00&ServiceCd=150&Type=search", "url2": "http//user.yoitoko.jp.hottoman/" }, "geometry": { "type": "Point", "coordinates": [ 132.9880647, 35.3239119 ] } },
{ "type": "Feature", "properties": { "内容": "デイサービス新庄【通所介護】雲南市大東町新庄286－1", "url": "https://www.kaigokensaku.mhlw.go.jp/32/index.php?action_kouhyou_detail_004_kani=true&JigyosyoCd=3271400487-00&ServiceCd=150&Type=search", "url2": "http//user.yoitoko.jp/hottoman/" }, "geometry": { "type": "Point", "coordinates": [ 132.98803410000005, 35.3249285 ] } },
{ "type": "Feature", "properties": { "内容": "社会福祉法人川本福祉会　やすらぎ荘通所介護事業所【通所介護】島根県邑智郡川本町大字因原５７０－１", "url": "https://www.kaigokensaku.mhlw.go.jp/32/index.php?action_kouhyou_detail_004_kani=true&JigyosyoCd=3271800140-00&ServiceCd=150&Type=search", "url2": "http://www.kawamotofukushikai.jp/" }, "geometry": { "type": "Point", "coordinates": [ 132.472992699999963, 34.9642797 ] } },
{ "type": "Feature", "properties": { "内容": "美郷町社会福祉協議会　通所介護事業所　つくし苑【通所介護】美郷町潮村300-1", "url": "https://www.kaigokensaku.mhlw.go.jp/32/index.php?action_kouhyou_detail_004_kani=true&JigyosyoCd=3271800272-00&ServiceCd=150&Type=search", "url2": "http://www.misato-shakyo..jp" }, "geometry": { "type": "Point", "coordinates": [ 132.632446407131965, 35.013720141022702 ] } },
{ "type": "Feature", "properties": { "内容": "吾郷センター【通所介護】邑智郡美郷町滝原１６７番地１", "url": "https://www.kaigokensaku.mhlw.go.jp/32/index.php?action_kouhyou_detail_004_kani=true&JigyosyoCd=3271800322-00&ServiceCd=150&Type=search", "url2": "http://fish.mjracle.ne.jp/f-wave/" }, "geometry": { "type": "Point", "coordinates": [ 132.6000752, 35.0514465 ] } },
{ "type": "Feature", "properties": { "内容": "デイサービスやすらぎの里別府【通所介護】邑智郡美郷町別府8番5", "url": "https://www.kaigokensaku.mhlw.go.jp/32/index.php?action_kouhyou_detail_004_kani=true&JigyosyoCd=3271800595-00&ServiceCd=150&Type=search", "url2": "https://keiai-beppu.or.jp" }, "geometry": { "type": "Point", "coordinates": [ 132.525545800000032, 35.098284 ] } },
{ "type": "Feature", "properties": { "内容": "邑南社協西部通所介護事業所【通所介護】島根県邑智郡邑南町中野3848番地2", "url": "https://www.kaigokensaku.mhlw.go.jp/32/index.php?action_kouhyou_detail_004_kani=true&JigyosyoCd=3271800447-00&ServiceCd=150&Type=search", "url2": null }, "geometry": { "type": "Point", "coordinates": [ 132.452832400000034, 34.8960358 ] } },
{ "type": "Feature", "properties": { "内容": "瑞穂西デイサービスセンター【通所介護】邑智郡邑南町上亀谷2181-1", "url": "https://www.kaigokensaku.mhlw.go.jp/32/index.php?action_kouhyou_detail_004_kani=true&JigyosyoCd=3271800355-00&ServiceCd=150&Type=search", "url2": "http://oonanfukushikai.jp/" }, "geometry": { "type": "Point", "coordinates": [ 132.515926400000012, 34.8458531 ] } },
{ "type": "Feature", "properties": { "内容": "老人デイサービスセンター希望の郷【通所介護】島根県邑智郡邑南町矢上3899-1", "url": "https://www.kaigokensaku.mhlw.go.jp/32/index.php?action_kouhyou_detail_004_kani=true&JigyosyoCd=3271800504-00&ServiceCd=150&Type=search", "url2": "http://iwamisakurakai.or.jp" }, "geometry": { "type": "Point", "coordinates": [ 132.4398615, 34.8891779 ] } },
{ "type": "Feature", "properties": { "内容": "邑南社協東部事業所【通所介護】島根県邑智郡邑南町下口羽３８４番地安心センターはすみ", "url": "https://www.kaigokensaku.mhlw.go.jp/32/index.php?action_kouhyou_detail_004_kani=true&JigyosyoCd=3271800405-00&ServiceCd=150&Type=search", "url2": null }, "geometry": { "type": "Point", "coordinates": [ 132.665031296958915, 34.881019829004686 ] } },
{ "type": "Feature", "properties": { "内容": "六日市デイサービスセンター【通所介護】鹿足郡吉賀町六日市573-2", "url": "https://www.kaigokensaku.mhlw.go.jp/32/index.php?action_kouhyou_detail_004_kani=true&JigyosyoCd=3272100094-00&ServiceCd=150&Type=search", "url2": "http://yoshika-syakyo.jp" }, "geometry": { "type": "Point", "coordinates": [ 131.9371605, 34.3559877 ] } },
{ "type": "Feature", "properties": { "内容": "社会福祉法人海士町社会福祉協議会【通所介護】隠岐郡海士町大字海士3969-1", "url": "https://www.kaigokensaku.mhlw.go.jp/32/index.php?action_kouhyou_detail_004_kani=true&JigyosyoCd=3272200076-00&ServiceCd=150&Type=search", "url2": "https://www.amasyakyo.com/" }, "geometry": { "type": "Point", "coordinates": [ 133.094759100000033, 36.0986543 ] } },
{ "type": "Feature", "properties": { "内容": "みゆき荘デイサービスセンター【通所介護】島根県隠岐郡西ノ島町大字美田3078番地19", "url": "https://www.kaigokensaku.mhlw.go.jp/32/index.php?action_kouhyou_detail_004_kani=true&JigyosyoCd=3272200563-00&ServiceCd=150&Type=search", "url2": "http://www.nishinoshima-fukushikai.com/" }, "geometry": { "type": "Point", "coordinates": [ 133.011611760188316, 36.101387852966354 ] } },
{ "type": "Feature", "properties": { "内容": "えんがわ【通所介護】加茂414", "url": "https://www.kaigokensaku.mhlw.go.jp/32/index.php?action_kouhyou_detail_004_kani=true&JigyosyoCd=3272200860-00&ServiceCd=150&Type=search", "url2": null }, "geometry": { "type": "Point", "coordinates": [ 139.0402073, 37.6663153 ] } },
{ "type": "Feature", "properties": { "内容": "岬町デイサービスセンター【通所介護】島根県隠岐郡隠岐の島町岬町中の津の四302岬町デイサービスセンター", "url": "https://www.kaigokensaku.mhlw.go.jp/32/index.php?action_kouhyou_detail_004_kani=true&JigyosyoCd=3292200114-00&ServiceCd=150&Type=search", "url2": null }, "geometry": { "type": "Point", "coordinates": [ 133.334782896958927, 36.187332466590846 ] } },
{ "type": "Feature", "properties": { "内容": "ふれあい五箇通所介護事業所【通所介護】隠岐の島町北方278-2", "url": "https://www.kaigokensaku.mhlw.go.jp/32/index.php?action_kouhyou_detail_004_kani=true&JigyosyoCd=3272200514-00&ServiceCd=150&Type=search", "url2": "https://fureaigoka.web.fc2.com/" }, "geometry": { "type": "Point", "coordinates": [ 133.227180399999952, 36.2887062 ] } },
{ "type": "Feature", "properties": { "内容": "中条デイサービスセンター【通所介護】島根県隠岐郡隠岐の島町原田３９０－３番地", "url": "https://www.kaigokensaku.mhlw.go.jp/32/index.php?action_kouhyou_detail_004_kani=true&JigyosyoCd=3272200779-00&ServiceCd=150&Type=search", "url2": null }, "geometry": { "type": "Point", "coordinates": [ 133.297235900000032, 36.2285327 ] } },
{ "type": "Feature", "properties": { "内容": "住吉デイサービスセンター【通所介護】隠岐の島町都万1791-1", "url": "https://www.kaigokensaku.mhlw.go.jp/32/index.php?action_kouhyou_detail_004_kani=true&JigyosyoCd=3272200217-00&ServiceCd=150&Type=search", "url2": "https://www.takatakai.com/" }, "geometry": { "type": "Point", "coordinates": [ 133.235854600000039, 36.1968524 ] } }
]
}
