{
"type": "FeatureCollection",
"name": "geo_32_特定福祉用具販売",
"crs": { "type": "name", "properties": { "name": "urn:ogc:def:crs:OGC:1.3:CRS84" } },
"features": [
{ "type": "Feature", "properties": { "内容": "ニチイケアセンター松江【特定福祉用具販売】松江市浜乃木6丁目8番8号コーポ岡乃山１０５号", "url": "https://www.kaigokensaku.mhlw.go.jp/32/index.php?action_kouhyou_detail_004_kani=true&JigyosyoCd=3270100294-00&ServiceCd=410&Type=search", "url2": "http://www.nichiigakkan.co.jp" }, "geometry": { "type": "Point", "coordinates": [ 133.055227514758343, 35.443814473906258 ] } },
{ "type": "Feature", "properties": { "内容": "ウェルネス介護センター松江【特定福祉用具販売】島根県松江市黒田町454－1", "url": "https://www.kaigokensaku.mhlw.go.jp/32/index.php?action_kouhyou_detail_004_kani=true&JigyosyoCd=3270103546-00&ServiceCd=410&Type=search", "url2": "http://www.wellness-web.co.jp" }, "geometry": { "type": "Point", "coordinates": [ 133.043714, 35.4788525 ] } },
{ "type": "Feature", "properties": { "内容": "マイスタイルSC【特定福祉用具販売】島根県松江市袖師町7-12袖師中村ビル1階", "url": "https://www.kaigokensaku.mhlw.go.jp/32/index.php?action_kouhyou_detail_004_kani=true&JigyosyoCd=3270104312-00&ServiceCd=410&Type=search", "url2": null }, "geometry": { "type": "Point", "coordinates": [ 132.6293446, 35.1244094 ] } },
{ "type": "Feature", "properties": { "内容": "オレンジロード【特定福祉用具販売】松江市学園2丁目25番8号", "url": "https://www.kaigokensaku.mhlw.go.jp/32/index.php?action_kouhyou_detail_004_kani=true&JigyosyoCd=3270101326-00&ServiceCd=410&Type=search", "url2": "http://www.orangeroad.co.jp/" }, "geometry": { "type": "Point", "coordinates": [ 133.069108700000015, 35.483375 ] } },
{ "type": "Feature", "properties": { "内容": "株式会社ハピネライフ一光　松江支社【特定福祉用具販売】松江市西嫁島2丁目7-9", "url": "https://www.kaigokensaku.mhlw.go.jp/32/index.php?action_kouhyou_detail_004_kani=true&JigyosyoCd=3270100328-00&ServiceCd=410&Type=search", "url2": "http://www.hapine.com" }, "geometry": { "type": "Point", "coordinates": [ 133.0473204, 35.4452039 ] } },
{ "type": "Feature", "properties": { "内容": "株式会社ウィードメディカル松江営業所【特定福祉用具販売】松江市嫁島町10-7", "url": "https://www.kaigokensaku.mhlw.go.jp/32/index.php?action_kouhyou_detail_004_kani=true&JigyosyoCd=3270101300-00&ServiceCd=410&Type=search", "url2": "http://kaigo-fukushi.jpn.com/" }, "geometry": { "type": "Point", "coordinates": [ 133.049181099999942, 35.4518143 ] } },
{ "type": "Feature", "properties": { "内容": "株式会社　ピー・エム・エス【特定福祉用具販売】松江市黒田町344-3", "url": "https://www.kaigokensaku.mhlw.go.jp/32/index.php?action_kouhyou_detail_004_kani=true&JigyosyoCd=3270100260-00&ServiceCd=410&Type=search", "url2": "http://pms-v.com" }, "geometry": { "type": "Point", "coordinates": [ 133.0424031, 35.4764056 ] } },
{ "type": "Feature", "properties": { "内容": "株式会社原商松江事業所【特定福祉用具販売】島根県松江市学園１丁目9-3", "url": "https://www.kaigokensaku.mhlw.go.jp/32/index.php?action_kouhyou_detail_004_kani=true&JigyosyoCd=3270101953-00&ServiceCd=410&Type=search", "url2": "www.harasho.co.jp/kaigo/index/himl" }, "geometry": { "type": "Point", "coordinates": [ 133.066702586162364, 35.480147342185731 ] } },
{ "type": "Feature", "properties": { "内容": "株式会社　原商【特定福祉用具販売】松江市宍道町白石81-28", "url": "https://www.kaigokensaku.mhlw.go.jp/32/index.php?action_kouhyou_detail_004_kani=true&JigyosyoCd=3271100475-00&ServiceCd=410&Type=search", "url2": "http://www.harasho.co.jp" }, "geometry": { "type": "Point", "coordinates": [ 132.926424190074187, 35.414406385744037 ] } },
{ "type": "Feature", "properties": { "内容": "フィットアップ【特定福祉用具販売】島根県松江市八雲町西岩坂329番地1", "url": "https://www.kaigokensaku.mhlw.go.jp/32/index.php?action_kouhyou_detail_004_kani=true&JigyosyoCd=3270103058-00&ServiceCd=410&Type=search", "url2": "http://www.toukou-g.com/" }, "geometry": { "type": "Point", "coordinates": [ 133.090022115248871, 35.405612510272327 ] } },
{ "type": "Feature", "properties": { "内容": "大興機械商事株式会社（らくらくタイコー）【特定福祉用具販売】松江市北田町６３－４", "url": "https://www.kaigokensaku.mhlw.go.jp/32/index.php?action_kouhyou_detail_004_kani=true&JigyosyoCd=3270101144-00&ServiceCd=410&Type=search", "url2": "https://raku2-taiko.com/" }, "geometry": { "type": "Point", "coordinates": [ 133.05932370000005, 35.4777476 ] } },
{ "type": "Feature", "properties": { "内容": "ジョイ･ケアたいよう松江店【特定福祉用具販売】松江市乃白町527-5", "url": "https://www.kaigokensaku.mhlw.go.jp/32/index.php?action_kouhyou_detail_004_kani=true&JigyosyoCd=3270103090-00&ServiceCd=410&Type=search", "url2": "http://www.joycare.jp" }, "geometry": { "type": "Point", "coordinates": [ 133.048612, 35.4352777 ] } },
{ "type": "Feature", "properties": { "内容": "有限会社げんき堂松江支店【特定福祉用具販売】島根県松江市古志原5-6-23", "url": "https://www.kaigokensaku.mhlw.go.jp/32/index.php?action_kouhyou_detail_004_kani=true&JigyosyoCd=3270101284-00&ServiceCd=410&Type=search", "url2": "http://genkido-info.jimdo.com/" }, "geometry": { "type": "Point", "coordinates": [ 133.083381436909491, 35.444524195659163 ] } },
{ "type": "Feature", "properties": { "内容": "有限会社　レンタルケア松江【特定福祉用具販売】松江市下東川津町２６８－８", "url": "https://www.kaigokensaku.mhlw.go.jp/32/index.php?action_kouhyou_detail_004_kani=true&JigyosyoCd=3270100930-00&ServiceCd=410&Type=search", "url2": null }, "geometry": { "type": "Point", "coordinates": [ 133.089191600000049, 35.5027316 ] } },
{ "type": "Feature", "properties": { "内容": "有限会社介護ショップもちだ松江営業所【特定福祉用具販売】島根県松江市東津田町１９０３番地４東光ハイツⅢ　１Ｆ", "url": "https://www.kaigokensaku.mhlw.go.jp/32/index.php?action_kouhyou_detail_004_kani=true&JigyosyoCd=3270104304-00&ServiceCd=410&Type=search", "url2": null }, "geometry": { "type": "Point", "coordinates": [ 133.0984484, 35.4518428 ] } },
{ "type": "Feature", "properties": { "内容": "福祉サービス事業部　やまさと【特定福祉用具販売】矢田町　36-1", "url": "https://www.kaigokensaku.mhlw.go.jp/32/index.php?action_kouhyou_detail_004_kani=true&JigyosyoCd=3270102118-00&ServiceCd=410&Type=search", "url2": null }, "geometry": { "type": "Point", "coordinates": [ 133.102836734532161, 35.449831312340805 ] } },
{ "type": "Feature", "properties": { "内容": "ケアシヨップももたろう　松江店【特定福祉用具販売】島根県松江市西川津町748-51コーポだけみ1F", "url": "https://www.kaigokensaku.mhlw.go.jp/32/index.php?action_kouhyou_detail_004_kani=true&JigyosyoCd=3270104163-00&ServiceCd=410&Type=search", "url2": null }, "geometry": { "type": "Point", "coordinates": [ 133.0751625, 35.4928192 ] } },
{ "type": "Feature", "properties": { "内容": "(株)岩多屋福祉事業部浜田【特定福祉用具販売】島根県浜田市下府町388-27", "url": "https://www.kaigokensaku.mhlw.go.jp/32/index.php?action_kouhyou_detail_004_kani=true&JigyosyoCd=3270701307-00&ServiceCd=410&Type=search", "url2": "http://www.iwataya-net.co.jp/" }, "geometry": { "type": "Point", "coordinates": [ 132.117598600000065, 34.9232339 ] } },
{ "type": "Feature", "properties": { "内容": "ほほえみライフ【特定福祉用具販売】島根県浜田市下府町327-119", "url": "https://www.kaigokensaku.mhlw.go.jp/32/index.php?action_kouhyou_detail_004_kani=true&JigyosyoCd=3270700820-00&ServiceCd=410&Type=search", "url2": "https://hohoemilife-shimane.com/" }, "geometry": { "type": "Point", "coordinates": [ 132.112988099999939, 34.9153901 ] } },
{ "type": "Feature", "properties": { "内容": "さわやかケアチャーム事業所【特定福祉用具販売】浜田市下府町190", "url": "https://www.kaigokensaku.mhlw.go.jp/32/index.php?action_kouhyou_detail_004_kani=true&JigyosyoCd=3270700242-00&ServiceCd=410&Type=search", "url2": "http://www.charmgroup.jp" }, "geometry": { "type": "Point", "coordinates": [ 132.11120470000003, 34.923106 ] } },
{ "type": "Feature", "properties": { "内容": "株式会社原商　浜田事業所【特定福祉用具販売】浜田市下府町327-24", "url": "https://www.kaigokensaku.mhlw.go.jp/32/index.php?action_kouhyou_detail_004_kani=true&JigyosyoCd=3270700440-00&ServiceCd=410&Type=search", "url2": "http://www.harasho.co.jp" }, "geometry": { "type": "Point", "coordinates": [ 132.113354800000025, 34.9148096 ] } },
{ "type": "Feature", "properties": { "内容": "弁慶しまね【特定福祉用具販売】浜田市黒川町９７－１０", "url": "https://www.kaigokensaku.mhlw.go.jp/32/index.php?action_kouhyou_detail_004_kani=true&JigyosyoCd=3270700572-00&ServiceCd=410&Type=search", "url2": "http://www.showa-s.jp/" }, "geometry": { "type": "Point", "coordinates": [ 132.090926699999955, 34.9010082 ] } },
{ "type": "Feature", "properties": { "内容": "株式会社イトガ【特定福祉用具販売】島根県出雲市神西沖町１６８７－１１", "url": "https://www.kaigokensaku.mhlw.go.jp/32/index.php?action_kouhyou_detail_004_kani=true&JigyosyoCd=3270401478-00&ServiceCd=410&Type=search", "url2": null }, "geometry": { "type": "Point", "coordinates": [ 132.695413499999972, 35.3379174 ] } },
{ "type": "Feature", "properties": { "内容": "コニファー　株式会社【特定福祉用具販売】出雲市塩冶神前６-１-８", "url": "https://www.kaigokensaku.mhlw.go.jp/32/index.php?action_kouhyou_detail_004_kani=true&JigyosyoCd=3270401544-00&ServiceCd=410&Type=search", "url2": null }, "geometry": { "type": "Point", "coordinates": [ 132.758328900000038, 35.3483096 ] } },
{ "type": "Feature", "properties": { "内容": "ゆず【特定福祉用具販売】島根県　出雲市　斐川町　神氷　2871", "url": "https://www.kaigokensaku.mhlw.go.jp/32/index.php?action_kouhyou_detail_004_kani=true&JigyosyoCd=3270402823-00&ServiceCd=410&Type=search", "url2": "https://yuzu-izumo.com/" }, "geometry": { "type": "Point", "coordinates": [ 132.809619703010526, 35.374181458580672 ] } },
{ "type": "Feature", "properties": { "内容": "ハピネライフ一光　出雲支社【特定福祉用具販売】出雲市渡橋町418番地", "url": "https://www.kaigokensaku.mhlw.go.jp/32/index.php?action_kouhyou_detail_004_kani=true&JigyosyoCd=3270400231-00&ServiceCd=410&Type=search", "url2": "http://www.hapine.com" }, "geometry": { "type": "Point", "coordinates": [ 132.748884800000042, 35.3670738 ] } },
{ "type": "Feature", "properties": { "内容": "ダスキンヘルスレント島根東ステーション【特定福祉用具販売】小山町333-1", "url": "https://www.kaigokensaku.mhlw.go.jp/32/index.php?action_kouhyou_detail_004_kani=true&JigyosyoCd=3270402864-00&ServiceCd=410&Type=search", "url2": "https://healthrent.duskin.jp/" }, "geometry": { "type": "Point", "coordinates": [ 132.741376800000012, 35.3734645 ] } },
{ "type": "Feature", "properties": { "内容": "(株)岩多屋福祉事業部出雲【特定福祉用具販売】島根県出雲市長浜町６５９－２１", "url": "https://www.kaigokensaku.mhlw.go.jp/32/index.php?action_kouhyou_detail_004_kani=true&JigyosyoCd=3270402989-00&ServiceCd=410&Type=search", "url2": "http://www.iwataya-net.co.jp/" }, "geometry": { "type": "Point", "coordinates": [ 132.692232200000035, 35.3573405 ] } },
{ "type": "Feature", "properties": { "内容": "株式会社ホームケアー島根【特定福祉用具販売】島根県出雲市斐川町上直江2139-135", "url": "https://www.kaigokensaku.mhlw.go.jp/32/index.php?action_kouhyou_detail_004_kani=true&JigyosyoCd=3270400017-00&ServiceCd=410&Type=search", "url2": "http//www.homecare-shimane.jp/" }, "geometry": { "type": "Point", "coordinates": [ 132.815688300000033, 35.3855561 ] } },
{ "type": "Feature", "properties": { "内容": "あえる介護ショップ【特定福祉用具販売】島根県出雲市西園町273-1", "url": "https://www.kaigokensaku.mhlw.go.jp/32/index.php?action_kouhyou_detail_004_kani=true&JigyosyoCd=3270400884-00&ServiceCd=410&Type=search", "url2": "http://www.spn-web.jp" }, "geometry": { "type": "Point", "coordinates": [ 132.697605713667571, 35.349730026154376 ] } },
{ "type": "Feature", "properties": { "内容": "株式会社　こころ【特定福祉用具販売】出雲市斐川町荘原3951", "url": "https://www.kaigokensaku.mhlw.go.jp/32/index.php?action_kouhyou_detail_004_kani=true&JigyosyoCd=3271600672-00&ServiceCd=410&Type=search", "url2": null }, "geometry": { "type": "Point", "coordinates": [ 132.860267300000032, 35.39703 ] } },
{ "type": "Feature", "properties": { "内容": "株式会社原商　出雲事業所【特定福祉用具販売】島根県出雲市長浜町６５９－３９", "url": "https://www.kaigokensaku.mhlw.go.jp/32/index.php?action_kouhyou_detail_004_kani=true&JigyosyoCd=3270401627-00&ServiceCd=410&Type=search", "url2": "http://www.harasho.co.jp/inquiry/list.html#smile_izumo" }, "geometry": { "type": "Point", "coordinates": [ 132.693017213380585, 35.356307687304245 ] } },
{ "type": "Feature", "properties": { "内容": "ジョイ・ケア　たいよう【特定福祉用具販売】出雲市荻杼町526-10", "url": "https://www.kaigokensaku.mhlw.go.jp/32/index.php?action_kouhyou_detail_004_kani=true&JigyosyoCd=3270400785-00&ServiceCd=410&Type=search", "url2": "http://www.joycare.jp" }, "geometry": { "type": "Point", "coordinates": [ 132.765271100000064, 35.3835778 ] } },
{ "type": "Feature", "properties": { "内容": "有限会社アイライフ【特定福祉用具販売】出雲市里方町893-5", "url": "https://www.kaigokensaku.mhlw.go.jp/32/index.php?action_kouhyou_detail_004_kani=true&JigyosyoCd=3270400470-00&ServiceCd=410&Type=search", "url2": null }, "geometry": { "type": "Point", "coordinates": [ 132.746653199999969, 35.3885963 ] } },
{ "type": "Feature", "properties": { "内容": "有限会社　介護ショップもちだ【特定福祉用具販売】出雲市矢尾町885-1", "url": "https://www.kaigokensaku.mhlw.go.jp/32/index.php?action_kouhyou_detail_004_kani=true&JigyosyoCd=3270400389-00&ServiceCd=410&Type=search", "url2": null }, "geometry": { "type": "Point", "coordinates": [ 132.752574500000037, 35.3964149 ] } },
{ "type": "Feature", "properties": { "内容": "有限会社出雲リハビリサービス【特定福祉用具販売】島根県出雲市今市町547", "url": "https://www.kaigokensaku.mhlw.go.jp/32/index.php?action_kouhyou_detail_004_kani=true&JigyosyoCd=3270400702-00&ServiceCd=410&Type=search", "url2": null }, "geometry": { "type": "Point", "coordinates": [ 132.760817, 35.3645106 ] } },
{ "type": "Feature", "properties": { "内容": "まるてい介護福祉事業所【特定福祉用具販売】出雲市白枝町４２７－４", "url": "https://www.kaigokensaku.mhlw.go.jp/32/index.php?action_kouhyou_detail_004_kani=true&JigyosyoCd=3270400587-00&ServiceCd=410&Type=search", "url2": null }, "geometry": { "type": "Point", "coordinates": [ 132.737096022658307, 35.364050087793665 ] } },
{ "type": "Feature", "properties": { "内容": "有限会社　げんき堂　出雲営業所【特定福祉用具販売】島根県出雲市白枝町1153-1", "url": "https://www.kaigokensaku.mhlw.go.jp/32/index.php?action_kouhyou_detail_004_kani=true&JigyosyoCd=3270403433-00&ServiceCd=410&Type=search", "url2": "http://genkido-info.jimdo.com/" }, "geometry": { "type": "Point", "coordinates": [ 132.734160944770821, 35.374354706958989 ] } },
{ "type": "Feature", "properties": { "内容": "出雲レンタル【特定福祉用具販売】島根県出雲市天神町883-1三光ビル4号室", "url": "https://www.kaigokensaku.mhlw.go.jp/32/index.php?action_kouhyou_detail_004_kani=true&JigyosyoCd=3270403292-00&ServiceCd=410&Type=search", "url2": null }, "geometry": { "type": "Point", "coordinates": [ 132.745129, 35.3540185 ] } },
{ "type": "Feature", "properties": { "内容": "株式会社　歩夢　　ケアショップ　ももたろう【特定福祉用具販売】出雲市斐川町直江4641-2", "url": "https://www.kaigokensaku.mhlw.go.jp/32/index.php?action_kouhyou_detail_004_kani=true&JigyosyoCd=3271600706-00&ServiceCd=410&Type=search", "url2": null }, "geometry": { "type": "Point", "coordinates": [ 132.817274200000043, 35.3899833 ] } },
{ "type": "Feature", "properties": { "内容": "ダスキンヘルスレント島根西ステーション【特定福祉用具販売】島根県益田市市原町イ５９７－２", "url": "https://www.kaigokensaku.mhlw.go.jp/32/index.php?action_kouhyou_detail_004_kani=true&JigyosyoCd=3270801172-00&ServiceCd=410&Type=search", "url2": "https://healthrent.duskin.jp/" }, "geometry": { "type": "Point", "coordinates": [ 131.7907119, 34.670864 ] } },
{ "type": "Feature", "properties": { "内容": "益田福祉用具事業所　さくらんぼ【特定福祉用具販売】益田市駅前町3-19", "url": "https://www.kaigokensaku.mhlw.go.jp/32/index.php?action_kouhyou_detail_004_kani=true&JigyosyoCd=3270800844-00&ServiceCd=410&Type=search", "url2": "http://r.goope.jp/sakuranbo" }, "geometry": { "type": "Point", "coordinates": [ 131.84283419999997, 34.6754921 ] } },
{ "type": "Feature", "properties": { "内容": "（株）ハーツ　ハートケア事業部【特定福祉用具販売】かもしま東町4番地15", "url": "https://www.kaigokensaku.mhlw.go.jp/32/index.php?action_kouhyou_detail_004_kani=true&JigyosyoCd=3270801024-00&ServiceCd=410&Type=search", "url2": "http://hearts-gr.co.jp/" }, "geometry": { "type": "Point", "coordinates": [ 131.835409499999969, 34.6932984 ] } },
{ "type": "Feature", "properties": { "内容": "株式会社原商　益田事業所【特定福祉用具販売】島根県益田市あけぼの西町14-7", "url": "https://www.kaigokensaku.mhlw.go.jp/32/index.php?action_kouhyou_detail_004_kani=true&JigyosyoCd=3270801099-00&ServiceCd=410&Type=search", "url2": "http://www.harasho.co.jp" }, "geometry": { "type": "Point", "coordinates": [ 131.838639851629267, 34.681705469653537 ] } },
{ "type": "Feature", "properties": { "内容": "有限会社椋木商会【特定福祉用具販売】益田市幸町４番６３号", "url": "https://www.kaigokensaku.mhlw.go.jp/32/index.php?action_kouhyou_detail_004_kani=true&JigyosyoCd=3270800059-00&ServiceCd=410&Type=search", "url2": "http://mukunoki-ailand.jp" }, "geometry": { "type": "Point", "coordinates": [ 131.855488700000024, 34.6742312 ] } },
{ "type": "Feature", "properties": { "内容": "株式会社三浦溶材【特定福祉用具販売】高津５丁目２７番１１号", "url": "https://www.kaigokensaku.mhlw.go.jp/32/index.php?action_kouhyou_detail_004_kani=true&JigyosyoCd=3270800786-00&ServiceCd=410&Type=search", "url2": null }, "geometry": { "type": "Point", "coordinates": [ 131.81691120000005, 34.6884237 ] } },
{ "type": "Feature", "properties": { "内容": "林商事株式会社【特定福祉用具販売】大田市長久町長久イ506-1", "url": "https://www.kaigokensaku.mhlw.go.jp/32/index.php?action_kouhyou_detail_004_kani=true&JigyosyoCd=3270500113-00&ServiceCd=410&Type=search", "url2": "https://hayasi-shoji.com/" }, "geometry": { "type": "Point", "coordinates": [ 132.487038699999971, 35.1982304 ] } },
{ "type": "Feature", "properties": { "内容": "土江建材ウェル･ビーイング有限会社【特定福祉用具販売】大田市久手町波根西425番地3", "url": "https://www.kaigokensaku.mhlw.go.jp/32/index.php?action_kouhyou_detail_004_kani=true&JigyosyoCd=3270500410-00&ServiceCd=410&Type=search", "url2": "http://www3.ocn.ne.jp/~tkb/" }, "geometry": { "type": "Point", "coordinates": [ 132.524636048948622, 35.239579129674034 ] } },
{ "type": "Feature", "properties": { "内容": "有限会社　まめなか屋【特定福祉用具販売】大田市温泉津町小浜イ２１１－５", "url": "https://www.kaigokensaku.mhlw.go.jp/32/index.php?action_kouhyou_detail_004_kani=true&JigyosyoCd=3271700126-00&ServiceCd=410&Type=search", "url2": null }, "geometry": { "type": "Point", "coordinates": [ 132.35180349999996, 35.0840125 ] } },
{ "type": "Feature", "properties": { "内容": "ほっとライフ快適生活社【特定福祉用具販売】島根県大田市大田町大田ロ1329-14", "url": "https://www.kaigokensaku.mhlw.go.jp/32/index.php?action_kouhyou_detail_004_kani=true&JigyosyoCd=3270500394-00&ServiceCd=410&Type=search", "url2": null }, "geometry": { "type": "Point", "coordinates": [ 132.500276399999962, 35.1905759 ] } },
{ "type": "Feature", "properties": { "内容": "よしなが介護ショップ【特定福祉用具販売】島根県大田市川合町吉永1154", "url": "https://www.kaigokensaku.mhlw.go.jp/32/index.php?action_kouhyou_detail_004_kani=true&JigyosyoCd=3270500295-00&ServiceCd=410&Type=search", "url2": null }, "geometry": { "type": "Point", "coordinates": [ 132.508942299999944, 35.1725113 ] } },
{ "type": "Feature", "properties": { "内容": "有限会社福田金物福祉事業所【特定福祉用具販売】大田市大田町大田ロ940番地", "url": "https://www.kaigokensaku.mhlw.go.jp/32/index.php?action_kouhyou_detail_004_kani=true&JigyosyoCd=3270500204-00&ServiceCd=410&Type=search", "url2": null }, "geometry": { "type": "Point", "coordinates": [ 132.504309400000011, 35.1922925 ] } },
{ "type": "Feature", "properties": { "内容": "合同会社縁福祉用具のお店縁～えん～【特定福祉用具販売】島根県大田市久手町波根西778-4", "url": "https://www.kaigokensaku.mhlw.go.jp/32/index.php?action_kouhyou_detail_004_kani=true&JigyosyoCd=3270500790-00&ServiceCd=410&Type=search", "url2": null }, "geometry": { "type": "Point", "coordinates": [ 132.526317384561139, 35.233007789807736 ] } },
{ "type": "Feature", "properties": { "内容": "有限会社　家具ランド　タナカ【特定福祉用具販売】安来市飯島町289-3", "url": "https://www.kaigokensaku.mhlw.go.jp/32/index.php?action_kouhyou_detail_004_kani=true&JigyosyoCd=3270200219-00&ServiceCd=410&Type=search", "url2": "https://kaguland-tanaka.jimdo.com" }, "geometry": { "type": "Point", "coordinates": [ 133.238238, 35.4335781 ] } },
{ "type": "Feature", "properties": { "内容": "くにびきケアサービス【特定福祉用具販売】安来市荒島町1732番地6", "url": "https://www.kaigokensaku.mhlw.go.jp/32/index.php?action_kouhyou_detail_004_kani=true&JigyosyoCd=3270200250-00&ServiceCd=410&Type=search", "url2": "くにびきケアサービス" }, "geometry": { "type": "Point", "coordinates": [ 133.210290100000066, 35.4320113 ] } },
{ "type": "Feature", "properties": { "内容": "有限会社　げんき堂【特定福祉用具販売】安来市安来町1083番地", "url": "https://www.kaigokensaku.mhlw.go.jp/32/index.php?action_kouhyou_detail_004_kani=true&JigyosyoCd=3270200185-00&ServiceCd=410&Type=search", "url2": "http://genkido-info.jimdo.com/" }, "geometry": { "type": "Point", "coordinates": [ 133.254020500000024, 35.4317755 ] } },
{ "type": "Feature", "properties": { "内容": "有限会社　デイリー【特定福祉用具販売】島根県安来市広瀬町広瀬1875-1", "url": "https://www.kaigokensaku.mhlw.go.jp/32/index.php?action_kouhyou_detail_004_kani=true&JigyosyoCd=3270200235-00&ServiceCd=410&Type=search", "url2": null }, "geometry": { "type": "Point", "coordinates": [ 133.179966599999943, 35.3725601 ] } },
{ "type": "Feature", "properties": { "内容": "有限会社　ナカムラ【特定福祉用具販売】島根県安来市東赤江町331番地", "url": "https://www.kaigokensaku.mhlw.go.jp/32/index.php?action_kouhyou_detail_004_kani=true&JigyosyoCd=3270200201-00&ServiceCd=410&Type=search", "url2": null }, "geometry": { "type": "Point", "coordinates": [ 133.231340899999964, 35.4425857 ] } },
{ "type": "Feature", "properties": { "内容": "株式会社はしまや【特定福祉用具販売】吉佐町1017-1", "url": "https://www.kaigokensaku.mhlw.go.jp/32/index.php?action_kouhyou_detail_004_kani=true&JigyosyoCd=3270200367-00&ServiceCd=410&Type=search", "url2": "http://hashimaya.jp/" }, "geometry": { "type": "Point", "coordinates": [ 133.319229986369322, 35.410800682220845 ] } },
{ "type": "Feature", "properties": { "内容": "合同会社　北村風月堂【特定福祉用具販売】浅利町358番地17", "url": "https://www.kaigokensaku.mhlw.go.jp/32/index.php?action_kouhyou_detail_004_kani=true&JigyosyoCd=3270600616-00&ServiceCd=410&Type=search", "url2": null }, "geometry": { "type": "Point", "coordinates": [ 132.272445574868783, 35.034102547925194 ] } },
{ "type": "Feature", "properties": { "内容": "よろこぼう屋　福祉用具チーム【特定福祉用具販売】江津市和木町1173-3", "url": "https://www.kaigokensaku.mhlw.go.jp/32/index.php?action_kouhyou_detail_004_kani=true&JigyosyoCd=3270600459-00&ServiceCd=410&Type=search", "url2": "http://www.yorokobouya.jp/index.html" }, "geometry": { "type": "Point", "coordinates": [ 132.203030452917432, 35.004474103559943 ] } },
{ "type": "Feature", "properties": { "内容": "おちらと福祉用具サービス【特定福祉用具販売】島根県雲南市大東町大東1007-21", "url": "https://www.kaigokensaku.mhlw.go.jp/32/index.php?action_kouhyou_detail_004_kani=true&JigyosyoCd=3271400651-00&ServiceCd=410&Type=search", "url2": null }, "geometry": { "type": "Point", "coordinates": [ 132.964735453395321, 35.324739522163647 ] } },
{ "type": "Feature", "properties": { "内容": "株式会社　ホームケアー島根　雲南営業所【特定福祉用具販売】雲南市三刀屋町下熊谷1699-1", "url": "https://www.kaigokensaku.mhlw.go.jp/32/index.php?action_kouhyou_detail_004_kani=true&JigyosyoCd=3271400396-00&ServiceCd=410&Type=search", "url2": "http://www.homecare-shimane.jp/" }, "geometry": { "type": "Point", "coordinates": [ 132.893466529617513, 35.303065434527255 ] } },
{ "type": "Feature", "properties": { "内容": "株式会社原商　雲南事業所【特定福祉用具販売】島根県雲南市三刀屋町三刀屋73－4", "url": "https://www.kaigokensaku.mhlw.go.jp/32/index.php?action_kouhyou_detail_004_kani=true&JigyosyoCd=3271400636-00&ServiceCd=410&Type=search", "url2": "www.harasho.co.jp/" }, "geometry": { "type": "Point", "coordinates": [ 132.88950090000003, 35.3004878 ] } },
{ "type": "Feature", "properties": { "内容": "有限会社あいねっときすき【特定福祉用具販売】島根県雲南市木次町里方1335－33", "url": "https://www.kaigokensaku.mhlw.go.jp/32/index.php?action_kouhyou_detail_004_kani=true&JigyosyoCd=3271400263-00&ServiceCd=410&Type=search", "url2": null }, "geometry": { "type": "Point", "coordinates": [ 132.906811956514048, 35.312356907407406 ] } },
{ "type": "Feature", "properties": { "内容": "有限会社　ともみ工房【特定福祉用具販売】雲南市三刀屋町三刀屋1129-4", "url": "https://www.kaigokensaku.mhlw.go.jp/32/index.php?action_kouhyou_detail_004_kani=true&JigyosyoCd=3271400289-00&ServiceCd=410&Type=search", "url2": "http://www.tomomi-k.com/" }, "geometry": { "type": "Point", "coordinates": [ 132.875614494787357, 35.290256775642774 ] } },
{ "type": "Feature", "properties": { "内容": "有限会社マルタカメディカルサービス【特定福祉用具販売】雲南市大東町下佐世1001-5", "url": "https://www.kaigokensaku.mhlw.go.jp/32/index.php?action_kouhyou_detail_004_kani=true&JigyosyoCd=3271400198-00&ServiceCd=410&Type=search", "url2": null }, "geometry": { "type": "Point", "coordinates": [ 132.946094499999958, 35.3163949 ] } },
{ "type": "Feature", "properties": { "内容": "ライフサポート　こまわりsun【特定福祉用具販売】島根県仁多郡奥出雲町小馬木８０２番地４", "url": "https://www.kaigokensaku.mhlw.go.jp/32/index.php?action_kouhyou_detail_004_kani=true&JigyosyoCd=3271300158-00&ServiceCd=410&Type=search", "url2": null }, "geometry": { "type": "Point", "coordinates": [ 133.031429500000058, 35.1274378 ] } },
{ "type": "Feature", "properties": { "内容": "土江建材ウェル・ビーイング有限会社　川本事業所【特定福祉用具販売】島根県邑智郡川本町大字川本257番地2", "url": "https://www.kaigokensaku.mhlw.go.jp/32/index.php?action_kouhyou_detail_004_kani=true&JigyosyoCd=3271800710-00&ServiceCd=410&Type=search", "url2": null }, "geometry": { "type": "Point", "coordinates": [ 132.494626, 34.994556 ] } },
{ "type": "Feature", "properties": { "内容": "福祉用具ショップ　のだきゅう【特定福祉用具販売】山田75-1", "url": "https://www.kaigokensaku.mhlw.go.jp/32/index.php?action_kouhyou_detail_004_kani=true&JigyosyoCd=3271800678-00&ServiceCd=410&Type=search", "url2": null }, "geometry": { "type": "Point", "coordinates": [ 132.540899099999933, 34.8601132 ] } },
{ "type": "Feature", "properties": { "内容": "邑南社協福祉用具販売事業所【特定福祉用具販売】島根県邑智郡邑南町中野3848-2", "url": "https://www.kaigokensaku.mhlw.go.jp/32/index.php?action_kouhyou_detail_004_kani=true&JigyosyoCd=3271800470-00&ServiceCd=410&Type=search", "url2": null }, "geometry": { "type": "Point", "coordinates": [ 132.452501276002607, 34.896138162619209 ] } },
{ "type": "Feature", "properties": { "内容": "有限会社長藤商店【特定福祉用具販売】吉賀町七日市512番地", "url": "https://www.kaigokensaku.mhlw.go.jp/32/index.php?action_kouhyou_detail_004_kani=true&JigyosyoCd=3272100144-00&ServiceCd=410&Type=search", "url2": null }, "geometry": { "type": "Point", "coordinates": [ 131.892583699999932, 34.3875444 ] } },
{ "type": "Feature", "properties": { "内容": "福祉用具のさか【特定福祉用具販売】隠岐郡西ノ島町大字美田2157", "url": "https://www.kaigokensaku.mhlw.go.jp/32/index.php?action_kouhyou_detail_004_kani=true&JigyosyoCd=3272200456-00&ServiceCd=410&Type=search", "url2": null }, "geometry": { "type": "Point", "coordinates": [ 133.007907199999977, 36.1049677 ] } },
{ "type": "Feature", "properties": { "内容": "有限会社　　隠岐産機【特定福祉用具販売】隠岐郡隠岐の島町飯田前田31-5", "url": "https://www.kaigokensaku.mhlw.go.jp/32/index.php?action_kouhyou_detail_004_kani=true&JigyosyoCd=3272200464-00&ServiceCd=410&Type=search", "url2": null }, "geometry": { "type": "Point", "coordinates": [ 133.348877600000037, 36.2189827 ] } },
{ "type": "Feature", "properties": { "内容": "有限会社ライフランド【特定福祉用具販売】隠岐郡隠岐の島町平441-8", "url": "https://www.kaigokensaku.mhlw.go.jp/32/index.php?action_kouhyou_detail_004_kani=true&JigyosyoCd=3272200423-00&ServiceCd=410&Type=search", "url2": null }, "geometry": { "type": "Point", "coordinates": [ 133.306735099999969, 36.2159901 ] } },
{ "type": "Feature", "properties": { "内容": "有限会社　隠岐第一商事【特定福祉用具販売】隠岐の島町岬町岬1853-26", "url": "https://www.kaigokensaku.mhlw.go.jp/32/index.php?action_kouhyou_detail_004_kani=true&JigyosyoCd=3272200399-00&ServiceCd=410&Type=search", "url2": null }, "geometry": { "type": "Point", "coordinates": [ 133.3250511760574, 36.192896571394677 ] } }
]
}
