{
"type": "FeatureCollection",
"name": "geo_32_訪問リハビリテーション",
"crs": { "type": "name", "properties": { "name": "urn:ogc:def:crs:OGC:1.3:CRS84" } },
"features": [
{ "type": "Feature", "properties": { "内容": "淞北台メディカルスクエアよねだ内科【訪問リハビリテーション】島根県松江市東奥谷町144－12", "url": "https://www.kaigokensaku.mhlw.go.jp/32/index.php?action_kouhyou_detail_004_kani=true&JigyosyoCd=3210112789-00&ServiceCd=140&Type=search", "url2": null }, "geometry": { "type": "Point", "coordinates": [ 133.055479399999967, 35.4857854 ] } },
{ "type": "Feature", "properties": { "内容": "医療法人財団公仁会　鹿島病院【訪問リハビリテーション】島根県松江市鹿島町名分243-1", "url": "https://www.kaigokensaku.mhlw.go.jp/32/index.php?action_kouhyou_detail_004_kani=true&JigyosyoCd=3211110857-00&ServiceCd=140&Type=search", "url2": "http://www.kashima-hosp.or.jp" }, "geometry": { "type": "Point", "coordinates": [ 133.0069069, 35.5262282 ] } },
{ "type": "Feature", "properties": { "内容": "松江東健康クリニック【訪問リハビリテーション】西尾町13-1", "url": "https://www.kaigokensaku.mhlw.go.jp/32/index.php?action_kouhyou_detail_004_kani=true&JigyosyoCd=3210113076-00&ServiceCd=140&Type=search", "url2": "https://www.waka-kusa.jp" }, "geometry": { "type": "Point", "coordinates": [ 133.083052400000042, 35.4705464 ] } },
{ "type": "Feature", "properties": { "内容": "山口整形訪問リハビリテーション【訪問リハビリテーション】学園南1丁目13－34", "url": "https://www.kaigokensaku.mhlw.go.jp/32/index.php?action_kouhyou_detail_004_kani=true&JigyosyoCd=3210114439-00&ServiceCd=140&Type=search", "url2": null }, "geometry": { "type": "Point", "coordinates": [ 140.072809399999983, 36.0771335 ] } },
{ "type": "Feature", "properties": { "内容": "訪問リハビリテーション笑来1st【訪問リハビリテーション】島根県松江市川原町309-1", "url": "https://www.kaigokensaku.mhlw.go.jp/32/index.php?action_kouhyou_detail_004_kani=true&JigyosyoCd=3270103991-00&ServiceCd=140&Type=search", "url2": null }, "geometry": { "type": "Point", "coordinates": [ 133.092874599999959, 35.5027013 ] } },
{ "type": "Feature", "properties": { "内容": "さんさん訪問リハビリステーション【訪問リハビリテーション】島根県松江市東出雲町揖屋1196", "url": "https://www.kaigokensaku.mhlw.go.jp/32/index.php?action_kouhyou_detail_004_kani=true&JigyosyoCd=3270104551-00&ServiceCd=140&Type=search", "url2": "http://hc.sansancare.com/wp-login.php" }, "geometry": { "type": "Point", "coordinates": [ 133.153082, 35.4266954 ] } },
{ "type": "Feature", "properties": { "内容": "訪問リハビリテーション笑来２nd【訪問リハビリテーション】松江市新庄町1172", "url": "https://www.kaigokensaku.mhlw.go.jp/32/index.php?action_kouhyou_detail_004_kani=true&JigyosyoCd=3270104031-00&ServiceCd=140&Type=search", "url2": null }, "geometry": { "type": "Point", "coordinates": [ 133.1332294, 35.4994763 ] } },
{ "type": "Feature", "properties": { "内容": "医療法人社団創健介護医療院宇賀の里つばさ【訪問リハビリテーション】島根県松江市上乃木三丁目４番１号", "url": "https://www.kaigokensaku.mhlw.go.jp/32/index.php?action_kouhyou_detail_004_kani=true&JigyosyoCd=32B0100030-00&ServiceCd=140&Type=search", "url2": "https://www.souken-kai.or.jp/" }, "geometry": { "type": "Point", "coordinates": [ 133.0589539, 35.4485118 ] } },
{ "type": "Feature", "properties": { "内容": "もちだの郷訪問リハビリテーション事業所【訪問リハビリテーション】松江市東持田町520番地1", "url": "https://www.kaigokensaku.mhlw.go.jp/32/index.php?action_kouhyou_detail_004_kani=true&JigyosyoCd=3250180050-00&ServiceCd=140&Type=search", "url2": "http://www.kyousei.gr.jp/mochidanosato/html" }, "geometry": { "type": "Point", "coordinates": [ 133.08570839999993, 35.5080949 ] } },
{ "type": "Feature", "properties": { "内容": "虹　訪問リハビリテーション【訪問リハビリテーション】島根県松江市佐草町４５６－１", "url": "https://www.kaigokensaku.mhlw.go.jp/32/index.php?action_kouhyou_detail_004_kani=true&JigyosyoCd=3270103389-00&ServiceCd=140&Type=search", "url2": "http://roken-niji.jp/" }, "geometry": { "type": "Point", "coordinates": [ 133.072057800000039, 35.4316252 ] } },
{ "type": "Feature", "properties": { "内容": "訪問リハビリテーション　やつか【訪問リハビリテーション】島根県松江市八束町波入614番地9", "url": "https://www.kaigokensaku.mhlw.go.jp/32/index.php?action_kouhyou_detail_004_kani=true&JigyosyoCd=3270104254-00&ServiceCd=140&Type=search", "url2": "http://shimane-fukujuen.jp/" }, "geometry": { "type": "Point", "coordinates": [ 133.1790297, 35.4870251 ] } },
{ "type": "Feature", "properties": { "内容": "まつしま脳神経内科クリニック【訪問リハビリテーション】松江市下東川津町４２－５", "url": "https://www.kaigokensaku.mhlw.go.jp/32/index.php?action_kouhyou_detail_004_kani=true&JigyosyoCd=3210113670-00&ServiceCd=140&Type=search", "url2": null }, "geometry": { "type": "Point", "coordinates": [ 133.0804068, 35.4970903 ] } },
{ "type": "Feature", "properties": { "内容": "独立行政法人地域医療機能推進機構　玉造病院【訪問リハビリテーション】松江市玉湯町湯町１－２", "url": "https://www.kaigokensaku.mhlw.go.jp/32/index.php?action_kouhyou_detail_004_kani=true&JigyosyoCd=3211110030-00&ServiceCd=140&Type=search", "url2": "https://tamatsukuri.jcho.go.jp" }, "geometry": { "type": "Point", "coordinates": [ 133.018110400000069, 35.4308797 ] } },
{ "type": "Feature", "properties": { "内容": "夕陽ヶ丘訪問リハビリテーション【訪問リハビリテーション】島根県浜田市国分町955－1", "url": "https://www.kaigokensaku.mhlw.go.jp/32/index.php?action_kouhyou_detail_004_kani=true&JigyosyoCd=3250780008-00&ServiceCd=140&Type=search", "url2": "http://www.yuuhigaoka.org/" }, "geometry": { "type": "Point", "coordinates": [ 132.1167355, 34.9449728 ] } },
{ "type": "Feature", "properties": { "内容": "訪問リハビリテーションさざんか【訪問リハビリテーション】島根県浜田市金城町七条ハ403番地", "url": "https://www.kaigokensaku.mhlw.go.jp/32/index.php?action_kouhyou_detail_004_kani=true&JigyosyoCd=3251980011-00&ServiceCd=140&Type=search", "url2": "http://okita-naika.jp/" }, "geometry": { "type": "Point", "coordinates": [ 132.149292800000012, 34.8690188 ] } },
{ "type": "Feature", "properties": { "内容": "深田医院【訪問リハビリテーション】出雲市高岡町53-1", "url": "https://www.kaigokensaku.mhlw.go.jp/32/index.php?action_kouhyou_detail_004_kani=true&JigyosyoCd=3210411983-00&ServiceCd=140&Type=search", "url2": null }, "geometry": { "type": "Point", "coordinates": [ 132.759308199999964, 35.3781866 ] } },
{ "type": "Feature", "properties": { "内容": "大曲診療所【訪問リハビリテーション】島根県出雲市大津町1941", "url": "https://www.kaigokensaku.mhlw.go.jp/32/index.php?action_kouhyou_detail_004_kani=true&JigyosyoCd=3210412544-00&ServiceCd=140&Type=search", "url2": "https://izumo-hewcoop.jp/oomagari/" }, "geometry": { "type": "Point", "coordinates": [ 132.7731738, 35.3647803 ] } },
{ "type": "Feature", "properties": { "内容": "ひかわ医療生活協同組合　斐川生協病院　訪問リハビリテーションゆぃ【訪問リハビリテーション】出雲市斐川町美南1507番地1", "url": "https://www.kaigokensaku.mhlw.go.jp/32/index.php?action_kouhyou_detail_004_kani=true&JigyosyoCd=3211610922-00&ServiceCd=140&Type=search", "url2": "http://www.hikawa-hp.com" }, "geometry": { "type": "Point", "coordinates": [ 132.823093301188692, 35.393370217187616 ] } },
{ "type": "Feature", "properties": { "内容": "出雲市立総合医療センター【訪問リハビリテーション】島根県出雲市灘分町６１３番地", "url": "https://www.kaigokensaku.mhlw.go.jp/32/index.php?action_kouhyou_detail_004_kani=true&JigyosyoCd=3210310011-00&ServiceCd=140&Type=search", "url2": "http://www.izumocity-hp.jp" }, "geometry": { "type": "Point", "coordinates": [ 132.8238352, 35.4297172 ] } },
{ "type": "Feature", "properties": { "内容": "介護老人保健施設　出雲徳洲苑【訪問リハビリテーション】島根県出雲市斐川町直江3964-1", "url": "https://www.kaigokensaku.mhlw.go.jp/32/index.php?action_kouhyou_detail_004_kani=true&JigyosyoCd=3250480088-00&ServiceCd=140&Type=search", "url2": "https://izumo-tokushuen.com/" }, "geometry": { "type": "Point", "coordinates": [ 132.822158800000011, 35.3806279 ] } },
{ "type": "Feature", "properties": { "内容": "医療法人かんど会　クリニックかんど【訪問リハビリテーション】島根県出雲市西新町二丁目2457-7", "url": "https://www.kaigokensaku.mhlw.go.jp/32/index.php?action_kouhyou_detail_004_kani=true&JigyosyoCd=3210412569-00&ServiceCd=140&Type=search", "url2": "http://www/kandokai.jp/" }, "geometry": { "type": "Point", "coordinates": [ 132.725960100000066, 35.3328551 ] } },
{ "type": "Feature", "properties": { "内容": "介護老人保健施設　もくもく【訪問リハビリテーション】江田町278番地", "url": "https://www.kaigokensaku.mhlw.go.jp/32/index.php?action_kouhyou_detail_004_kani=true&JigyosyoCd=3250480047-00&ServiceCd=140&Type=search", "url2": null }, "geometry": { "type": "Point", "coordinates": [ 139.040049900000014, 36.3709319 ] } },
{ "type": "Feature", "properties": { "内容": "出雲徳洲会病院【訪問リハビリテーション】出雲市斐川町直江3964-1", "url": "https://www.kaigokensaku.mhlw.go.jp/32/index.php?action_kouhyou_detail_004_kani=true&JigyosyoCd=3211610989-00&ServiceCd=140&Type=search", "url2": "http://www.izumo-tokushukai.jp/" }, "geometry": { "type": "Point", "coordinates": [ 132.822105208598259, 35.381854726101416 ] } },
{ "type": "Feature", "properties": { "内容": "医療法人社団岡倉会　高鳥クリニック【訪問リハビリテーション】島根県出雲市武志町７３４－１", "url": "https://www.kaigokensaku.mhlw.go.jp/32/index.php?action_kouhyou_detail_004_kani=true&JigyosyoCd=3210411827-00&ServiceCd=140&Type=search", "url2": null }, "geometry": { "type": "Point", "coordinates": [ 132.774250199999983, 35.3951739 ] } },
{ "type": "Feature", "properties": { "内容": "医療法人社団林整形外科医院【訪問リハビリテーション】姫原町１１４－３", "url": "https://www.kaigokensaku.mhlw.go.jp/32/index.php?action_kouhyou_detail_004_kani=true&JigyosyoCd=3210411223-00&ServiceCd=140&Type=search", "url2": "http://hayashiseikei.c.ooco.jp/" }, "geometry": { "type": "Point", "coordinates": [ 132.754462, 35.3695875 ] } },
{ "type": "Feature", "properties": { "内容": "出雲市民リハビリテーション病院【訪問リハビリテーション】島根県出雲市知井宮町238", "url": "https://www.kaigokensaku.mhlw.go.jp/32/index.php?action_kouhyou_detail_004_kani=true&JigyosyoCd=3210412536-00&ServiceCd=140&Type=search", "url2": "https://izumo-hewcoop.jp/izumoriha-hp/" }, "geometry": { "type": "Point", "coordinates": [ 132.7253073, 35.3436677 ] } },
{ "type": "Feature", "properties": { "内容": "医療法人　吉翔会　吉直整形外科クリニック　訪問リハビリテーション「STEP」【訪問リハビリテーション】島根県出雲市西平田町242吉直整形外科クリニック", "url": "https://www.kaigokensaku.mhlw.go.jp/32/index.php?action_kouhyou_detail_004_kani=true&JigyosyoCd=3210310375-00&ServiceCd=140&Type=search", "url2": "https://sites.google.com/a/yoshinao-orthopaedic-clinic.com/clinic/" }, "geometry": { "type": "Point", "coordinates": [ 132.815314100000023, 35.4354467 ] } },
{ "type": "Feature", "properties": { "内容": "寿生苑　訪問リハビリテーション【訪問リハビリテーション】島根県出雲市上塩冶町2862-1", "url": "https://www.kaigokensaku.mhlw.go.jp/32/index.php?action_kouhyou_detail_004_kani=true&JigyosyoCd=3250480021-00&ServiceCd=140&Type=search", "url2": "http://www.juseikai.jp/" }, "geometry": { "type": "Point", "coordinates": [ 132.778099980287152, 35.354267621583297 ] } },
{ "type": "Feature", "properties": { "内容": "えだクリニック整形外科リハビリテーション科【訪問リハビリテーション】島根県出雲市今市町藤ヶ森2074", "url": "https://www.kaigokensaku.mhlw.go.jp/32/index.php?action_kouhyou_detail_004_kani=true&JigyosyoCd=3210412759-00&ServiceCd=140&Type=search", "url2": "https://izumo.edaclinic.jp/" }, "geometry": { "type": "Point", "coordinates": [ 132.755992791787776, 35.36201561382974 ] } },
{ "type": "Feature", "properties": { "内容": "訪問リハビリテーション事業所まんだ【訪問リハビリテーション】島根県出雲市万田町535番地１", "url": "https://www.kaigokensaku.mhlw.go.jp/32/index.php?action_kouhyou_detail_004_kani=true&JigyosyoCd=3250480062-00&ServiceCd=140&Type=search", "url2": "http://www.roukenmanda.jp/" }, "geometry": { "type": "Point", "coordinates": [ 132.784544899999986, 35.4446657 ] } },
{ "type": "Feature", "properties": { "内容": "訪問リハビリテーションほのぼの苑【訪問リハビリテーション】島根県出雲市大社町中荒木1745-2", "url": "https://www.kaigokensaku.mhlw.go.jp/32/index.php?action_kouhyou_detail_004_kani=true&JigyosyoCd=3251680009-00&ServiceCd=140&Type=search", "url2": "http://www.sunlight.or.jp" }, "geometry": { "type": "Point", "coordinates": [ 132.6874015, 35.3792135 ] } },
{ "type": "Feature", "properties": { "内容": "石見クリニック【訪問リハビリテーション】島根県益田市駅前町7-1", "url": "https://www.kaigokensaku.mhlw.go.jp/32/index.php?action_kouhyou_detail_004_kani=true&JigyosyoCd=3210811604-00&ServiceCd=140&Type=search", "url2": "iwami-clinic,jp" }, "geometry": { "type": "Point", "coordinates": [ 131.8406478, 34.6781737 ] } },
{ "type": "Feature", "properties": { "内容": "あすかクリニック【訪問リハビリテーション】島根県益田市乙吉町ロ３３番地", "url": "https://www.kaigokensaku.mhlw.go.jp/32/index.php?action_kouhyou_detail_004_kani=true&JigyosyoCd=3210811299-00&ServiceCd=140&Type=search", "url2": "http://www.asuka-ec.com" }, "geometry": { "type": "Point", "coordinates": [ 131.8489001, 34.6836814 ] } },
{ "type": "Feature", "properties": { "内容": "益田地域医療センター医師会病院訪問リハビリテーション【訪問リハビリテーション】益田市遠田町1917番地2", "url": "https://www.kaigokensaku.mhlw.go.jp/32/index.php?action_kouhyou_detail_004_kani=true&JigyosyoCd=3210810754-00&ServiceCd=140&Type=search", "url2": "https://www.masuda-med.or.jp/ishikai/" }, "geometry": { "type": "Point", "coordinates": [ 131.866121461762987, 34.696269319437064 ] } },
{ "type": "Feature", "properties": { "内容": "医療法人社団　福田医院【訪問リハビリテーション】大田市波根町字古川２０２８", "url": "https://www.kaigokensaku.mhlw.go.jp/32/index.php?action_kouhyou_detail_004_kani=true&JigyosyoCd=3210510735-00&ServiceCd=140&Type=search", "url2": "http://www.dr-fukuda.jp" }, "geometry": { "type": "Point", "coordinates": [ 132.530506370847291, 35.245039494477915 ] } },
{ "type": "Feature", "properties": { "内容": "大田市立病院【訪問リハビリテーション】島根県大田市大田町吉永１４２８番地３", "url": "https://www.kaigokensaku.mhlw.go.jp/32/index.php?action_kouhyou_detail_004_kani=true&JigyosyoCd=3210510891-00&ServiceCd=140&Type=search", "url2": "http://www.ohda-hp.ohda.shimane.jp/" }, "geometry": { "type": "Point", "coordinates": [ 132.502784499999962, 35.1810159 ] } },
{ "type": "Feature", "properties": { "内容": "訪問リハビリテーション　たてがみの郷【訪問リハビリテーション】島根県大田市波根町1290－1", "url": "https://www.kaigokensaku.mhlw.go.jp/32/index.php?action_kouhyou_detail_004_kani=true&JigyosyoCd=3250580010-00&ServiceCd=140&Type=search", "url2": "http://www.well-nc.cr.jp/" }, "geometry": { "type": "Point", "coordinates": [ 132.5275403, 35.240334200000014 ] } },
{ "type": "Feature", "properties": { "内容": "安来市立病院【訪問リハビリテーション】広瀬町広瀬1931番地", "url": "https://www.kaigokensaku.mhlw.go.jp/32/index.php?action_kouhyou_detail_004_kani=true&JigyosyoCd=3211210038-00&ServiceCd=140&Type=search", "url2": "https://www.city.yasugi.shimane.jp/hospital/" }, "geometry": { "type": "Point", "coordinates": [ 133.176897928731051, 35.370227589710353 ] } },
{ "type": "Feature", "properties": { "内容": "安来第一病院【訪問リハビリテーション】島根県安来市安来町８９９－１", "url": "https://www.kaigokensaku.mhlw.go.jp/32/index.php?action_kouhyou_detail_004_kani=true&JigyosyoCd=3210210039-00&ServiceCd=140&Type=search", "url2": "http://www.syourinkai.or.jp" }, "geometry": { "type": "Point", "coordinates": [ 133.252153899999939, 35.4318422 ] } },
{ "type": "Feature", "properties": { "内容": "介護老人保健施設コスモス苑【訪問リハビリテーション】島根県安来市伯太町1700番地2", "url": "https://www.kaigokensaku.mhlw.go.jp/32/index.php?action_kouhyou_detail_004_kani=true&JigyosyoCd=3250280025-00&ServiceCd=140&Type=search", "url2": "http://www.city.yasugi.shimane.jp" }, "geometry": { "type": "Point", "coordinates": [ 133.27350720000004, 35.3714426 ] } },
{ "type": "Feature", "properties": { "内容": "敬川沖田クリニック【訪問リハビリテーション】島根県江津市敬川町296-6グランエスポワールむりょうじゅ　１階", "url": "https://www.kaigokensaku.mhlw.go.jp/32/index.php?action_kouhyou_detail_004_kani=true&JigyosyoCd=3210610857-00&ServiceCd=140&Type=search", "url2": "https://uyagawa-okita-clinic.com/" }, "geometry": { "type": "Point", "coordinates": [ 132.171092, 34.9706768 ] } },
{ "type": "Feature", "properties": { "内容": "済生会江津総合病院　訪問リハビリテーション【訪問リハビリテーション】島根県江津市江津町1116-37", "url": "https://www.kaigokensaku.mhlw.go.jp/32/index.php?action_kouhyou_detail_004_kani=true&JigyosyoCd=3210610758-00&ServiceCd=140&Type=search", "url2": "https://saiseikai-gotsu.jp/" }, "geometry": { "type": "Point", "coordinates": [ 132.214856171497956, 35.012888178321724 ] } },
{ "type": "Feature", "properties": { "内容": "ケアセンターきすき　訪問リハビリテーション【訪問リハビリテーション】島根県雲南市木次町山方1111番地", "url": "https://www.kaigokensaku.mhlw.go.jp/32/index.php?action_kouhyou_detail_004_kani=true&JigyosyoCd=3251480004-00&ServiceCd=140&Type=search", "url2": null }, "geometry": { "type": "Point", "coordinates": [ 132.911924699999986, 35.3114053 ] } },
{ "type": "Feature", "properties": { "内容": "町立奥出雲病院【訪問リハビリテーション】島根県仁多郡奥出雲町三成1622-1", "url": "https://www.kaigokensaku.mhlw.go.jp/32/index.php?action_kouhyou_detail_004_kani=true&JigyosyoCd=3211310317-00&ServiceCd=140&Type=search", "url2": "http://www.okuizumo-hospital.jp/" }, "geometry": { "type": "Point", "coordinates": [ 132.9970826, 35.1961795 ] } },
{ "type": "Feature", "properties": { "内容": "介護老人保健施設　仁寿苑【訪問リハビリテーション】島根県邑智郡川本町川本381-4", "url": "https://www.kaigokensaku.mhlw.go.jp/32/index.php?action_kouhyou_detail_004_kani=true&JigyosyoCd=3251880013-00&ServiceCd=140&Type=search", "url2": "http://www.k-jinju.or.jp" }, "geometry": { "type": "Point", "coordinates": [ 132.494543099999987, 34.9913423 ] } },
{ "type": "Feature", "properties": { "内容": "介護老人保健施設サンホームみずほ【訪問リハビリテーション】324493", "url": "https://www.kaigokensaku.mhlw.go.jp/32/index.php?action_kouhyou_detail_004_kani=true&JigyosyoCd=3251880021-00&ServiceCd=140&Type=search", "url2": "http://tokuyu-kai.sakura.ne.jp/sanhome/index.htm/" }, "geometry": { "type": "Point", "coordinates": [ 132.4384, 34.893303 ] } },
{ "type": "Feature", "properties": { "内容": "邑智郡公立病院組合公立邑智病院【訪問リハビリテーション】邑南町中野３８４８番地２", "url": "https://www.kaigokensaku.mhlw.go.jp/32/index.php?action_kouhyou_detail_004_kani=true&JigyosyoCd=3211810621-00&ServiceCd=140&Type=search", "url2": "http://www.ohchihospital.jp/" }, "geometry": { "type": "Point", "coordinates": [ 132.452832400000034, 34.8960358 ] } },
{ "type": "Feature", "properties": { "内容": "介護老人保健施設せせらぎ【訪問リハビリテーション】森村ロ１４１", "url": "https://www.kaigokensaku.mhlw.go.jp/32/index.php?action_kouhyou_detail_004_kani=true&JigyosyoCd=3252180017-00&ServiceCd=140&Type=search", "url2": "https:kisseido.jp/" }, "geometry": { "type": "Point", "coordinates": [ 131.77278, 34.46408 ] } },
{ "type": "Feature", "properties": { "内容": "津和野共存病院【訪問リハビリテーション】島根県鹿足郡津和野町森村ロ１４１", "url": "https://www.kaigokensaku.mhlw.go.jp/32/index.php?action_kouhyou_detail_004_kani=true&JigyosyoCd=3212110377-00&ServiceCd=140&Type=search", "url2": "https:kisseido.jp/" }, "geometry": { "type": "Point", "coordinates": [ 131.7780605, 34.4603927 ] } },
{ "type": "Feature", "properties": { "内容": "よしか病院【訪問リハビリテーション】島根県鹿足郡吉賀町六日市368番地4", "url": "https://www.kaigokensaku.mhlw.go.jp/32/index.php?action_kouhyou_detail_004_kani=true&JigyosyoCd=3212110450-00&ServiceCd=140&Type=search", "url2": "https://katakuri.or.jp/" }, "geometry": { "type": "Point", "coordinates": [ 131.937492, 34.3535395 ] } },
{ "type": "Feature", "properties": { "内容": "海士町国民健康保険　海士診療所【訪問リハビリテーション】島根県隠岐郡海士町大字海士１４６６", "url": "https://www.kaigokensaku.mhlw.go.jp/32/index.php?action_kouhyou_detail_004_kani=true&JigyosyoCd=3212210540-00&ServiceCd=140&Type=search", "url2": "https://ama-shinryosho.jp/" }, "geometry": { "type": "Point", "coordinates": [ 133.094828600000028, 36.095963 ] } },
{ "type": "Feature", "properties": { "内容": "隠岐広域連合立隠岐島前病院【訪問リハビリテーション】島根県隠岐郡西ノ島町大字美田２０７１番地１", "url": "https://www.kaigokensaku.mhlw.go.jp/32/index.php?action_kouhyou_detail_004_kani=true&JigyosyoCd=3212210672-00&ServiceCd=140&Type=search", "url2": "http://okidozenhospital.com/" }, "geometry": { "type": "Point", "coordinates": [ 133.036349400000063, 36.1063157 ] } },
{ "type": "Feature", "properties": { "内容": "老人保健施設ともいきの郷【訪問リハビリテーション】島根県隠岐郡隠岐の島町栄町975番地2", "url": "https://www.kaigokensaku.mhlw.go.jp/32/index.php?action_kouhyou_detail_004_kani=true&JigyosyoCd=3252280007-00&ServiceCd=140&Type=search", "url2": "http://ｗｗｗ.kyousei.gr.jp" }, "geometry": { "type": "Point", "coordinates": [ 133.326788399999941, 36.2157296 ] } },
{ "type": "Feature", "properties": { "内容": "隠岐広域連合立隠岐病院【訪問リハビリテーション】島根県隠岐郡隠岐の島町城北町３５５番地", "url": "https://www.kaigokensaku.mhlw.go.jp/32/index.php?action_kouhyou_detail_004_kani=true&JigyosyoCd=3212210623-00&ServiceCd=140&Type=search", "url2": "http://oki-hospital.com" }, "geometry": { "type": "Point", "coordinates": [ 133.318803102516171, 36.215756429073437 ] } }
]
}
