{
"type": "FeatureCollection",
"name": "geo_32_地域密着型特定施設入居者生活介護（有料老人ホーム（サービス付き高齢者向け住宅））",
"crs": { "type": "name", "properties": { "name": "urn:ogc:def:crs:OGC:1.3:CRS84" } },
"features": [
{ "type": "Feature", "properties": { "内容": "ローズガーデン荒島【地域密着型特定施設入居者生活介護（有料老人ホーム（サービス付き高齢者向け住宅））】島根県安来市荒島町2177-14ローズガーデン荒島・101,102,103,105,106,107,108,110,201,202,203,205,206,207,208,210,211,212,213,215", "url": "https://www.kaigokensaku.mhlw.go.jp/32/index.php?action_kouhyou_detail_004_kani=true&JigyosyoCd=3290200140-00&ServiceCd=&Type=search", "url2": "https://sendankai.net" }, "geometry": { "type": "Point", "coordinates": [ 133.2034324, 35.4326777 ] } }
]
}
