{
"type": "FeatureCollection",
"name": "geo_32_地域密着型介護老人福祉施設入所者生活介護",
"crs": { "type": "name", "properties": { "name": "urn:ogc:def:crs:OGC:1.3:CRS84" } },
"features": [
{ "type": "Feature", "properties": { "内容": "地域密着型特別養護老人ホーム　わこう荘【地域密着型介護老人福祉施設入所者生活介護】島根県松江市東出雲町下意東3145-2", "url": "https://www.kaigokensaku.mhlw.go.jp/32/index.php?action_kouhyou_detail_004_kani=true&JigyosyoCd=3290100530-00&ServiceCd=540&Type=search", "url2": "https://wakou‐kai.or.jp" }, "geometry": { "type": "Point", "coordinates": [ 133.181389849234733, 35.42637484358152 ] } },
{ "type": "Feature", "properties": { "内容": "地域密着型特別養護老人ホームあさひ乃苑【地域密着型介護老人福祉施設入所者生活介護】島根県松江市古志町191-10", "url": "https://www.kaigokensaku.mhlw.go.jp/32/index.php?action_kouhyou_detail_004_kani=true&JigyosyoCd=3290100498-00&ServiceCd=540&Type=search", "url2": "http//www.mizuumi.jp" }, "geometry": { "type": "Point", "coordinates": [ 133.008809, 35.498926900000015 ] } },
{ "type": "Feature", "properties": { "内容": "地域密着型特別養護老人ホームたまゆの杜【地域密着型介護老人福祉施設入所者生活介護】松江市玉湯町湯町１９２４－１", "url": "https://www.kaigokensaku.mhlw.go.jp/32/index.php?action_kouhyou_detail_004_kani=true&JigyosyoCd=3290100134-00&ServiceCd=540&Type=search", "url2": "https://www.tamayunomori.com" }, "geometry": { "type": "Point", "coordinates": [ 133.006569799999966, 35.4267631 ] } },
{ "type": "Feature", "properties": { "内容": "地域密着型介護老人福祉施設　ゆうなぎホーム【地域密着型介護老人福祉施設入所者生活介護】松江市島根町野波2318番地3", "url": "https://www.kaigokensaku.mhlw.go.jp/32/index.php?action_kouhyou_detail_004_kani=true&JigyosyoCd=3290100456-00&ServiceCd=540&Type=search", "url2": "https://www.sanin-kateigakuin.jp/establishment/sener-yunagien_home.html" }, "geometry": { "type": "Point", "coordinates": [ 133.098493, 35.5785953 ] } },
{ "type": "Feature", "properties": { "内容": "地域密着型特別養護老人ホーム　宍道楽苑【地域密着型介護老人福祉施設入所者生活介護】島根県松江市宍道町伊志見603番地1", "url": "https://www.kaigokensaku.mhlw.go.jp/32/index.php?action_kouhyou_detail_004_kani=true&JigyosyoCd=3290100555-00&ServiceCd=540&Type=search", "url2": "http://www.shinjirakuen.jp/" }, "geometry": { "type": "Point", "coordinates": [ 132.881782390976667, 35.389969443889925 ] } },
{ "type": "Feature", "properties": { "内容": "地域密着型介護老人福祉施設　Ａｏｉ【地域密着型介護老人福祉施設入所者生活介護】島根県松江市西川津町1611-1", "url": "https://www.kaigokensaku.mhlw.go.jp/32/index.php?action_kouhyou_detail_004_kani=true&JigyosyoCd=3290100639-00&ServiceCd=540&Type=search", "url2": "：http://kohoku-aikanosato.jp" }, "geometry": { "type": "Point", "coordinates": [ 133.071663015364919, 35.47135899759261 ] } },
{ "type": "Feature", "properties": { "内容": "特別養護老人ホームあさひ園【地域密着型介護老人福祉施設入所者生活介護】島根県浜田市旭町本郷362番地6", "url": "https://www.kaigokensaku.mhlw.go.jp/32/index.php?action_kouhyou_detail_004_kani=true&JigyosyoCd=3290700107-00&ServiceCd=540&Type=search", "url2": "asahi-en.com" }, "geometry": { "type": "Point", "coordinates": [ 132.303590100000065, 34.8659861 ] } },
{ "type": "Feature", "properties": { "内容": "地域密着型　特別養護老人ホーム　福寿草【地域密着型介護老人福祉施設入所者生活介護】浜田市　治和町　４０番地５", "url": "https://www.kaigokensaku.mhlw.go.jp/32/index.php?action_kouhyou_detail_004_kani=true&JigyosyoCd=3290700065-00&ServiceCd=540&Type=search", "url2": "http://fukujusou-kaigo.sakura.ne.jp/" }, "geometry": { "type": "Point", "coordinates": [ 132.021519399999988, 34.8557145 ] } },
{ "type": "Feature", "properties": { "内容": "清流園地域密着型介護老人福祉施設【地域密着型介護老人福祉施設入所者生活介護】島根県出雲市大津町3529", "url": "https://www.kaigokensaku.mhlw.go.jp/32/index.php?action_kouhyou_detail_004_kani=true&JigyosyoCd=3290400351-00&ServiceCd=540&Type=search", "url2": "http://www.seiryuuen.com/" }, "geometry": { "type": "Point", "coordinates": [ 132.783739400000059, 35.3592841 ] } },
{ "type": "Feature", "properties": { "内容": "特別養護老人ホーム　サテライトおやま【地域密着型介護老人福祉施設入所者生活介護】島根県出雲市小山町456-1", "url": "https://www.kaigokensaku.mhlw.go.jp/32/index.php?action_kouhyou_detail_004_kani=true&JigyosyoCd=3290400484-00&ServiceCd=540&Type=search", "url2": "https://www.ssw.or.jp/facilities/seniors/tenjin/352" }, "geometry": { "type": "Point", "coordinates": [ 132.738010131352212, 35.373012048299536 ] } },
{ "type": "Feature", "properties": { "内容": "特別養護老人ホームかんどの里【地域密着型介護老人福祉施設入所者生活介護】島根県出雲市神門町１４番地１", "url": "https://www.kaigokensaku.mhlw.go.jp/32/index.php?action_kouhyou_detail_004_kani=true&JigyosyoCd=3290400377-00&ServiceCd=540&Type=search", "url2": "http://kando-h.sakura.ne.jp/tokuyou/" }, "geometry": { "type": "Point", "coordinates": [ 132.712880600000062, 35.3445921 ] } },
{ "type": "Feature", "properties": { "内容": "介護複合施設まとい【地域密着型介護老人福祉施設入所者生活介護】島根県益田市高津町イ2559-1", "url": "https://www.kaigokensaku.mhlw.go.jp/32/index.php?action_kouhyou_detail_004_kani=true&JigyosyoCd=3290800261-00&ServiceCd=540&Type=search", "url2": "http://akatsuki-hohoemi.jp" }, "geometry": { "type": "Point", "coordinates": [ 131.803205499999962, 34.6869143 ] } },
{ "type": "Feature", "properties": { "内容": "地域密着型特別養護老人ホーム本郷園【地域密着型介護老人福祉施設入所者生活介護】島根県益田市下本郷町440番地", "url": "https://www.kaigokensaku.mhlw.go.jp/32/index.php?action_kouhyou_detail_004_kani=true&JigyosyoCd=3290800121-00&ServiceCd=540&Type=search", "url2": "https://www.hongouen.jp" }, "geometry": { "type": "Point", "coordinates": [ 131.857977843855195, 34.691976124156206 ] } },
{ "type": "Feature", "properties": { "内容": "特別養護老人ホーム　しおさい新館【地域密着型介護老人福祉施設入所者生活介護】島根県大田市仁摩町仁万843番地", "url": "https://www.kaigokensaku.mhlw.go.jp/32/index.php?action_kouhyou_detail_004_kani=true&JigyosyoCd=3290500077-00&ServiceCd=540&Type=search", "url2": "http://www.shiosai.or.jp/" }, "geometry": { "type": "Point", "coordinates": [ 132.402946214680441, 35.153360088941596 ] } },
{ "type": "Feature", "properties": { "内容": "特別養護老人ホーム伯寿の郷【地域密着型介護老人福祉施設入所者生活介護】島根県安来市伯太町安田1705番地", "url": "https://www.kaigokensaku.mhlw.go.jp/32/index.php?action_kouhyou_detail_004_kani=true&JigyosyoCd=3290200090-00&ServiceCd=540&Type=search", "url2": "http://www.hakuikai.jp/" }, "geometry": { "type": "Point", "coordinates": [ 133.272943400000031, 35.3712065 ] } },
{ "type": "Feature", "properties": { "内容": "特別養護老人ホームやすぎの郷【地域密着型介護老人福祉施設入所者生活介護】島根県安来市安来町970-1", "url": "https://www.kaigokensaku.mhlw.go.jp/32/index.php?action_kouhyou_detail_004_kani=true&JigyosyoCd=3290200108-00&ServiceCd=540&Type=search", "url2": "http://www.sendankai.net/" }, "geometry": { "type": "Point", "coordinates": [ 133.253182240475411, 35.433580020508046 ] } },
{ "type": "Feature", "properties": { "内容": "地域密着型特別養護老人ホーム　故郷－敬川【地域密着型介護老人福祉施設入所者生活介護】島根県江津市敬川町1番地２", "url": "https://www.kaigokensaku.mhlw.go.jp/32/index.php?action_kouhyou_detail_004_kani=true&JigyosyoCd=3290600059-00&ServiceCd=540&Type=search", "url2": "http://www.touki-kai.or.jp/" }, "geometry": { "type": "Point", "coordinates": [ 132.169955, 34.9727434 ] } },
{ "type": "Feature", "properties": { "内容": "地域密着型　特別養護老人ホーム　笑寿苑【地域密着型介護老人福祉施設入所者生活介護】島根県雲南市加茂町加茂中915", "url": "https://www.kaigokensaku.mhlw.go.jp/32/index.php?action_kouhyou_detail_004_kani=true&JigyosyoCd=3291400186-00&ServiceCd=540&Type=search", "url2": "http//kamofukushikai.jp/" }, "geometry": { "type": "Point", "coordinates": [ 132.902781600000026, 35.348037 ] } },
{ "type": "Feature", "properties": { "内容": "特別養護老人ホームさくら苑さくらんぼの家【地域密着型介護老人福祉施設入所者生活介護】島根県雲南市木次町東日登３４５番地1", "url": "https://www.kaigokensaku.mhlw.go.jp/32/index.php?action_kouhyou_detail_004_kani=true&JigyosyoCd=3291400145-00&ServiceCd=540&Type=search", "url2": "https://www.sakurasaku-home.org/" }, "geometry": { "type": "Point", "coordinates": [ 132.92538060000004, 35.2791994 ] } },
{ "type": "Feature", "properties": { "内容": "社会福祉法人仁多福祉会　特別養護老人ホーム　あいサンホーム【地域密着型介護老人福祉施設入所者生活介護】島根県仁多郡奥出雲町上阿井424-1", "url": "https://www.kaigokensaku.mhlw.go.jp/32/index.php?action_kouhyou_detail_004_kani=true&JigyosyoCd=3291300030-00&ServiceCd=540&Type=search", "url2": "http://cms.nitafukushikai.or.jp/admin" }, "geometry": { "type": "Point", "coordinates": [ 132.9461675, 35.1413393 ] } },
{ "type": "Feature", "properties": { "内容": "特別養護老人ホーム　あかぎの里【地域密着型介護老人福祉施設入所者生活介護】島根県飯石郡飯南町野萱1831番地2", "url": "https://www.kaigokensaku.mhlw.go.jp/32/index.php?action_kouhyou_detail_004_kani=true&JigyosyoCd=3291400152-00&ServiceCd=540&Type=search", "url2": null }, "geometry": { "type": "Point", "coordinates": [ 132.742360100000042, 35.0300736 ] } },
{ "type": "Feature", "properties": { "内容": "吉賀町特別養護老人ホーム　とびのこ苑【地域密着型介護老人福祉施設入所者生活介護】島根県　鹿足郡　吉賀町　柿木村　柿木80番1", "url": "https://www.kaigokensaku.mhlw.go.jp/32/index.php?action_kouhyou_detail_004_kani=true&JigyosyoCd=3292100025-00&ServiceCd=540&Type=search", "url2": "http://yoshika-syakyo:jp" }, "geometry": { "type": "Point", "coordinates": [ 131.867221134812269, 34.436690429432552 ] } },
{ "type": "Feature", "properties": { "内容": "特別養護老人ホームみろく苑【地域密着型介護老人福祉施設入所者生活介護】鹿足郡吉賀町六日市582-1", "url": "https://www.kaigokensaku.mhlw.go.jp/32/index.php?action_kouhyou_detail_004_kani=true&JigyosyoCd=3292100033-00&ServiceCd=540&Type=search", "url2": "@yoshika-shakyo.jp" }, "geometry": { "type": "Point", "coordinates": [ 131.9368217, 34.3554266 ] } }
]
}
