{
"type": "FeatureCollection",
"name": "geo_32_訪問看護",
"crs": { "type": "name", "properties": { "name": "urn:ogc:def:crs:OGC:1.3:CRS84" } },
"features": [
{ "type": "Feature", "properties": { "内容": "松江市国民健康保険来待診療所【訪問看護】松江市宍道町上来待213-1", "url": "https://www.kaigokensaku.mhlw.go.jp/32/index.php?action_kouhyou_detail_004_kani=true&JigyosyoCd=3211111012-00&ServiceCd=130&Type=search", "url2": null }, "geometry": { "type": "Point", "coordinates": [ 132.9607876, 35.4029323 ] } },
{ "type": "Feature", "properties": { "内容": "訪問看護ステーション　デューン松江【訪問看護】島根県松江市東津田町1044-1キャッスル一里塚103号", "url": "https://www.kaigokensaku.mhlw.go.jp/32/index.php?action_kouhyou_detail_004_kani=true&JigyosyoCd=3260190255-00&ServiceCd=130&Type=search", "url2": "http://www.nfield.co.jp/" }, "geometry": { "type": "Point", "coordinates": [ 133.087699774204992, 35.457935943153629 ] } },
{ "type": "Feature", "properties": { "内容": "ニチイケアセンター松江　訪問看護ステーション【訪問看護】浜乃木6丁目8番8号コーポ岡乃山105号", "url": "https://www.kaigokensaku.mhlw.go.jp/32/index.php?action_kouhyou_detail_004_kani=true&JigyosyoCd=3260190172-00&ServiceCd=130&Type=search", "url2": "www.nichiigakkan.co.jp" }, "geometry": { "type": "Point", "coordinates": [ 133.055320050969357, 35.443889861691822 ] } },
{ "type": "Feature", "properties": { "内容": "訪問看護ステーションかみぐち【訪問看護】島根県松江市古志原4丁目19-43", "url": "https://www.kaigokensaku.mhlw.go.jp/32/index.php?action_kouhyou_detail_004_kani=true&JigyosyoCd=3260190438-00&ServiceCd=130&Type=search", "url2": "https://kamiguchifukushikai.jp/" }, "geometry": { "type": "Point", "coordinates": [ 133.078672399999988, 35.442108 ] } },
{ "type": "Feature", "properties": { "内容": "訪問看護ステーション　GRACE【訪問看護】島根県松江市上乃木2-17-15", "url": "https://www.kaigokensaku.mhlw.go.jp/32/index.php?action_kouhyou_detail_004_kani=true&JigyosyoCd=3260190446-00&ServiceCd=130&Type=search", "url2": "https://vns-grace.com/" }, "geometry": { "type": "Point", "coordinates": [ 133.0583091, 35.4486381 ] } },
{ "type": "Feature", "properties": { "内容": "訪問看護ステーションアゼリア　アゼリア【訪問看護】島根県松江市寺町99-26松江センターアゼリア", "url": "https://www.kaigokensaku.mhlw.go.jp/32/index.php?action_kouhyou_detail_004_kani=true&JigyosyoCd=3260190453-00&ServiceCd=130&Type=search", "url2": "https://www.mizusumikai.or.jp/" }, "geometry": { "type": "Point", "coordinates": [ 133.0596339, 35.4620597 ] } },
{ "type": "Feature", "properties": { "内容": "ケアプロ訪問看護ステーション島根　松江ステーション【訪問看護】島根県松江市東津田町1805‐13", "url": "https://www.kaigokensaku.mhlw.go.jp/32/index.php?action_kouhyou_detail_004_kani=true&JigyosyoCd=3260190420-00&ServiceCd=130&Type=search", "url2": "https://carepro-hmc.co.jp/" }, "geometry": { "type": "Point", "coordinates": [ 133.091732900000011, 35.4506964 ] } },
{ "type": "Feature", "properties": { "内容": "訪問看護ステーションまめナース【訪問看護】島根県松江市美保関町下宇部尾133-6", "url": "https://www.kaigokensaku.mhlw.go.jp/32/index.php?action_kouhyou_detail_004_kani=true&JigyosyoCd=3260190388-00&ServiceCd=130&Type=search", "url2": null }, "geometry": { "type": "Point", "coordinates": [ 133.1827013, 35.5359301 ] } },
{ "type": "Feature", "properties": { "内容": "ナースステーション　うさぎ【訪問看護】島根県松江市東津田町1810－1セイコー庵4号室", "url": "https://www.kaigokensaku.mhlw.go.jp/32/index.php?action_kouhyou_detail_004_kani=true&JigyosyoCd=3260190370-00&ServiceCd=130&Type=search", "url2": null }, "geometry": { "type": "Point", "coordinates": [ 133.091705067459088, 35.44971281131226 ] } },
{ "type": "Feature", "properties": { "内容": "訪問看護ステーション　蓮香【訪問看護】島根県松江市東津田町1357番地有料老人ホーム心の蓮", "url": "https://www.kaigokensaku.mhlw.go.jp/32/index.php?action_kouhyou_detail_004_kani=true&JigyosyoCd=3260190305-00&ServiceCd=130&Type=search", "url2": "https://lifeterrace.blogspot.com/" }, "geometry": { "type": "Point", "coordinates": [ 133.091669200000069, 35.4528678 ] } },
{ "type": "Feature", "properties": { "内容": "訪問看護ステーションありがとう【訪問看護】島根県松江市西川津町4078番地KコーポR1　105号", "url": "https://www.kaigokensaku.mhlw.go.jp/32/index.php?action_kouhyou_detail_004_kani=true&JigyosyoCd=3260190347-00&ServiceCd=130&Type=search", "url2": "https://vnsarigatou.wixsite.com/mysite" }, "geometry": { "type": "Point", "coordinates": [ 133.0717952, 35.4817837 ] } },
{ "type": "Feature", "properties": { "内容": "こころね訪問看護ステーション【訪問看護】島根県松江市東朝日町３７番地１", "url": "https://www.kaigokensaku.mhlw.go.jp/32/index.php?action_kouhyou_detail_004_kani=true&JigyosyoCd=3260190156-00&ServiceCd=130&Type=search", "url2": "http://medicalcare-westjapan.jp/" }, "geometry": { "type": "Point", "coordinates": [ 133.072826470500189, 35.461700465354063 ] } },
{ "type": "Feature", "properties": { "内容": "訪問看護ステーション友喜【訪問看護】松江市宍道町白石１２９番地１こなんホスピタル", "url": "https://www.kaigokensaku.mhlw.go.jp/32/index.php?action_kouhyou_detail_004_kani=true&JigyosyoCd=3261190007-00&ServiceCd=130&Type=search", "url2": null }, "geometry": { "type": "Point", "coordinates": [ 132.925691128172275, 35.414522680720125 ] } },
{ "type": "Feature", "properties": { "内容": "訪問看護ステーションひなた【訪問看護】島根県松江市馬潟町98番1", "url": "https://www.kaigokensaku.mhlw.go.jp/32/index.php?action_kouhyou_detail_004_kani=true&JigyosyoCd=3260190248-00&ServiceCd=130&Type=search", "url2": null }, "geometry": { "type": "Point", "coordinates": [ 133.112047, 35.4430421 ] } },
{ "type": "Feature", "properties": { "内容": "こころね訪問看護ステーション西津田【訪問看護】松江市西津田３丁目１３－３", "url": "https://www.kaigokensaku.mhlw.go.jp/32/index.php?action_kouhyou_detail_004_kani=true&JigyosyoCd=3260190164-00&ServiceCd=130&Type=search", "url2": "http://www.medicalcare-westjapan.jp/" }, "geometry": { "type": "Point", "coordinates": [ 133.080536599999959, 35.4571282 ] } },
{ "type": "Feature", "properties": { "内容": "こころね訪問看護ステーション上乃木【訪問看護】上乃木七丁目2-22", "url": "https://www.kaigokensaku.mhlw.go.jp/32/index.php?action_kouhyou_detail_004_kani=true&JigyosyoCd=3260190404-00&ServiceCd=130&Type=search", "url2": "http://www.medicalcare-westjapan.jp/" }, "geometry": { "type": "Point", "coordinates": [ 133.069186699999989, 35.4462959 ] } },
{ "type": "Feature", "properties": { "内容": "こころね訪問看護ステーション春日町　157番地4【訪問看護】島根県松江市春日町157番地4", "url": "https://www.kaigokensaku.mhlw.go.jp/32/index.php?action_kouhyou_detail_004_kani=true&JigyosyoCd=3260190297-00&ServiceCd=130&Type=search", "url2": "http://www.medicalcare-westjapan.jp/nurse.html" }, "geometry": { "type": "Point", "coordinates": [ 133.046979930051236, 35.486264545462603 ] } },
{ "type": "Feature", "properties": { "内容": "こころね訪問看護ステーション津田【訪問看護】東津田町1080番地", "url": "https://www.kaigokensaku.mhlw.go.jp/32/index.php?action_kouhyou_detail_004_kani=true&JigyosyoCd=3260190412-00&ServiceCd=130&Type=search", "url2": null }, "geometry": { "type": "Point", "coordinates": [ 133.0872704, 35.4564598 ] } },
{ "type": "Feature", "properties": { "内容": "こころね訪問看護ステーション嫁島町【訪問看護】松江市嫁島町11番5号シニアコート嫁島町", "url": "https://www.kaigokensaku.mhlw.go.jp/32/index.php?action_kouhyou_detail_004_kani=true&JigyosyoCd=3260190214-00&ServiceCd=130&Type=search", "url2": "yomeshima3＠senior-court.Jp" }, "geometry": { "type": "Point", "coordinates": [ 133.048600699999952, 35.4502061 ] } },
{ "type": "Feature", "properties": { "内容": "こころね訪問看護ステーション石橋町【訪問看護】島根県松江市石橋町３１番地1", "url": "https://www.kaigokensaku.mhlw.go.jp/32/index.php?action_kouhyou_detail_004_kani=true&JigyosyoCd=3260190230-00&ServiceCd=130&Type=search", "url2": "http://medicalcare-westjapan.jp/" }, "geometry": { "type": "Point", "coordinates": [ 133.056021200000032, 35.4795306 ] } },
{ "type": "Feature", "properties": { "内容": "訪問看護ステーション暖心【訪問看護】島根県松江市山代町934-5", "url": "https://www.kaigokensaku.mhlw.go.jp/32/index.php?action_kouhyou_detail_004_kani=true&JigyosyoCd=3260190016-00&ServiceCd=130&Type=search", "url2": "http://www.sirayurikai.or.jp/" }, "geometry": { "type": "Point", "coordinates": [ 133.09536090000006, 35.4399581 ] } },
{ "type": "Feature", "properties": { "内容": "訪問看護ステーションつむぎ【訪問看護】島根県松江市西川津町字下追子1611-1", "url": "https://www.kaigokensaku.mhlw.go.jp/32/index.php?action_kouhyou_detail_004_kani=true&JigyosyoCd=3260190180-00&ServiceCd=130&Type=search", "url2": "shinjiko@aikanosato.jp" }, "geometry": { "type": "Point", "coordinates": [ 133.07364960000001, 35.4876534 ] } },
{ "type": "Feature", "properties": { "内容": "法吉訪問看護ステーション【訪問看護】松江市法吉町629-2", "url": "https://www.kaigokensaku.mhlw.go.jp/32/index.php?action_kouhyou_detail_004_kani=true&JigyosyoCd=3260190073-00&ServiceCd=130&Type=search", "url2": "http://www.mizuumi.jp" }, "geometry": { "type": "Point", "coordinates": [ 133.046321286687402, 35.49174789012438 ] } },
{ "type": "Feature", "properties": { "内容": "訪問看護ステーションおおきなかぶ【訪問看護】島根県松江市嫁島町10-28", "url": "https://www.kaigokensaku.mhlw.go.jp/32/index.php?action_kouhyou_detail_004_kani=true&JigyosyoCd=3260190461-00&ServiceCd=130&Type=search", "url2": null }, "geometry": { "type": "Point", "coordinates": [ 133.0473791, 35.4493811 ] } },
{ "type": "Feature", "properties": { "内容": "社会福祉法人敬仁会　訪問看護ステーションあんしん【訪問看護】島根県松江市佐草町2－2社会福祉法人敬仁会　訪問看護ステーションあんしん", "url": "https://www.kaigokensaku.mhlw.go.jp/32/index.php?action_kouhyou_detail_004_kani=true&JigyosyoCd=3260190479-00&ServiceCd=130&Type=search", "url2": "https;//www.sf-keijinnkai.or.jp" }, "geometry": { "type": "Point", "coordinates": [ 133.0766181, 35.4320988 ] } },
{ "type": "Feature", "properties": { "内容": "訪問看護・リハビリステーション縁【訪問看護】島根県松江市嫁島町１１番９号高岡ビル３Ｆ", "url": "https://www.kaigokensaku.mhlw.go.jp/32/index.php?action_kouhyou_detail_004_kani=true&JigyosyoCd=3260190495-00&ServiceCd=130&Type=search", "url2": null }, "geometry": { "type": "Point", "coordinates": [ 133.04870109999996, 35.4500016 ] } },
{ "type": "Feature", "properties": { "内容": "さんさん訪問看護ステーション【訪問看護】島根県松江市東出雲町揖屋1196", "url": "https://www.kaigokensaku.mhlw.go.jp/32/index.php?action_kouhyou_detail_004_kani=true&JigyosyoCd=3260190503-00&ServiceCd=130&Type=search", "url2": "https://cs.sansancare.com/wp-login.php" }, "geometry": { "type": "Point", "coordinates": [ 133.153082, 35.4266954 ] } },
{ "type": "Feature", "properties": { "内容": "もちだの郷訪問看護ステーション【訪問看護】松江市東持田町520番地１", "url": "https://www.kaigokensaku.mhlw.go.jp/32/index.php?action_kouhyou_detail_004_kani=true&JigyosyoCd=3260190115-00&ServiceCd=130&Type=search", "url2": "http://www.kyousei.gr.jp/mochidanosato.html" }, "geometry": { "type": "Point", "coordinates": [ 133.08570839999993, 35.5080949 ] } },
{ "type": "Feature", "properties": { "内容": "生協のぞみ訪問看護ステーション【訪問看護】松江市西津田7-14-21", "url": "https://www.kaigokensaku.mhlw.go.jp/32/index.php?action_kouhyou_detail_004_kani=true&JigyosyoCd=3260190040-00&ServiceCd=130&Type=search", "url2": "https://nozomi-ho-kan.com" }, "geometry": { "type": "Point", "coordinates": [ 133.067504399999962, 35.4551365 ] } },
{ "type": "Feature", "properties": { "内容": "訪問看護ステーションほくよう【訪問看護】島根県松江市西川津町533-1", "url": "https://www.kaigokensaku.mhlw.go.jp/32/index.php?action_kouhyou_detail_004_kani=true&JigyosyoCd=3260190362-00&ServiceCd=130&Type=search", "url2": "https://www.hokuyo-iryo.com/" }, "geometry": { "type": "Point", "coordinates": [ 133.075359124532611, 35.486339951122496 ] } },
{ "type": "Feature", "properties": { "内容": "ライブアシスト松江訪問看護ステーション【訪問看護】島根県松江市東出雲町錦新町6丁目4-1", "url": "https://www.kaigokensaku.mhlw.go.jp/32/index.php?action_kouhyou_detail_004_kani=true&JigyosyoCd=3260190198-00&ServiceCd=130&Type=search", "url2": "http://y-liveassist.com" }, "geometry": { "type": "Point", "coordinates": [ 133.140287599999965, 35.430950500000016 ] } },
{ "type": "Feature", "properties": { "内容": "株式会社　松江にゅーよーく【訪問看護】西川津町2674-5", "url": "https://www.kaigokensaku.mhlw.go.jp/32/index.php?action_kouhyou_detail_004_kani=true&JigyosyoCd=3260190206-00&ServiceCd=130&Type=search", "url2": "htpps://www.matsue-newyork.com" }, "geometry": { "type": "Point", "coordinates": [ 133.078128427430812, 35.482054330204605 ] } },
{ "type": "Feature", "properties": { "内容": "訪問看護ステーションあゆみ【訪問看護】松江市上乃木二丁目２７番２１号", "url": "https://www.kaigokensaku.mhlw.go.jp/32/index.php?action_kouhyou_detail_004_kani=true&JigyosyoCd=3260190107-00&ServiceCd=130&Type=search", "url2": "https://www.souken-kai.or.jp/" }, "geometry": { "type": "Point", "coordinates": [ 133.06203830000004, 35.4500564 ] } },
{ "type": "Feature", "properties": { "内容": "訪問看護ステーション　いつくしみ【訪問看護】島根県松江市鹿島町名分243-1", "url": "https://www.kaigokensaku.mhlw.go.jp/32/index.php?action_kouhyou_detail_004_kani=true&JigyosyoCd=3261190023-00&ServiceCd=130&Type=search", "url2": "http://www.kashima-hosp.or.jp" }, "geometry": { "type": "Point", "coordinates": [ 133.006919299999936, 35.5262624 ] } },
{ "type": "Feature", "properties": { "内容": "訪問看護ステーションやつか【訪問看護】松江市八束町波入６０７番地１", "url": "https://www.kaigokensaku.mhlw.go.jp/32/index.php?action_kouhyou_detail_004_kani=true&JigyosyoCd=3261190049-00&ServiceCd=130&Type=search", "url2": "http://shimane-fukujuen.jp/" }, "geometry": { "type": "Point", "coordinates": [ 133.178731199999987, 35.487235200000015 ] } },
{ "type": "Feature", "properties": { "内容": "花みずきナースステーション【訪問看護】松江市国屋町212-3", "url": "https://www.kaigokensaku.mhlw.go.jp/32/index.php?action_kouhyou_detail_004_kani=true&JigyosyoCd=3260190131-00&ServiceCd=130&Type=search", "url2": "http://hanamizuki3228.com" }, "geometry": { "type": "Point", "coordinates": [ 133.037442332540877, 35.473558139216472 ] } },
{ "type": "Feature", "properties": { "内容": "島根県看護協会訪問看護ステーションやすらぎ【訪問看護】松江市浜乃木2丁目1番23号", "url": "https://www.kaigokensaku.mhlw.go.jp/32/index.php?action_kouhyou_detail_004_kani=true&JigyosyoCd=3260190008-00&ServiceCd=130&Type=search", "url2": "http://www.web-sanin.co.jp/shimane-nurse/" }, "geometry": { "type": "Point", "coordinates": [ 133.052411399999983, 35.4480037 ] } },
{ "type": "Feature", "properties": { "内容": "訪問看護ステーションゆあん【訪問看護】東出雲町揖屋116-1", "url": "https://www.kaigokensaku.mhlw.go.jp/32/index.php?action_kouhyou_detail_004_kani=true&JigyosyoCd=3260190396-00&ServiceCd=130&Type=search", "url2": "https://lush-care.jp/" }, "geometry": { "type": "Point", "coordinates": [ 133.139400099999989, 35.4264094 ] } },
{ "type": "Feature", "properties": { "内容": "カラフル訪問看護ステーション【訪問看護】島根県松江市大輪町420番地40", "url": "https://www.kaigokensaku.mhlw.go.jp/32/index.php?action_kouhyou_detail_004_kani=true&JigyosyoCd=3260190354-00&ServiceCd=130&Type=search", "url2": null }, "geometry": { "type": "Point", "coordinates": [ 133.060011, 35.4790359 ] } },
{ "type": "Feature", "properties": { "内容": "訪問看護ステーションあやめ【訪問看護】島根県松江市西尾町936番地21", "url": "https://www.kaigokensaku.mhlw.go.jp/32/index.php?action_kouhyou_detail_004_kani=true&JigyosyoCd=3260190289-00&ServiceCd=130&Type=search", "url2": "ayamens@able.ocn.ne.jp" }, "geometry": { "type": "Point", "coordinates": [ 133.093440896745506, 35.466197013054526 ] } },
{ "type": "Feature", "properties": { "内容": "訪問看護ステーション　くるみ【訪問看護】島根県松江市黒田町50-1コーポ多賀栄102", "url": "https://www.kaigokensaku.mhlw.go.jp/32/index.php?action_kouhyou_detail_004_kani=true&JigyosyoCd=3260190263-00&ServiceCd=130&Type=search", "url2": null }, "geometry": { "type": "Point", "coordinates": [ 133.04189729999996, 35.4843528 ] } },
{ "type": "Feature", "properties": { "内容": "株式会社まるっと　訪問看護ステーションまるっと。【訪問看護】島根県松江市東出雲町738-17", "url": "https://www.kaigokensaku.mhlw.go.jp/32/index.php?action_kouhyou_detail_004_kani=true&JigyosyoCd=3260190511-00&ServiceCd=130&Type=search", "url2": null }, "geometry": { "type": "Point", "coordinates": [ 133.0484055, 35.4681908 ] } },
{ "type": "Feature", "properties": { "内容": "医療法人社団　沖田内科医院【訪問看護】島根県浜田市蛭子町20－１", "url": "https://www.kaigokensaku.mhlw.go.jp/32/index.php?action_kouhyou_detail_004_kani=true&JigyosyoCd=3210710756-00&ServiceCd=130&Type=search", "url2": "http://www.okita-naika.jp" }, "geometry": { "type": "Point", "coordinates": [ 132.076980899999967, 34.8960833 ] } },
{ "type": "Feature", "properties": { "内容": "訪問看護ステーション言の葉・ことのは【訪問看護】殿町62-5", "url": "https://www.kaigokensaku.mhlw.go.jp/32/index.php?action_kouhyou_detail_004_kani=true&JigyosyoCd=3260790088-00&ServiceCd=130&Type=search", "url2": "http://kotonohainformation.jp" }, "geometry": { "type": "Point", "coordinates": [ 135.775555700000012, 35.0276556 ] } },
{ "type": "Feature", "properties": { "内容": "訪問看護ステーションはるにれ【訪問看護】島根県浜田市三隅町西河内488-1", "url": "https://www.kaigokensaku.mhlw.go.jp/32/index.php?action_kouhyou_detail_004_kani=true&JigyosyoCd=3260790070-00&ServiceCd=130&Type=search", "url2": "http://harunire-tms.com/" }, "geometry": { "type": "Point", "coordinates": [ 131.957541399999968, 34.796360299999975 ] } },
{ "type": "Feature", "properties": { "内容": "ナースステーションいろは【訪問看護】島根県浜田市熱田町1665番地2", "url": "https://www.kaigokensaku.mhlw.go.jp/32/index.php?action_kouhyou_detail_004_kani=true&JigyosyoCd=3260790096-00&ServiceCd=130&Type=search", "url2": null }, "geometry": { "type": "Point", "coordinates": [ 132.053215147791775, 34.871013275150403 ] } },
{ "type": "Feature", "properties": { "内容": "訪問看護ステーション浜田【訪問看護】浜田市港町294-11番地ヴィレッジせいわ3号館", "url": "https://www.kaigokensaku.mhlw.go.jp/32/index.php?action_kouhyou_detail_004_kani=true&JigyosyoCd=3260790005-00&ServiceCd=130&Type=search", "url2": null }, "geometry": { "type": "Point", "coordinates": [ 132.06722966347661, 34.904285787619266 ] } },
{ "type": "Feature", "properties": { "内容": "訪問看護ステーション　ほっと【訪問看護】浜田市熱田町705番地1", "url": "https://www.kaigokensaku.mhlw.go.jp/32/index.php?action_kouhyou_detail_004_kani=true&JigyosyoCd=3260790047-00&ServiceCd=130&Type=search", "url2": "http://hottokeasenta.hp.gogo.jp" }, "geometry": { "type": "Point", "coordinates": [ 132.058245213941973, 34.871315326958445 ] } },
{ "type": "Feature", "properties": { "内容": "なのはな訪問看護ステーション【訪問看護】浜田市田町1466-1ハート介護センター", "url": "https://www.kaigokensaku.mhlw.go.jp/32/index.php?action_kouhyou_detail_004_kani=true&JigyosyoCd=3260790062-00&ServiceCd=130&Type=search", "url2": null }, "geometry": { "type": "Point", "coordinates": [ 132.084708298583791, 34.901283453849459 ] } },
{ "type": "Feature", "properties": { "内容": "島根県看護協会訪問看護ステーションそよかぜの丘【訪問看護】浜田市田町1563", "url": "https://www.kaigokensaku.mhlw.go.jp/32/index.php?action_kouhyou_detail_004_kani=true&JigyosyoCd=3260790039-00&ServiceCd=130&Type=search", "url2": "https://www.shimane-kango.or.jp/" }, "geometry": { "type": "Point", "coordinates": [ 132.086141, 34.900447 ] } },
{ "type": "Feature", "properties": { "内容": "訪問看護ステーション　あした葉【訪問看護】島根県浜田市紺屋町４６番地", "url": "https://www.kaigokensaku.mhlw.go.jp/32/index.php?action_kouhyou_detail_004_kani=true&JigyosyoCd=3260790104-00&ServiceCd=130&Type=search", "url2": null }, "geometry": { "type": "Point", "coordinates": [ 132.0798068, 34.8974114 ] } },
{ "type": "Feature", "properties": { "内容": "深田医院【訪問看護】出雲市高岡町53-1", "url": "https://www.kaigokensaku.mhlw.go.jp/32/index.php?action_kouhyou_detail_004_kani=true&JigyosyoCd=3210411983-00&ServiceCd=130&Type=search", "url2": null }, "geometry": { "type": "Point", "coordinates": [ 132.759308199999964, 35.3781866 ] } },
{ "type": "Feature", "properties": { "内容": "須谷医院【訪問看護】島根県出雲市所原町６０", "url": "https://www.kaigokensaku.mhlw.go.jp/32/index.php?action_kouhyou_detail_004_kani=true&JigyosyoCd=3210411488-00&ServiceCd=130&Type=search", "url2": null }, "geometry": { "type": "Point", "coordinates": [ 132.766234, 35.3198692 ] } },
{ "type": "Feature", "properties": { "内容": "医療法人　古瀬医院【訪問看護】島根県出雲市稗原町2490-3", "url": "https://www.kaigokensaku.mhlw.go.jp/32/index.php?action_kouhyou_detail_004_kani=true&JigyosyoCd=3210411215-00&ServiceCd=130&Type=search", "url2": "http://www.furuse-clinic.jp/" }, "geometry": { "type": "Point", "coordinates": [ 132.797208800000021, 35.313776 ] } },
{ "type": "Feature", "properties": { "内容": "出雲徳洲会病院　訪問看護サービス　虹【訪問看護】島根県出雲市斐川町直江3964-1", "url": "https://www.kaigokensaku.mhlw.go.jp/32/index.php?action_kouhyou_detail_004_kani=true&JigyosyoCd=3211610989-00&ServiceCd=130&Type=search", "url2": "https://www.izumo-tokushukai.jp/" }, "geometry": { "type": "Point", "coordinates": [ 132.822046199999932, 35.381776 ] } },
{ "type": "Feature", "properties": { "内容": "訪問看護ステーションRelisa【訪問看護】島根県出雲市武志町182-3", "url": "https://www.kaigokensaku.mhlw.go.jp/32/index.php?action_kouhyou_detail_004_kani=true&JigyosyoCd=3260490135-00&ServiceCd=130&Type=search", "url2": null }, "geometry": { "type": "Point", "coordinates": [ 132.776290292867998, 35.388353339957746 ] } },
{ "type": "Feature", "properties": { "内容": "訪問看護ステーションたき【訪問看護】出雲市多伎町小田５０番地７", "url": "https://www.kaigokensaku.mhlw.go.jp/32/index.php?action_kouhyou_detail_004_kani=true&JigyosyoCd=3261690030-00&ServiceCd=130&Type=search", "url2": "http://www.takinosato.com" }, "geometry": { "type": "Point", "coordinates": [ 132.627048899999977, 35.2844431 ] } },
{ "type": "Feature", "properties": { "内容": "在宅診療所いずも【訪問看護】下古志町７１３－１", "url": "https://www.kaigokensaku.mhlw.go.jp/32/index.php?action_kouhyou_detail_004_kani=true&JigyosyoCd=3210412775-00&ServiceCd=130&Type=search", "url2": "http://www.medicalco-tsutaya.jp/" }, "geometry": { "type": "Point", "coordinates": [ 132.736489500000062, 35.3396406 ] } },
{ "type": "Feature", "properties": { "内容": "ひかわ生協訪問看護ステーション　チューリップ【訪問看護】島根県出雲市斐川町美南1507番地1", "url": "https://www.kaigokensaku.mhlw.go.jp/32/index.php?action_kouhyou_detail_004_kani=true&JigyosyoCd=3261690006-00&ServiceCd=130&Type=search", "url2": "http://www.hikawa-hp.com" }, "geometry": { "type": "Point", "coordinates": [ 132.823157674205049, 35.393291502324885 ] } },
{ "type": "Feature", "properties": { "内容": "斐川訪問看護ステーションさくら【訪問看護】島根県出雲市斐川町上直江１４７２ー１", "url": "https://www.kaigokensaku.mhlw.go.jp/32/index.php?action_kouhyou_detail_004_kani=true&JigyosyoCd=3260490291-00&ServiceCd=130&Type=search", "url2": "sakura77@ia7.itkeeper.ne.jp" }, "geometry": { "type": "Point", "coordinates": [ 132.8096788, 35.3893684 ] } },
{ "type": "Feature", "properties": { "内容": "ナカヤ寿楽　訪問看護ステーション【訪問看護】島根県出雲市荒茅町2466　アリスA棟　101号", "url": "https://www.kaigokensaku.mhlw.go.jp/32/index.php?action_kouhyou_detail_004_kani=true&JigyosyoCd=3260490309-00&ServiceCd=130&Type=search", "url2": "https://nakaya-juraku.jp/" }, "geometry": { "type": "Point", "coordinates": [ 132.700994107999833, 35.362261908381406 ] } },
{ "type": "Feature", "properties": { "内容": "こころね訪問看護ステーション大津新崎【訪問看護】島根県出雲市大津新崎町3丁目18番地シニアステージ大津新崎", "url": "https://www.kaigokensaku.mhlw.go.jp/32/index.php?action_kouhyou_detail_004_kani=true&JigyosyoCd=3260490168-00&ServiceCd=130&Type=search", "url2": null }, "geometry": { "type": "Point", "coordinates": [ 132.770235100000036, 35.3700352 ] } },
{ "type": "Feature", "properties": { "内容": "クレド訪問看護リハビリステーション【訪問看護】島根県出雲市今市町北本町１丁目１番地", "url": "https://www.kaigokensaku.mhlw.go.jp/32/index.php?action_kouhyou_detail_004_kani=true&JigyosyoCd=3260490200-00&ServiceCd=130&Type=search", "url2": null }, "geometry": { "type": "Point", "coordinates": [ 132.755660335581979, 35.368198188255008 ] } },
{ "type": "Feature", "properties": { "内容": "コミケア在宅看護センター出雲【訪問看護】島根県出雲市大津町2069-1", "url": "https://www.kaigokensaku.mhlw.go.jp/32/index.php?action_kouhyou_detail_004_kani=true&JigyosyoCd=3260490325-00&ServiceCd=130&Type=search", "url2": "https://comcare.shimane.jp/" }, "geometry": { "type": "Point", "coordinates": [ 132.769443491926552, 35.365967859660266 ] } },
{ "type": "Feature", "properties": { "内容": "Grow訪問看護ステーション【訪問看護】島根県出雲市塩谷町南町3-6-5マンリョウアパート101号室", "url": "https://www.kaigokensaku.mhlw.go.jp/32/index.php?action_kouhyou_detail_004_kani=true&JigyosyoCd=3260490267-00&ServiceCd=130&Type=search", "url2": "https://izumo.mypl.net/shop/00000369278/" }, "geometry": { "type": "Point", "coordinates": [ 132.750534, 35.3453544 ] } },
{ "type": "Feature", "properties": { "内容": "出雲市立総合医療センター　訪問看護ステーション【訪問看護】島根県出雲市灘分町613番地", "url": "https://www.kaigokensaku.mhlw.go.jp/32/index.php?action_kouhyou_detail_004_kani=true&JigyosyoCd=3260490234-00&ServiceCd=130&Type=search", "url2": "https://www.izumocity-hp.jp" }, "geometry": { "type": "Point", "coordinates": [ 132.8238352, 35.4297172 ] } },
{ "type": "Feature", "properties": { "内容": "サンキ・ウエルビィ訪問看護ステーション大社【訪問看護】島根県出雲市大社町北荒木1313小規模多機能センター出雲と併設", "url": "https://www.kaigokensaku.mhlw.go.jp/32/index.php?action_kouhyou_detail_004_kani=true&JigyosyoCd=3260490275-00&ServiceCd=130&Type=search", "url2": null }, "geometry": { "type": "Point", "coordinates": [ 132.698737081445302, 35.386107593760265 ] } },
{ "type": "Feature", "properties": { "内容": "こころね訪問看護ステーション渡橋町【訪問看護】出雲市渡橋町346番地シニアコート渡橋町", "url": "https://www.kaigokensaku.mhlw.go.jp/32/index.php?action_kouhyou_detail_004_kani=true&JigyosyoCd=3260490101-00&ServiceCd=130&Type=search", "url2": null }, "geometry": { "type": "Point", "coordinates": [ 132.743066, 35.3643517 ] } },
{ "type": "Feature", "properties": { "内容": "こころね訪問看護ステーション今市町【訪問看護】島根県出雲市今市町330-5シニアコート今市町内1階", "url": "https://www.kaigokensaku.mhlw.go.jp/32/index.php?action_kouhyou_detail_004_kani=true&JigyosyoCd=3260490192-00&ServiceCd=130&Type=search", "url2": null }, "geometry": { "type": "Point", "coordinates": [ 132.7609223, 35.367504 ] } },
{ "type": "Feature", "properties": { "内容": "こころね訪問看護ステーション塩冶有原町【訪問看護】島根県出雲市塩冶有原町5丁目61番地シニアコート塩冶有原町", "url": "https://www.kaigokensaku.mhlw.go.jp/32/index.php?action_kouhyou_detail_004_kani=true&JigyosyoCd=3260490218-00&ServiceCd=130&Type=search", "url2": null }, "geometry": { "type": "Point", "coordinates": [ 132.7460888, 35.358062 ] } },
{ "type": "Feature", "properties": { "内容": "いなさ園訪問看護ステーション【訪問看護】島根県出雲市大社町杵築西１６４３番地２", "url": "https://www.kaigokensaku.mhlw.go.jp/32/index.php?action_kouhyou_detail_004_kani=true&JigyosyoCd=3260490069-00&ServiceCd=130&Type=search", "url2": "http//www.kidukikai.or.jp" }, "geometry": { "type": "Point", "coordinates": [ 132.678423800000019, 35.3856095 ] } },
{ "type": "Feature", "properties": { "内容": "つばさ訪問看護ステーション【訪問看護】島根県出雲市武志町1020番地4", "url": "https://www.kaigokensaku.mhlw.go.jp/32/index.php?action_kouhyou_detail_004_kani=true&JigyosyoCd=3260490333-00&ServiceCd=130&Type=search", "url2": "https://.tsubasa.asitizumo.org/." }, "geometry": { "type": "Point", "coordinates": [ 132.775901, 35.3942687 ] } },
{ "type": "Feature", "properties": { "内容": "訪問看護ステーション　kahana【訪問看護】島根県出雲市天神町888-2ラポール天神101", "url": "https://www.kaigokensaku.mhlw.go.jp/32/index.php?action_kouhyou_detail_004_kani=true&JigyosyoCd=3260490341-00&ServiceCd=130&Type=search", "url2": null }, "geometry": { "type": "Point", "coordinates": [ 132.7447412, 35.3545444 ] } },
{ "type": "Feature", "properties": { "内容": "なぎ訪問看護ステーション【訪問看護】島根県出雲市知井宮町1223-2", "url": "https://www.kaigokensaku.mhlw.go.jp/32/index.php?action_kouhyou_detail_004_kani=true&JigyosyoCd=3260490283-00&ServiceCd=130&Type=search", "url2": null }, "geometry": { "type": "Point", "coordinates": [ 132.7169083, 35.3346387 ] } },
{ "type": "Feature", "properties": { "内容": "出雲徳洲会　訪問看護ステーション【訪問看護】島根県出雲市斐川町直江3964-1", "url": "https://www.kaigokensaku.mhlw.go.jp/32/index.php?action_kouhyou_detail_004_kani=true&JigyosyoCd=3260490242-00&ServiceCd=130&Type=search", "url2": "https://www.izumo-tokushukai.jp/homevisit" }, "geometry": { "type": "Point", "coordinates": [ 132.8221207, 35.3819431 ] } },
{ "type": "Feature", "properties": { "内容": "島根県看護協会訪問看護ステーションいずも【訪問看護】島根県出雲市姫原1丁目7-14", "url": "https://www.kaigokensaku.mhlw.go.jp/32/index.php?action_kouhyou_detail_004_kani=true&JigyosyoCd=3260490028-00&ServiceCd=130&Type=search", "url2": "https://www.shimane-kango.or.jp/general/station/229/1061" }, "geometry": { "type": "Point", "coordinates": [ 132.755425599999967, 35.3735482 ] } },
{ "type": "Feature", "properties": { "内容": "出雲看護サービスセンター【訪問看護】出雲市今市町新町827-21", "url": "https://www.kaigokensaku.mhlw.go.jp/32/index.php?action_kouhyou_detail_004_kani=true&JigyosyoCd=3260490002-00&ServiceCd=130&Type=search", "url2": "http://www.izumo-hewcoop.jp/" }, "geometry": { "type": "Point", "coordinates": [ 132.751742949971003, 35.36298775092768 ] } },
{ "type": "Feature", "properties": { "内容": "特定非営利活動法人訪問看護ステーション愛【訪問看護】出雲市国富町1015番地", "url": "https://www.kaigokensaku.mhlw.go.jp/32/index.php?action_kouhyou_detail_004_kani=true&JigyosyoCd=3260390012-00&ServiceCd=130&Type=search", "url2": null }, "geometry": { "type": "Point", "coordinates": [ 132.804162799999972, 35.4271264 ] } },
{ "type": "Feature", "properties": { "内容": "特定非営利活動法人　訪問看護ステーションほほえみ【訪問看護】島根県出雲市平田町7178", "url": "https://www.kaigokensaku.mhlw.go.jp/32/index.php?action_kouhyou_detail_004_kani=true&JigyosyoCd=3260490085-00&ServiceCd=130&Type=search", "url2": null }, "geometry": { "type": "Point", "coordinates": [ 132.823494398043437, 35.440545846068595 ] } },
{ "type": "Feature", "properties": { "内容": "訪問看護ステーションこりょう【訪問看護】出雲市湖陵町二部1802番地3", "url": "https://www.kaigokensaku.mhlw.go.jp/32/index.php?action_kouhyou_detail_004_kani=true&JigyosyoCd=3260490077-00&ServiceCd=130&Type=search", "url2": null }, "geometry": { "type": "Point", "coordinates": [ 132.672542722892814, 35.318468890287953 ] } },
{ "type": "Feature", "properties": { "内容": "こころ訪問看護ステーション【訪問看護】島根県出雲市天神町１１５番地２", "url": "https://www.kaigokensaku.mhlw.go.jp/32/index.php?action_kouhyou_detail_004_kani=true&JigyosyoCd=3260490127-00&ServiceCd=130&Type=search", "url2": null }, "geometry": { "type": "Point", "coordinates": [ 132.734326877132503, 35.370193886291297 ] } },
{ "type": "Feature", "properties": { "内容": "寿生訪問看護ステーション【訪問看護】島根県出雲市上塩冶町2862番地1寿生病院", "url": "https://www.kaigokensaku.mhlw.go.jp/32/index.php?action_kouhyou_detail_004_kani=true&JigyosyoCd=3260490317-00&ServiceCd=130&Type=search", "url2": "http://juseikai.jp" }, "geometry": { "type": "Point", "coordinates": [ 132.7785541, 35.3544135 ] } },
{ "type": "Feature", "properties": { "内容": "訪問看護ステーション　クローバー【訪問看護】島根県出雲市今市町藤ケ森2074", "url": "https://www.kaigokensaku.mhlw.go.jp/32/index.php?action_kouhyou_detail_004_kani=true&JigyosyoCd=3260490259-00&ServiceCd=130&Type=search", "url2": null }, "geometry": { "type": "Point", "coordinates": [ 132.7574703, 35.3629528 ] } },
{ "type": "Feature", "properties": { "内容": "訪問看護ステーション彩雲【訪問看護】島根県出雲市高岡町388-1", "url": "https://www.kaigokensaku.mhlw.go.jp/32/index.php?action_kouhyou_detail_004_kani=true&JigyosyoCd=3260490226-00&ServiceCd=130&Type=search", "url2": "https://lush-care.jp/" }, "geometry": { "type": "Point", "coordinates": [ 132.7615597, 35.383116 ] } },
{ "type": "Feature", "properties": { "内容": "メディカル乙吉　訪問看護ステーション【訪問看護】島根県益田市乙吉町イ６９５－１", "url": "https://www.kaigokensaku.mhlw.go.jp/32/index.php?action_kouhyou_detail_004_kani=true&JigyosyoCd=3260890078-00&ServiceCd=130&Type=search", "url2": null }, "geometry": { "type": "Point", "coordinates": [ 131.857108199999971, 34.6880779 ] } },
{ "type": "Feature", "properties": { "内容": "訪問看護ステーション花hana【訪問看護】島根県益田市横田町285−8", "url": "https://www.kaigokensaku.mhlw.go.jp/32/index.php?action_kouhyou_detail_004_kani=true&JigyosyoCd=3260890094-00&ServiceCd=130&Type=search", "url2": "https://hanahana-web.jimdofree.com" }, "geometry": { "type": "Point", "coordinates": [ 131.806908499999963, 34.6272932 ] } },
{ "type": "Feature", "properties": { "内容": "訪問ステーション　秋桜【訪問看護】島根県益田市横田町2019番地", "url": "https://www.kaigokensaku.mhlw.go.jp/32/index.php?action_kouhyou_detail_004_kani=true&JigyosyoCd=3260890086-00&ServiceCd=130&Type=search", "url2": null }, "geometry": { "type": "Point", "coordinates": [ 131.807899, 34.6311143 ] } },
{ "type": "Feature", "properties": { "内容": "益田市医師会訪問看護ステーション【訪問看護】島根県益田市遠田町３７２１番地１２", "url": "https://www.kaigokensaku.mhlw.go.jp/32/index.php?action_kouhyou_detail_004_kani=true&JigyosyoCd=3260890003-00&ServiceCd=130&Type=search", "url2": "https://www.masuda-med.or.jp/kunisakien/" }, "geometry": { "type": "Point", "coordinates": [ 131.8664516, 34.6968405 ] } },
{ "type": "Feature", "properties": { "内容": "訪問看護ステーション　らく【訪問看護】島根県益田市高津町ロ437-54", "url": "https://www.kaigokensaku.mhlw.go.jp/32/index.php?action_kouhyou_detail_004_kani=true&JigyosyoCd=3260890110-00&ServiceCd=130&Type=search", "url2": "https://www.raku-llc.com/" }, "geometry": { "type": "Point", "coordinates": [ 131.7929818, 34.6785189 ] } },
{ "type": "Feature", "properties": { "内容": "訪問看護　ハレルヤ【訪問看護】島根県益田市乙吉町イ-334-2", "url": "https://www.kaigokensaku.mhlw.go.jp/32/index.php?action_kouhyou_detail_004_kani=true&JigyosyoCd=3260890102-00&ServiceCd=130&Type=search", "url2": null }, "geometry": { "type": "Point", "coordinates": [ 131.845698, 34.6808991 ] } },
{ "type": "Feature", "properties": { "内容": "訪問看護ステーション　ながひさ【訪問看護】島根県大田市長久町長久ハ24-6", "url": "https://www.kaigokensaku.mhlw.go.jp/32/index.php?action_kouhyou_detail_004_kani=true&JigyosyoCd=3260590058-00&ServiceCd=130&Type=search", "url2": "http://www.k-jinju.or.jp" }, "geometry": { "type": "Point", "coordinates": [ 132.492827, 35.20128 ] } },
{ "type": "Feature", "properties": { "内容": "訪問看護ステーション　ラシック【訪問看護】久手町刺鹿710-1", "url": "https://www.kaigokensaku.mhlw.go.jp/32/index.php?action_kouhyou_detail_004_kani=true&JigyosyoCd=3260590041-00&ServiceCd=130&Type=search", "url2": "http://care-lachic.com/" }, "geometry": { "type": "Point", "coordinates": [ 132.506554985719816, 35.224747852227807 ] } },
{ "type": "Feature", "properties": { "内容": "訪問看護ステーション　碧【訪問看護】島根県大田市久手町刺鹿1904-2", "url": "https://www.kaigokensaku.mhlw.go.jp/32/index.php?action_kouhyou_detail_004_kani=true&JigyosyoCd=3260590033-00&ServiceCd=130&Type=search", "url2": null }, "geometry": { "type": "Point", "coordinates": [ 132.516487934506699, 35.224861451262782 ] } },
{ "type": "Feature", "properties": { "内容": "大田市立病院訪問看護ステーション【訪問看護】島根県大田市大田町吉永１４２８－３大田市立病院", "url": "https://www.kaigokensaku.mhlw.go.jp/32/index.php?action_kouhyou_detail_004_kani=true&JigyosyoCd=3260590025-00&ServiceCd=130&Type=search", "url2": "http://www.ohda-hp.ohda.shimane.jp/" }, "geometry": { "type": "Point", "coordinates": [ 132.504505670253025, 35.181079897800018 ] } },
{ "type": "Feature", "properties": { "内容": "訪問看護ステーション　めぐみ【訪問看護】大田市大田町大田イ８６０番地3", "url": "https://www.kaigokensaku.mhlw.go.jp/32/index.php?action_kouhyou_detail_004_kani=true&JigyosyoCd=3260590009-00&ServiceCd=130&Type=search", "url2": null }, "geometry": { "type": "Point", "coordinates": [ 132.506125900000029, 35.1995223 ] } },
{ "type": "Feature", "properties": { "内容": "医療法人社団　福田医院【訪問看護】大田市波根町字古川２０２８", "url": "https://www.kaigokensaku.mhlw.go.jp/32/index.php?action_kouhyou_detail_004_kani=true&JigyosyoCd=3210510735-00&ServiceCd=130&Type=search", "url2": "http://www.dr-fukuda.jp" }, "geometry": { "type": "Point", "coordinates": [ 132.5286476, 35.244459 ] } },
{ "type": "Feature", "properties": { "内容": "島根県看護協会訪問看護ステーションおおだ【訪問看護】島根県大田市大田町大田ロ1113-5", "url": "https://www.kaigokensaku.mhlw.go.jp/32/index.php?action_kouhyou_detail_004_kani=true&JigyosyoCd=3260590017-00&ServiceCd=130&Type=search", "url2": null }, "geometry": { "type": "Point", "coordinates": [ 132.497276699999929, 35.1916285 ] } },
{ "type": "Feature", "properties": { "内容": "むすび訪問看護ステーション大田【訪問看護】島根県大田市五十猛町2822-6", "url": "https://www.kaigokensaku.mhlw.go.jp/32/index.php?action_kouhyou_detail_004_kani=true&JigyosyoCd=3260590066-00&ServiceCd=130&Type=search", "url2": "https://www.niji.one" }, "geometry": { "type": "Point", "coordinates": [ 132.442687199999966, 35.194547 ] } },
{ "type": "Feature", "properties": { "内容": "安来市立病院【訪問看護】島根県安来市広瀬町広瀬1931番地", "url": "https://www.kaigokensaku.mhlw.go.jp/32/index.php?action_kouhyou_detail_004_kani=true&JigyosyoCd=3211210038-00&ServiceCd=130&Type=search", "url2": "https://www.city.yasugi.shimane.jp/hospital/" }, "geometry": { "type": "Point", "coordinates": [ 133.1772916, 35.370196 ] } },
{ "type": "Feature", "properties": { "内容": "安来訪問看護ステーション【訪問看護】安来市安来町899-1", "url": "https://www.kaigokensaku.mhlw.go.jp/32/index.php?action_kouhyou_detail_004_kani=true&JigyosyoCd=3260290006-00&ServiceCd=130&Type=search", "url2": "http://www.syourinkai.or.jp" }, "geometry": { "type": "Point", "coordinates": [ 133.252041649056423, 35.431719552666472 ] } },
{ "type": "Feature", "properties": { "内容": "安来市医師会　訪問看護ステーション【訪問看護】安来市伯太町安田１７００番地", "url": "https://www.kaigokensaku.mhlw.go.jp/32/index.php?action_kouhyou_detail_004_kani=true&JigyosyoCd=3261290005-00&ServiceCd=130&Type=search", "url2": null }, "geometry": { "type": "Point", "coordinates": [ 133.273779399999967, 35.3719287 ] } },
{ "type": "Feature", "properties": { "内容": "訪問看護ステーションのぎ【訪問看護】安来市実松町98－1", "url": "https://www.kaigokensaku.mhlw.go.jp/32/index.php?action_kouhyou_detail_004_kani=true&JigyosyoCd=3260290048-00&ServiceCd=130&Type=search", "url2": "http://www.care.nogi.com" }, "geometry": { "type": "Point", "coordinates": [ 133.221290400000044, 35.3952286 ] } },
{ "type": "Feature", "properties": { "内容": "訪問看護ステーション　すまいる【訪問看護】島根県江津市都野津町2372番地5看護小規模多機能型居宅介護事業所すまいるぷらす", "url": "https://www.kaigokensaku.mhlw.go.jp/32/index.php?action_kouhyou_detail_004_kani=true&JigyosyoCd=3260690015-00&ServiceCd=130&Type=search", "url2": "http://smilegarden-tsunodu.com/" }, "geometry": { "type": "Point", "coordinates": [ 132.184595733055545, 34.984485178435058 ] } },
{ "type": "Feature", "properties": { "内容": "敬川沖田クリニック【訪問看護】島根県江津市敬川町296-6", "url": "https://www.kaigokensaku.mhlw.go.jp/32/index.php?action_kouhyou_detail_004_kani=true&JigyosyoCd=3210610857-00&ServiceCd=130&Type=search", "url2": "https://uyagawa-okita-clinic.com" }, "geometry": { "type": "Point", "coordinates": [ 132.171065177909838, 34.970553716159706 ] } },
{ "type": "Feature", "properties": { "内容": "訪問看護ステーション　よさみ【訪問看護】島根県江津市嘉久志町2426-10新川ビル2階", "url": "https://www.kaigokensaku.mhlw.go.jp/32/index.php?action_kouhyou_detail_004_kani=true&JigyosyoCd=3260690031-00&ServiceCd=130&Type=search", "url2": "https://www.toukou-g.com/" }, "geometry": { "type": "Point", "coordinates": [ 132.209258, 35.0050052 ] } },
{ "type": "Feature", "properties": { "内容": "高砂訪問看護ステーション【訪問看護】島根県江津市江津町1016-37", "url": "https://www.kaigokensaku.mhlw.go.jp/32/index.php?action_kouhyou_detail_004_kani=true&JigyosyoCd=3260690007-00&ServiceCd=130&Type=search", "url2": "http://www.gotsu-takasago.jp/" }, "geometry": { "type": "Point", "coordinates": [ 132.2184638, 35.0138922 ] } },
{ "type": "Feature", "properties": { "内容": "雲南市国民健康保険掛合診療所【訪問看護】雲南市掛合町掛合1,312", "url": "https://www.kaigokensaku.mhlw.go.jp/32/index.php?action_kouhyou_detail_004_kani=true&JigyosyoCd=3211510031-00&ServiceCd=130&Type=search", "url2": null }, "geometry": { "type": "Point", "coordinates": [ 132.815783099999976, 35.1951641 ] } },
{ "type": "Feature", "properties": { "内容": "訪問看護ステーションコミケア【訪問看護】島根県雲南市三刀屋町三刀屋1065番地１", "url": "https://www.kaigokensaku.mhlw.go.jp/32/index.php?action_kouhyou_detail_004_kani=true&JigyosyoCd=3261490068-00&ServiceCd=130&Type=search", "url2": "http://comcare.shimane.jp/" }, "geometry": { "type": "Point", "coordinates": [ 132.87141680000002, 35.2879529 ] } },
{ "type": "Feature", "properties": { "内容": "なごみ訪問看護ステーション【訪問看護】島根県雲南市大東町飯田92番地1シニアコートなごみ大東", "url": "https://www.kaigokensaku.mhlw.go.jp/32/index.php?action_kouhyou_detail_004_kani=true&JigyosyoCd=3261490043-00&ServiceCd=130&Type=search", "url2": "http://nagomidaitou.sakura.ne.jp" }, "geometry": { "type": "Point", "coordinates": [ 132.960367933065754, 35.325054525770554 ] } },
{ "type": "Feature", "properties": { "内容": "とちのみ【訪問看護】島根県雲南市吉田町吉田1043番地8", "url": "https://www.kaigokensaku.mhlw.go.jp/32/index.php?action_kouhyou_detail_004_kani=true&JigyosyoCd=3261490076-00&ServiceCd=130&Type=search", "url2": "https://yoshida-fukushikai.jp/" }, "geometry": { "type": "Point", "coordinates": [ 132.859884299999976, 35.1669188 ] } },
{ "type": "Feature", "properties": { "内容": "指定訪問看護ステーションうんなん【訪問看護】島根県雲南市大東町飯田96-1", "url": "https://www.kaigokensaku.mhlw.go.jp/32/index.php?action_kouhyou_detail_004_kani=true&JigyosyoCd=3261490001-00&ServiceCd=130&Type=search", "url2": "http://unnan-hp.jp/" }, "geometry": { "type": "Point", "coordinates": [ 132.9600011, 35.3238111 ] } },
{ "type": "Feature", "properties": { "内容": "奥出雲訪問看護ステーションにた【訪問看護】島根県仁多郡奥出雲町三成1622-2", "url": "https://www.kaigokensaku.mhlw.go.jp/32/index.php?action_kouhyou_detail_004_kani=true&JigyosyoCd=3261390003-00&ServiceCd=130&Type=search", "url2": "houkan@town.okuizumo.shimane.jp" }, "geometry": { "type": "Point", "coordinates": [ 132.99702149999996, 35.195490700000043 ] } },
{ "type": "Feature", "properties": { "内容": "飯南町訪問看護ステーション【訪問看護】飯南町頓原2060飯南町立飯南病院内", "url": "https://www.kaigokensaku.mhlw.go.jp/32/index.php?action_kouhyou_detail_004_kani=true&JigyosyoCd=3261590008-00&ServiceCd=130&Type=search", "url2": "https://www.iinan-hospital.jp" }, "geometry": { "type": "Point", "coordinates": [ 132.781025526354568, 35.079561240014222 ] } },
{ "type": "Feature", "properties": { "内容": "訪問看護ステーション　かわもと【訪問看護】島根県邑智郡川本町大字川本383-1", "url": "https://www.kaigokensaku.mhlw.go.jp/32/index.php?action_kouhyou_detail_004_kani=true&JigyosyoCd=3261890010-00&ServiceCd=130&Type=search", "url2": "http://www.k-jinju.or.jp" }, "geometry": { "type": "Point", "coordinates": [ 132.494792855017039, 34.99099187844606 ] } },
{ "type": "Feature", "properties": { "内容": "訪問看護ステーションおおち【訪問看護】美郷町滝原１７４番地２", "url": "https://www.kaigokensaku.mhlw.go.jp/32/index.php?action_kouhyou_detail_004_kani=true&JigyosyoCd=3261890036-00&ServiceCd=130&Type=search", "url2": "http://fish.miracle.ne.jp./f-wave/" }, "geometry": { "type": "Point", "coordinates": [ 132.6000752, 35.0514465 ] } },
{ "type": "Feature", "properties": { "内容": "邑南社協訪問看護事業所【訪問看護】邑南町中野３８４８番地２", "url": "https://www.kaigokensaku.mhlw.go.jp/32/index.php?action_kouhyou_detail_004_kani=true&JigyosyoCd=3261890051-00&ServiceCd=130&Type=search", "url2": null }, "geometry": { "type": "Point", "coordinates": [ 132.452832400000034, 34.8960358 ] } },
{ "type": "Feature", "properties": { "内容": "訪問看護ステーションさくら会【訪問看護】島根県邑智郡邑南町山田33番地6", "url": "https://www.kaigokensaku.mhlw.go.jp/32/index.php?action_kouhyou_detail_004_kani=true&JigyosyoCd=3261890002-00&ServiceCd=130&Type=search", "url2": null }, "geometry": { "type": "Point", "coordinates": [ 132.539971400000013, 34.8607047 ] } },
{ "type": "Feature", "properties": { "内容": "津和野共存病院【訪問看護】島根県鹿足郡津和野町森村ロ１４１", "url": "https://www.kaigokensaku.mhlw.go.jp/32/index.php?action_kouhyou_detail_004_kani=true&JigyosyoCd=3212110377-00&ServiceCd=130&Type=search", "url2": "http:kisseido.jp/" }, "geometry": { "type": "Point", "coordinates": [ 131.7780605, 34.4603927 ] } },
{ "type": "Feature", "properties": { "内容": "吉賀町訪問看護ステーション【訪問看護】島根県鹿足郡吉賀町六日市368番地4よしか病院内", "url": "https://www.kaigokensaku.mhlw.go.jp/32/index.php?action_kouhyou_detail_004_kani=true&JigyosyoCd=3262190006-00&ServiceCd=130&Type=search", "url2": "https://yoshika-shakyo.jp/" }, "geometry": { "type": "Point", "coordinates": [ 131.937491099999988, 34.3550017 ] } },
{ "type": "Feature", "properties": { "内容": "海士町国民健康保険　海士診療所【訪問看護】島根県隠岐郡海士町大字海士1466番地", "url": "https://www.kaigokensaku.mhlw.go.jp/32/index.php?action_kouhyou_detail_004_kani=true&JigyosyoCd=3212210540-00&ServiceCd=130&Type=search", "url2": "https://ama-shinryosho.jp/" }, "geometry": { "type": "Point", "coordinates": [ 133.094794800000045, 36.0959605 ] } },
{ "type": "Feature", "properties": { "内容": "隠岐広域連合立隠岐島前病院【訪問看護】島根県隠岐郡西ノ島町大字美田２０７１番地１", "url": "https://www.kaigokensaku.mhlw.go.jp/32/index.php?action_kouhyou_detail_004_kani=true&JigyosyoCd=3212210672-00&ServiceCd=130&Type=search", "url2": "http://okidozenhospital.com/" }, "geometry": { "type": "Point", "coordinates": [ 133.036349400000063, 36.1063157 ] } },
{ "type": "Feature", "properties": { "内容": "隠岐の島町訪問看護ステーション「かがやき」【訪問看護】島根県隠岐郡隠岐の島町城北町667番地多目的施設2階事務所", "url": "https://www.kaigokensaku.mhlw.go.jp/32/index.php?action_kouhyou_detail_004_kani=true&JigyosyoCd=3262290020-00&ServiceCd=130&Type=search", "url2": null }, "geometry": { "type": "Point", "coordinates": [ 133.318057306745914, 36.214921343906077 ] } }
]
}
