{
"type": "FeatureCollection",
"name": "geo_32_居宅介護支援",
"crs": { "type": "name", "properties": { "name": "urn:ogc:def:crs:OGC:1.3:CRS84" } },
"features": [
{ "type": "Feature", "properties": { "内容": "ケアセンター咲花【居宅介護支援】島根県松江市雑賀町40-1", "url": "https://www.kaigokensaku.mhlw.go.jp/32/index.php?action_kouhyou_detail_004_kani=true&JigyosyoCd=3270104213-00&ServiceCd=430&Type=search", "url2": "http://saika.cc/" }, "geometry": { "type": "Point", "coordinates": [ 133.056701299999986, 35.4579706 ] } },
{ "type": "Feature", "properties": { "内容": "居宅介護支援事業所　絆【居宅介護支援】松江市馬潟町104番地1", "url": "https://www.kaigokensaku.mhlw.go.jp/32/index.php?action_kouhyou_detail_004_kani=true&JigyosyoCd=3270102977-00&ServiceCd=430&Type=search", "url2": null }, "geometry": { "type": "Point", "coordinates": [ 133.111638059524466, 35.443451770587302 ] } },
{ "type": "Feature", "properties": { "内容": "訪問看護介護ステーションすずらん【居宅介護支援】松江市上乃木七丁目6-1かもと整形外科クリニック２F", "url": "https://www.kaigokensaku.mhlw.go.jp/32/index.php?action_kouhyou_detail_004_kani=true&JigyosyoCd=3260190081-00&ServiceCd=430&Type=search", "url2": "http://fu-suno.jp/" }, "geometry": { "type": "Point", "coordinates": [ 133.0712769718277, 35.445836727827604 ] } },
{ "type": "Feature", "properties": { "内容": "宍道ゆりさわ居宅介護支援事業所【居宅介護支援】島根県松江市宍道町佐々布2130番地1", "url": "https://www.kaigokensaku.mhlw.go.jp/32/index.php?action_kouhyou_detail_004_kani=true&JigyosyoCd=3270103942-00&ServiceCd=430&Type=search", "url2": null }, "geometry": { "type": "Point", "coordinates": [ 132.881576125904076, 35.397113068797857 ] } },
{ "type": "Feature", "properties": { "内容": "居宅介護支援事業所コーポ上口【居宅介護支援】古志原六丁目8番10号", "url": "https://www.kaigokensaku.mhlw.go.jp/32/index.php?action_kouhyou_detail_004_kani=true&JigyosyoCd=3270103397-00&ServiceCd=430&Type=search", "url2": "http://kamiguchifukushikai.jp/" }, "geometry": { "type": "Point", "coordinates": [ 133.078976499999953, 35.4409575 ] } },
{ "type": "Feature", "properties": { "内容": "ケアマネジメントしるし【居宅介護支援】島根県松江市上乃木６丁目６-２６", "url": "https://www.kaigokensaku.mhlw.go.jp/32/index.php?action_kouhyou_detail_004_kani=true&JigyosyoCd=3270103678-00&ServiceCd=430&Type=search", "url2": "https://signpost-llc.com/" }, "geometry": { "type": "Point", "coordinates": [ 133.136065700000017, 35.4352471 ] } },
{ "type": "Feature", "properties": { "内容": "フォーエヴァーケアプランセンター【居宅介護支援】上乃木二丁目21番10号", "url": "https://www.kaigokensaku.mhlw.go.jp/32/index.php?action_kouhyou_detail_004_kani=true&JigyosyoCd=3270103694-00&ServiceCd=430&Type=search", "url2": null }, "geometry": { "type": "Point", "coordinates": [ 133.059409791443045, 35.449386853078835 ] } },
{ "type": "Feature", "properties": { "内容": "サンキ・ウエルビィ介護センター松江【居宅介護支援】島根県松江市東津田町1787サンキウエルビィ介護センター松江", "url": "https://www.kaigokensaku.mhlw.go.jp/32/index.php?action_kouhyou_detail_004_kani=true&JigyosyoCd=3270100633-00&ServiceCd=430&Type=search", "url2": null }, "geometry": { "type": "Point", "coordinates": [ 133.086875500000019, 35.4490624 ] } },
{ "type": "Feature", "properties": { "内容": "ケアプラン　わかくさ【居宅介護支援】松江市朝酌町２８－１", "url": "https://www.kaigokensaku.mhlw.go.jp/32/index.php?action_kouhyou_detail_004_kani=true&JigyosyoCd=3210112359-00&ServiceCd=430&Type=search", "url2": null }, "geometry": { "type": "Point", "coordinates": [ 133.101398709661908, 35.46449530573738 ] } },
{ "type": "Feature", "properties": { "内容": "こころね居宅介護支援事業所【居宅介護支援】島根県松江市東朝日町１５８番地８三和ビル1階", "url": "https://www.kaigokensaku.mhlw.go.jp/32/index.php?action_kouhyou_detail_004_kani=true&JigyosyoCd=3270102423-00&ServiceCd=430&Type=search", "url2": "cocorone-1@senior-court.jp" }, "geometry": { "type": "Point", "coordinates": [ 133.073412, 35.4622414 ] } },
{ "type": "Feature", "properties": { "内容": "ケアセンター喜南居宅介護支援事業所【居宅介護支援】松江市宍道町白石129-2", "url": "https://www.kaigokensaku.mhlw.go.jp/32/index.php?action_kouhyou_detail_004_kani=true&JigyosyoCd=3271100079-00&ServiceCd=430&Type=search", "url2": null }, "geometry": { "type": "Point", "coordinates": [ 132.925996899999973, 35.4141773 ] } },
{ "type": "Feature", "properties": { "内容": "回春ケアマネージメントビューロー【居宅介護支援】松江市川原町292-2", "url": "https://www.kaigokensaku.mhlw.go.jp/32/index.php?action_kouhyou_detail_004_kani=true&JigyosyoCd=3270100047-00&ServiceCd=430&Type=search", "url2": null }, "geometry": { "type": "Point", "coordinates": [ 133.093607799999972, 35.5038568 ] } },
{ "type": "Feature", "properties": { "内容": "居宅介護支援事業所松江センターアゼリア【居宅介護支援】島根県松江市寺町99番地26", "url": "https://www.kaigokensaku.mhlw.go.jp/32/index.php?action_kouhyou_detail_004_kani=true&JigyosyoCd=3270102308-00&ServiceCd=430&Type=search", "url2": "http://mizusumikai.or.jp/" }, "geometry": { "type": "Point", "coordinates": [ 133.060097478170718, 35.462330910250337 ] } },
{ "type": "Feature", "properties": { "内容": "居宅介護支援事業所もみの木苑【居宅介護支援】島根県松江市東出雲町出雲郷７７１－４", "url": "https://www.kaigokensaku.mhlw.go.jp/32/index.php?action_kouhyou_detail_004_kani=true&JigyosyoCd=3270103272-00&ServiceCd=430&Type=search", "url2": "http://www.mominokien.jp" }, "geometry": { "type": "Point", "coordinates": [ 133.138124, 35.4273175 ] } },
{ "type": "Feature", "properties": { "内容": "オレンジロード【居宅介護支援】松江市学園2丁目25番8号", "url": "https://www.kaigokensaku.mhlw.go.jp/32/index.php?action_kouhyou_detail_004_kani=true&JigyosyoCd=3270101326-00&ServiceCd=430&Type=search", "url2": "http://orangeroad.co.jp/" }, "geometry": { "type": "Point", "coordinates": [ 133.069393014155594, 35.483466731300943 ] } },
{ "type": "Feature", "properties": { "内容": "ケアプラン優樹【居宅介護支援】宍道町伊志見４１０番地", "url": "https://www.kaigokensaku.mhlw.go.jp/32/index.php?action_kouhyou_detail_004_kani=true&JigyosyoCd=3270401874-00&ServiceCd=430&Type=search", "url2": null }, "geometry": { "type": "Point", "coordinates": [ 132.877042964883486, 35.397701820038804 ] } },
{ "type": "Feature", "properties": { "内容": "ニチイケアセンター松江【居宅介護支援】浜乃木六丁目8番８号コーポ岡乃山１０５号", "url": "https://www.kaigokensaku.mhlw.go.jp/32/index.php?action_kouhyou_detail_004_kani=true&JigyosyoCd=3270103512-00&ServiceCd=430&Type=search", "url2": "www.nichiigakkan.co.jp" }, "geometry": { "type": "Point", "coordinates": [ 133.055170366235757, 35.443787486421918 ] } },
{ "type": "Feature", "properties": { "内容": "居宅介護支援事業所花きりん【居宅介護支援】松江市雑賀町40-1ユニティーさいか3階", "url": "https://www.kaigokensaku.mhlw.go.jp/32/index.php?action_kouhyou_detail_004_kani=true&JigyosyoCd=3270101920-00&ServiceCd=430&Type=search", "url2": "http://hanakirin.net" }, "geometry": { "type": "Point", "coordinates": [ 133.056710979721146, 35.457919466918888 ] } },
{ "type": "Feature", "properties": { "内容": "ぼたんの里居宅介護支援事業所【居宅介護支援】松江市八束町江島1128番地53", "url": "https://www.kaigokensaku.mhlw.go.jp/32/index.php?action_kouhyou_detail_004_kani=true&JigyosyoCd=3270102787-00&ServiceCd=430&Type=search", "url2": "http://botanhouse.web.fc2.com/" }, "geometry": { "type": "Point", "coordinates": [ 133.191192799999953, 35.5144158 ] } },
{ "type": "Feature", "properties": { "内容": "居宅介護支援事業所すずかけの樹【居宅介護支援】松江市上乃木１０丁目２番１４号", "url": "https://www.kaigokensaku.mhlw.go.jp/32/index.php?action_kouhyou_detail_004_kani=true&JigyosyoCd=3270101771-00&ServiceCd=430&Type=search", "url2": "http://www.matsue-techno-service.jp" }, "geometry": { "type": "Point", "coordinates": [ 133.0687689, 35.4379495 ] } },
{ "type": "Feature", "properties": { "内容": "在宅介護支援サービスすみれ【居宅介護支援】松江市中原町　３１３－１", "url": "https://www.kaigokensaku.mhlw.go.jp/32/index.php?action_kouhyou_detail_004_kani=true&JigyosyoCd=3270100591-00&ServiceCd=430&Type=search", "url2": null }, "geometry": { "type": "Point", "coordinates": [ 133.044580900000028, 35.4683288 ] } },
{ "type": "Feature", "properties": { "内容": "こころね居宅介護支援事業所上乃木【居宅介護支援】島根県松江市上乃木四丁目23番50号", "url": "https://www.kaigokensaku.mhlw.go.jp/32/index.php?action_kouhyou_detail_004_kani=true&JigyosyoCd=3270104247-00&ServiceCd=430&Type=search", "url2": null }, "geometry": { "type": "Point", "coordinates": [ 133.06308150000001, 35.4439192 ] } },
{ "type": "Feature", "properties": { "内容": "居宅介護支援事業所　愛桜【居宅介護支援】鹿島町名分1348-2", "url": "https://www.kaigokensaku.mhlw.go.jp/32/index.php?action_kouhyou_detail_004_kani=true&JigyosyoCd=3270102373-00&ServiceCd=430&Type=search", "url2": "https://care-net.biz/32/kashima-f/" }, "geometry": { "type": "Point", "coordinates": [ 133.0080921, 35.509084 ] } },
{ "type": "Feature", "properties": { "内容": "居宅介護支援事業所「ナイス」【居宅介護支援】松江市山代町934-5", "url": "https://www.kaigokensaku.mhlw.go.jp/32/index.php?action_kouhyou_detail_004_kani=true&JigyosyoCd=3270100120-00&ServiceCd=430&Type=search", "url2": "http:www.sirayurikai.or.jp/" }, "geometry": { "type": "Point", "coordinates": [ 133.09536090000006, 35.4399581 ] } },
{ "type": "Feature", "properties": { "内容": "社会福祉法人ふれあい　本庄居宅介護支援センター【居宅介護支援】松江市野原町417番地2", "url": "https://www.kaigokensaku.mhlw.go.jp/32/index.php?action_kouhyou_detail_004_kani=true&JigyosyoCd=3270100088-00&ServiceCd=430&Type=search", "url2": null }, "geometry": { "type": "Point", "coordinates": [ 133.13595620000001, 35.5161858 ] } },
{ "type": "Feature", "properties": { "内容": "湖北ふれあい居宅介護支援事業所【居宅介護支援】松江市西川津町1611-1", "url": "https://www.kaigokensaku.mhlw.go.jp/32/index.php?action_kouhyou_detail_004_kani=true&JigyosyoCd=3270101888-00&ServiceCd=430&Type=search", "url2": "http://www.h3.dion.ne.jp/~kohoku/" }, "geometry": { "type": "Point", "coordinates": [ 133.071670166927618, 35.471490888971445 ] } },
{ "type": "Feature", "properties": { "内容": "みずうみ支援センター【居宅介護支援】松江市法吉町629-2", "url": "https://www.kaigokensaku.mhlw.go.jp/32/index.php?action_kouhyou_detail_004_kani=true&JigyosyoCd=3270100062-00&ServiceCd=430&Type=search", "url2": "http://www.mizuumi.jp" }, "geometry": { "type": "Point", "coordinates": [ 133.046360410950228, 35.491572606756819 ] } },
{ "type": "Feature", "properties": { "内容": "てのひら居宅介護支援事業所【居宅介護支援】島根県松江市矢田町88-1", "url": "https://www.kaigokensaku.mhlw.go.jp/32/index.php?action_kouhyou_detail_004_kani=true&JigyosyoCd=3270104528-00&ServiceCd=430&Type=search", "url2": null }, "geometry": { "type": "Point", "coordinates": [ 133.1020863, 35.4483486 ] } },
{ "type": "Feature", "properties": { "内容": "居宅介護支援事業所たまゆの杜【居宅介護支援】松江市玉湯町湯町１９２４－１", "url": "https://www.kaigokensaku.mhlw.go.jp/32/index.php?action_kouhyou_detail_004_kani=true&JigyosyoCd=3270102050-00&ServiceCd=430&Type=search", "url2": "htpps://www.tamayunomori.com" }, "geometry": { "type": "Point", "coordinates": [ 133.006569799999966, 35.4267631 ] } },
{ "type": "Feature", "properties": { "内容": "もちだの郷居宅介護支援事業所【居宅介護支援】松江市東持田町520番地1", "url": "https://www.kaigokensaku.mhlw.go.jp/32/index.php?action_kouhyou_detail_004_kani=true&JigyosyoCd=3270100658-00&ServiceCd=430&Type=search", "url2": "http://www.kyousei.gr.jp" }, "geometry": { "type": "Point", "coordinates": [ 133.08570839999993, 35.5080949 ] } },
{ "type": "Feature", "properties": { "内容": "えびすの郷居宅介護支援事業所【居宅介護支援】松江市美保関町美保関869番地10", "url": "https://www.kaigokensaku.mhlw.go.jp/32/index.php?action_kouhyou_detail_004_kani=true&JigyosyoCd=3270101078-00&ServiceCd=430&Type=search", "url2": "http://www.kyousei.jr.jp/" }, "geometry": { "type": "Point", "coordinates": [ 133.2934179, 35.5588632 ] } },
{ "type": "Feature", "properties": { "内容": "在宅療養支援センターあんしん【居宅介護支援】島根県松江市佐草町2-2", "url": "https://www.kaigokensaku.mhlw.go.jp/32/index.php?action_kouhyou_detail_004_kani=true&JigyosyoCd=3270104494-00&ServiceCd=430&Type=search", "url2": "www.sf-keijinkai.or.jp" }, "geometry": { "type": "Point", "coordinates": [ 133.0766181, 35.4320988 ] } },
{ "type": "Feature", "properties": { "内容": "社会福祉法人山陰家庭学院　なぎさ居宅介護支援事業所【居宅介護支援】島根県松江市島根町野波2318番地3", "url": "https://www.kaigokensaku.mhlw.go.jp/32/index.php?action_kouhyou_detail_004_kani=true&JigyosyoCd=3271100012-00&ServiceCd=430&Type=search", "url2": "https://www.sanin-kateigakuin.jp" }, "geometry": { "type": "Point", "coordinates": [ 133.101527326269547, 35.586527931256015 ] } },
{ "type": "Feature", "properties": { "内容": "社会福祉法人　松江市社会福祉協議会　宍道介護センター【居宅介護支援】松江市宍道町上来待213-1", "url": "https://www.kaigokensaku.mhlw.go.jp/32/index.php?action_kouhyou_detail_004_kani=true&JigyosyoCd=3271100400-00&ServiceCd=430&Type=search", "url2": null }, "geometry": { "type": "Point", "coordinates": [ 132.9607876, 35.4029323 ] } },
{ "type": "Feature", "properties": { "内容": "社会福祉法人松江市社会福祉協議会松南介護センター【居宅介護支援】松江市八雲町西岩坂355-1松江市八雲公民館　松江市役所八雲支所　松江市アルバホール", "url": "https://www.kaigokensaku.mhlw.go.jp/32/index.php?action_kouhyou_detail_004_kani=true&JigyosyoCd=3271100111-00&ServiceCd=430&Type=search", "url2": null }, "geometry": { "type": "Point", "coordinates": [ 133.090257412303117, 35.406205214131624 ] } },
{ "type": "Feature", "properties": { "内容": "社会福祉法人　松江市社会福祉協議会　美保関介護センター【居宅介護支援】松江市美保関町片江2268番8", "url": "https://www.kaigokensaku.mhlw.go.jp/32/index.php?action_kouhyou_detail_004_kani=true&JigyosyoCd=3271100129-00&ServiceCd=430&Type=search", "url2": null }, "geometry": { "type": "Point", "coordinates": [ 133.184426799999983, 35.5592852 ] } },
{ "type": "Feature", "properties": { "内容": "津田居宅介護支援センター【居宅介護支援】松江市西津田十丁目19-50", "url": "https://www.kaigokensaku.mhlw.go.jp/32/index.php?action_kouhyou_detail_004_kani=true&JigyosyoCd=3270100153-00&ServiceCd=430&Type=search", "url2": "http://www.tsudanosato.jp" }, "geometry": { "type": "Point", "coordinates": [ 133.079714700000068, 35.4528508 ] } },
{ "type": "Feature", "properties": { "内容": "東寿苑居宅介護支援センター【居宅介護支援】松江市東出雲町出雲郷４９３", "url": "https://www.kaigokensaku.mhlw.go.jp/32/index.php?action_kouhyou_detail_004_kani=true&JigyosyoCd=3271100061-00&ServiceCd=430&Type=search", "url2": "http://www.so-unkai.jp/" }, "geometry": { "type": "Point", "coordinates": [ 133.127614, 35.4322969 ] } },
{ "type": "Feature", "properties": { "内容": "社会福祉法人島根ライトハウス　ゆめハウス居宅介護支援事業所【居宅介護支援】松江市宍道町西来待2071-1", "url": "https://www.kaigokensaku.mhlw.go.jp/32/index.php?action_kouhyou_detail_004_kani=true&JigyosyoCd=3271100053-00&ServiceCd=430&Type=search", "url2": "http://s-lighthouse.jp" }, "geometry": { "type": "Point", "coordinates": [ 132.93597079999995, 35.4132222 ] } },
{ "type": "Feature", "properties": { "内容": "学園在宅支援センター【居宅介護支援】松江市学園２丁目７－１６", "url": "https://www.kaigokensaku.mhlw.go.jp/32/index.php?action_kouhyou_detail_004_kani=true&JigyosyoCd=3270101573-00&ServiceCd=430&Type=search", "url2": null }, "geometry": { "type": "Point", "coordinates": [ 133.065342399999963, 35.4829444 ] } },
{ "type": "Feature", "properties": { "内容": "居宅介護支援事業所虹【居宅介護支援】松江市佐草町456-1", "url": "https://www.kaigokensaku.mhlw.go.jp/32/index.php?action_kouhyou_detail_004_kani=true&JigyosyoCd=3210112730-00&ServiceCd=430&Type=search", "url2": "ｈｔｔｐ：ｗｗｗ．ｍａｔｓｕｅ－ｒｉｈａ．ｊｐ/" }, "geometry": { "type": "Point", "coordinates": [ 133.072057800000039, 35.4316252 ] } },
{ "type": "Feature", "properties": { "内容": "生協のぞみ在宅支援センター【居宅介護支援】松江市西津田8-8-8", "url": "https://www.kaigokensaku.mhlw.go.jp/32/index.php?action_kouhyou_detail_004_kani=true&JigyosyoCd=3260190040-00&ServiceCd=430&Type=search", "url2": "http://www.matsue-seikyo.jp/" }, "geometry": { "type": "Point", "coordinates": [ 133.067504399999962, 35.4551365 ] } },
{ "type": "Feature", "properties": { "内容": "生協東出雲居宅【居宅介護支援】東出雲町揖屋1137-1", "url": "https://www.kaigokensaku.mhlw.go.jp/32/index.php?action_kouhyou_detail_004_kani=true&JigyosyoCd=3211111111-00&ServiceCd=430&Type=search", "url2": "http://ｗｗｗ.higashi-izumo-shin.com/" }, "geometry": { "type": "Point", "coordinates": [ 133.152791699999966, 35.4280876 ] } },
{ "type": "Feature", "properties": { "内容": "全労済在宅介護サービスセンターほほえみ【居宅介護支援】松江市東出雲町錦新町８丁目１番１号", "url": "https://www.kaigokensaku.mhlw.go.jp/32/index.php?action_kouhyou_detail_004_kani=true&JigyosyoCd=3270102852-00&ServiceCd=430&Type=search", "url2": "http://www.zenrosai-wic.co,jp/" }, "geometry": { "type": "Point", "coordinates": [ 133.142806699999937, 35.4320478 ] } },
{ "type": "Feature", "properties": { "内容": "北陽マイズケアプラン【居宅介護支援】島根県松江市袖師町ー３５", "url": "https://www.kaigokensaku.mhlw.go.jp/32/index.php?action_kouhyou_detail_004_kani=true&JigyosyoCd=3270102159-00&ServiceCd=430&Type=search", "url2": "http://www,hokuyo-keibi,co.jp/" }, "geometry": { "type": "Point", "coordinates": [ 133.05065860000002, 35.4542501 ] } },
{ "type": "Feature", "properties": { "内容": "居宅介護支援事業所　ケアサービス松江【居宅介護支援】松江市北堀町211番地", "url": "https://www.kaigokensaku.mhlw.go.jp/32/index.php?action_kouhyou_detail_004_kani=true&JigyosyoCd=3270100674-00&ServiceCd=430&Type=search", "url2": "http://www.web-sanin.co.jp/co/cs-matue/" }, "geometry": { "type": "Point", "coordinates": [ 133.053621499999963, 35.4763698 ] } },
{ "type": "Feature", "properties": { "内容": "めぐる居宅介護支援事業所【居宅介護支援】島根県松江市西川津町2674-5", "url": "https://www.kaigokensaku.mhlw.go.jp/32/index.php?action_kouhyou_detail_004_kani=true&JigyosyoCd=3270103769-00&ServiceCd=430&Type=search", "url2": "http://www.matsue-newyork.com/" }, "geometry": { "type": "Point", "coordinates": [ 133.078132800000049, 35.4820587 ] } },
{ "type": "Feature", "properties": { "内容": "居宅介護支援事業所　かけはし【居宅介護支援】松江市上乃木2丁目27番21号", "url": "https://www.kaigokensaku.mhlw.go.jp/32/index.php?action_kouhyou_detail_004_kani=true&JigyosyoCd=3270103918-00&ServiceCd=430&Type=search", "url2": "https://www.souken-kai.or.jp/" }, "geometry": { "type": "Point", "coordinates": [ 133.06203830000004, 35.4500564 ] } },
{ "type": "Feature", "properties": { "内容": "鹿島病院やまゆり居宅介護支援事業所【居宅介護支援】島根県松江市鹿島町名分243-1", "url": "https://www.kaigokensaku.mhlw.go.jp/32/index.php?action_kouhyou_detail_004_kani=true&JigyosyoCd=3271100020-00&ServiceCd=430&Type=search", "url2": "http://www.kashima-hosp.or.jp" }, "geometry": { "type": "Point", "coordinates": [ 133.006919299999936, 35.5262624 ] } },
{ "type": "Feature", "properties": { "内容": "株式会社花みずきナースステーション居宅介護支援事業所【居宅介護支援】島根県松江市国屋町212－3", "url": "https://www.kaigokensaku.mhlw.go.jp/32/index.php?action_kouhyou_detail_004_kani=true&JigyosyoCd=3270104064-00&ServiceCd=430&Type=search", "url2": "http://hanamizuki3228.com" }, "geometry": { "type": "Point", "coordinates": [ 133.037468625794986, 35.473553576192224 ] } },
{ "type": "Feature", "properties": { "内容": "居宅介護支援事業所　二子【居宅介護支援】島根県松江市八束町二子1178番地5", "url": "https://www.kaigokensaku.mhlw.go.jp/32/index.php?action_kouhyou_detail_004_kani=true&JigyosyoCd=3270102712-00&ServiceCd=430&Type=search", "url2": "https://www.nakauminosato.com/" }, "geometry": { "type": "Point", "coordinates": [ 133.161348699999934, 35.506801899999978 ] } },
{ "type": "Feature", "properties": { "内容": "介護支援センター　彩りテラス【居宅介護支援】東朝日町２７８番地１０", "url": "https://www.kaigokensaku.mhlw.go.jp/32/index.php?action_kouhyou_detail_004_kani=true&JigyosyoCd=3270103066-00&ServiceCd=430&Type=search", "url2": null }, "geometry": { "type": "Point", "coordinates": [ 133.076278300000013, 35.4639413 ] } },
{ "type": "Feature", "properties": { "内容": "在宅支援センター一休庵【居宅介護支援】東津田町465番地3", "url": "https://www.kaigokensaku.mhlw.go.jp/32/index.php?action_kouhyou_detail_004_kani=true&JigyosyoCd=3270102191-00&ServiceCd=430&Type=search", "url2": "https://ikkyuuan-higashituda.jimdo.com" }, "geometry": { "type": "Point", "coordinates": [ 133.083319699999947, 35.458944699999989 ] } },
{ "type": "Feature", "properties": { "内容": "ゆめ福　居宅介護支援事業所【居宅介護支援】島根県松江市浜乃木2-15-32", "url": "https://www.kaigokensaku.mhlw.go.jp/32/index.php?action_kouhyou_detail_004_kani=true&JigyosyoCd=3270103645-00&ServiceCd=430&Type=search", "url2": "https://marufuku.co.jp/" }, "geometry": { "type": "Point", "coordinates": [ 133.048745300000064, 35.4456289 ] } },
{ "type": "Feature", "properties": { "内容": "ケアプランさくら【居宅介護支援】島根県松江市大庭町1808-10", "url": "https://www.kaigokensaku.mhlw.go.jp/32/index.php?action_kouhyou_detail_004_kani=true&JigyosyoCd=3270103843-00&ServiceCd=430&Type=search", "url2": null }, "geometry": { "type": "Point", "coordinates": [ 133.086104100000057, 35.4333334 ] } },
{ "type": "Feature", "properties": { "内容": "あおぞら介護センター【居宅介護支援】島根県松江市大庭町1802-1", "url": "https://www.kaigokensaku.mhlw.go.jp/32/index.php?action_kouhyou_detail_004_kani=true&JigyosyoCd=3270104270-00&ServiceCd=430&Type=search", "url2": "https://lush-care.jp/" }, "geometry": { "type": "Point", "coordinates": [ 133.084935715381505, 35.436473756870981 ] } },
{ "type": "Feature", "properties": { "内容": "カラフルケアプランセンター【居宅介護支援】島根県松江市大輪町420-40", "url": "https://www.kaigokensaku.mhlw.go.jp/32/index.php?action_kouhyou_detail_004_kani=true&JigyosyoCd=3270102415-00&ServiceCd=430&Type=search", "url2": "http://www.houshinkai-s.or.jp/" }, "geometry": { "type": "Point", "coordinates": [ 133.059719565582355, 35.479394188889735 ] } },
{ "type": "Feature", "properties": { "内容": "しあわせ居宅【居宅介護支援】島根県松江市美保関町北浦６２４－１", "url": "https://www.kaigokensaku.mhlw.go.jp/32/index.php?action_kouhyou_detail_004_kani=true&JigyosyoCd=3271100574-00&ServiceCd=430&Type=search", "url2": "http://siawase-s.net" }, "geometry": { "type": "Point", "coordinates": [ 133.159058923942524, 35.556499835818144 ] } },
{ "type": "Feature", "properties": { "内容": "きねづか居宅介護支援センター【居宅介護支援】島根県松江市上本庄町５７２番地３", "url": "https://www.kaigokensaku.mhlw.go.jp/32/index.php?action_kouhyou_detail_004_kani=true&JigyosyoCd=3270101557-00&ServiceCd=430&Type=search", "url2": "https://www.kineduka-kami-honjou.jp" }, "geometry": { "type": "Point", "coordinates": [ 133.1285378, 35.5092222 ] } },
{ "type": "Feature", "properties": { "内容": "指定居宅介護支援事業所　星上【居宅介護支援】島根県松江市八雲町東岩坂77-3", "url": "https://www.kaigokensaku.mhlw.go.jp/32/index.php?action_kouhyou_detail_004_kani=true&JigyosyoCd=3270103223-00&ServiceCd=430&Type=search", "url2": "https://www.toukou-g.com/" }, "geometry": { "type": "Point", "coordinates": [ 133.09637771930818, 35.407927802440696 ] } },
{ "type": "Feature", "properties": { "内容": "ケアマネジメント　かえで【居宅介護支援】島根県松江市黒田町38-5", "url": "https://www.kaigokensaku.mhlw.go.jp/32/index.php?action_kouhyou_detail_004_kani=true&JigyosyoCd=3270102035-00&ServiceCd=430&Type=search", "url2": null }, "geometry": { "type": "Point", "coordinates": [ 133.04010310000001, 35.4846795 ] } },
{ "type": "Feature", "properties": { "内容": "介護支援センターゆうゆう【居宅介護支援】松江市馬潟町３４９－２９", "url": "https://www.kaigokensaku.mhlw.go.jp/32/index.php?action_kouhyou_detail_004_kani=true&JigyosyoCd=3270102753-00&ServiceCd=430&Type=search", "url2": null }, "geometry": { "type": "Point", "coordinates": [ 133.114071700000068, 35.4466502 ] } },
{ "type": "Feature", "properties": { "内容": "GRACE　CARE【居宅介護支援】島根県松江市上乃木2-17-15", "url": "https://www.kaigokensaku.mhlw.go.jp/32/index.php?action_kouhyou_detail_004_kani=true&JigyosyoCd=3270104577-00&ServiceCd=430&Type=search", "url2": null }, "geometry": { "type": "Point", "coordinates": [ 133.0583091, 35.4486381 ] } },
{ "type": "Feature", "properties": { "内容": "緑ヶ丘居宅介護支援事業所【居宅介護支援】島根県浜田市金城町七条イ１０４６番地５", "url": "https://www.kaigokensaku.mhlw.go.jp/32/index.php?action_kouhyou_detail_004_kani=true&JigyosyoCd=3270700747-00&ServiceCd=430&Type=search", "url2": "http://kanagi-fukushikai.com/" }, "geometry": { "type": "Point", "coordinates": [ 132.153003300000023, 34.8725617 ] } },
{ "type": "Feature", "properties": { "内容": "居宅介護支援事業所　こもれび【居宅介護支援】島根県浜田市金城町下来原973番1", "url": "https://www.kaigokensaku.mhlw.go.jp/32/index.php?action_kouhyou_detail_004_kani=true&JigyosyoCd=3270700788-00&ServiceCd=430&Type=search", "url2": "https://www.being-hamada.jp" }, "geometry": { "type": "Point", "coordinates": [ 132.164116700000022, 34.8617155 ] } },
{ "type": "Feature", "properties": { "内容": "居宅介護支援事業所和乃家【居宅介護支援】島根県浜田市真光町１３番地", "url": "https://www.kaigokensaku.mhlw.go.jp/32/index.php?action_kouhyou_detail_004_kani=true&JigyosyoCd=3290700149-00&ServiceCd=430&Type=search", "url2": "http://hp.kaipoke.biz/z0a/" }, "geometry": { "type": "Point", "coordinates": [ 132.075297699999965, 34.8954444 ] } },
{ "type": "Feature", "properties": { "内容": "居宅介護支援事業所　彩縁【居宅介護支援】島根県浜田市国分町1773番地13", "url": "https://www.kaigokensaku.mhlw.go.jp/32/index.php?action_kouhyou_detail_004_kani=true&JigyosyoCd=3270701380-00&ServiceCd=430&Type=search", "url2": null }, "geometry": { "type": "Point", "coordinates": [ 132.1157653, 34.9362227 ] } },
{ "type": "Feature", "properties": { "内容": "合同会社MoreLiberty【居宅介護支援】島根県浜田市殿町62-5", "url": "https://www.kaigokensaku.mhlw.go.jp/32/index.php?action_kouhyou_detail_004_kani=true&JigyosyoCd=3270701281-00&ServiceCd=430&Type=search", "url2": "http://kotonoha.information.jp/index.html" }, "geometry": { "type": "Point", "coordinates": [ 132.078422199999977, 34.9025716 ] } },
{ "type": "Feature", "properties": { "内容": "ケアプランセンター　心の里　はるにれ【居宅介護支援】島根県浜田市三隅町三隅382番地1", "url": "https://www.kaigokensaku.mhlw.go.jp/32/index.php?action_kouhyou_detail_004_kani=true&JigyosyoCd=3270701109-00&ServiceCd=430&Type=search", "url2": "http://harunire-tms.jp/" }, "geometry": { "type": "Point", "coordinates": [ 131.956539753381321, 34.794724207563583 ] } },
{ "type": "Feature", "properties": { "内容": "ケアプランサービスセンターはまぼうふう【居宅介護支援】島根県浜田市久代町1-7", "url": "https://www.kaigokensaku.mhlw.go.jp/32/index.php?action_kouhyou_detail_004_kani=true&JigyosyoCd=3270700416-00&ServiceCd=430&Type=search", "url2": "http://mizusumikai.or.jp/" }, "geometry": { "type": "Point", "coordinates": [ 132.134674300000029, 34.9546034 ] } },
{ "type": "Feature", "properties": { "内容": "ケアプランそうえん【居宅介護支援】相生町4219-1", "url": "https://www.kaigokensaku.mhlw.go.jp/32/index.php?action_kouhyou_detail_004_kani=true&JigyosyoCd=3270701273-00&ServiceCd=430&Type=search", "url2": null }, "geometry": { "type": "Point", "coordinates": [ 132.097673500000042, 34.8961993 ] } },
{ "type": "Feature", "properties": { "内容": "ハート介護プランセンター【居宅介護支援】浜田市田町１４６６－１", "url": "https://www.kaigokensaku.mhlw.go.jp/32/index.php?action_kouhyou_detail_004_kani=true&JigyosyoCd=3270700929-00&ServiceCd=430&Type=search", "url2": "heart-7211@snow.ocn.ne.jp" }, "geometry": { "type": "Point", "coordinates": [ 132.0821747, 34.9001886 ] } },
{ "type": "Feature", "properties": { "内容": "ケアプランせいわ【居宅介護支援】浜田市港町294-11番地ヴィレッジせいわ3号館", "url": "https://www.kaigokensaku.mhlw.go.jp/32/index.php?action_kouhyou_detail_004_kani=true&JigyosyoCd=3270700093-00&ServiceCd=430&Type=search", "url2": null }, "geometry": { "type": "Point", "coordinates": [ 132.070211140871095, 34.90431353264426 ] } },
{ "type": "Feature", "properties": { "内容": "緑ヶ丘居宅介護支援事業所浜田【居宅介護支援】島根県浜田市浅井町１２２番地２", "url": "https://www.kaigokensaku.mhlw.go.jp/32/index.php?action_kouhyou_detail_004_kani=true&JigyosyoCd=3270700960-00&ServiceCd=430&Type=search", "url2": "http://kanagi-fukushikai.com/" }, "geometry": { "type": "Point", "coordinates": [ 132.09287919999997, 34.9048939 ] } },
{ "type": "Feature", "properties": { "内容": "居宅介護支援事業所　古和の里【居宅介護支援】島根県浜田市三隅町下古和１３６２番地7", "url": "https://www.kaigokensaku.mhlw.go.jp/32/index.php?action_kouhyou_detail_004_kani=true&JigyosyoCd=3270701265-00&ServiceCd=430&Type=search", "url2": null }, "geometry": { "type": "Point", "coordinates": [ 131.994590099999982, 34.7398226 ] } },
{ "type": "Feature", "properties": { "内容": "ケアひだまり【居宅介護支援】浜田市旭町今市616番地", "url": "https://www.kaigokensaku.mhlw.go.jp/32/index.php?action_kouhyou_detail_004_kani=true&JigyosyoCd=3271900429-00&ServiceCd=430&Type=search", "url2": null }, "geometry": { "type": "Point", "coordinates": [ 132.256721299999981, 34.862388699999983 ] } },
{ "type": "Feature", "properties": { "内容": "まつばら居宅介護支援事業所【居宅介護支援】浜田市松原町1100‐1", "url": "https://www.kaigokensaku.mhlw.go.jp/32/index.php?action_kouhyou_detail_004_kani=true&JigyosyoCd=3270700515-00&ServiceCd=430&Type=search", "url2": "http://user.iwamicatv.jp/asahien/" }, "geometry": { "type": "Point", "coordinates": [ 132.0749558, 34.9040214 ] } },
{ "type": "Feature", "properties": { "内容": "偕生園居宅介護支援事業所【居宅介護支援】浜田市黒川町196-1", "url": "https://www.kaigokensaku.mhlw.go.jp/32/index.php?action_kouhyou_detail_004_kani=true&JigyosyoCd=3270700044-00&ServiceCd=430&Type=search", "url2": "http://www.ssw.or.jp/korei_kaisei/" }, "geometry": { "type": "Point", "coordinates": [ 132.096804, 34.8979723 ] } },
{ "type": "Feature", "properties": { "内容": "居宅介護支援　周布事業所【居宅介護支援】浜田市周布町イ６１番地１", "url": "https://www.kaigokensaku.mhlw.go.jp/32/index.php?action_kouhyou_detail_004_kani=true&JigyosyoCd=3270700705-00&ServiceCd=430&Type=search", "url2": "http://mikawaen.com" }, "geometry": { "type": "Point", "coordinates": [ 132.026813918475511, 34.862817468130437 ] } },
{ "type": "Feature", "properties": { "内容": "介護プラン　ほっと【居宅介護支援】浜田市熱田町705番地1", "url": "https://www.kaigokensaku.mhlw.go.jp/32/index.php?action_kouhyou_detail_004_kani=true&JigyosyoCd=3270700606-00&ServiceCd=430&Type=search", "url2": "https://hotcare.jp/" }, "geometry": { "type": "Point", "coordinates": [ 132.058319500450125, 34.871278418339919 ] } },
{ "type": "Feature", "properties": { "内容": "夕陽ヶ丘居宅介護支援事業所【居宅介護支援】浜田市国分町９５５番地１", "url": "https://www.kaigokensaku.mhlw.go.jp/32/index.php?action_kouhyou_detail_004_kani=true&JigyosyoCd=3270700333-00&ServiceCd=430&Type=search", "url2": "https://www.yuuhigaoka.org/" }, "geometry": { "type": "Point", "coordinates": [ 132.116536900000028, 34.9449319 ] } },
{ "type": "Feature", "properties": { "内容": "ケアプラン　やまもも【居宅介護支援】島根県浜田市久代町309デイサービス　やまももの家", "url": "https://www.kaigokensaku.mhlw.go.jp/32/index.php?action_kouhyou_detail_004_kani=true&JigyosyoCd=3270701158-00&ServiceCd=430&Type=search", "url2": "https://e-iwami.com/yamamomo/" }, "geometry": { "type": "Point", "coordinates": [ 132.129494499999964, 34.9381826 ] } },
{ "type": "Feature", "properties": { "内容": "ケアプランたんぽぽ【居宅介護支援】浜田市長浜町863番地1", "url": "https://www.kaigokensaku.mhlw.go.jp/32/index.php?action_kouhyou_detail_004_kani=true&JigyosyoCd=3270700358-00&ServiceCd=430&Type=search", "url2": "http://www.tanpoponosato.com" }, "geometry": { "type": "Point", "coordinates": [ 132.0376708, 34.8681963 ] } },
{ "type": "Feature", "properties": { "内容": "介護プランサービス　みたけや【居宅介護支援】浜田市三隅町井野ニ282番地", "url": "https://www.kaigokensaku.mhlw.go.jp/32/index.php?action_kouhyou_detail_004_kani=true&JigyosyoCd=3270700945-00&ServiceCd=430&Type=search", "url2": "https://www.mitakeya.net/" }, "geometry": { "type": "Point", "coordinates": [ 132.045402299999978, 34.789418 ] } },
{ "type": "Feature", "properties": { "内容": "ほほえみライフ　居宅介護支援事業所【居宅介護支援】島根県浜田市下府町327-119", "url": "https://www.kaigokensaku.mhlw.go.jp/32/index.php?action_kouhyou_detail_004_kani=true&JigyosyoCd=3270700978-00&ServiceCd=430&Type=search", "url2": "https://hohoemilife-shimane.com/company/" }, "geometry": { "type": "Point", "coordinates": [ 132.112999299999956, 34.915359600000023 ] } },
{ "type": "Feature", "properties": { "内容": "居宅介護支援事業所　旭・やすらぎの郷【居宅介護支援】島根県浜田市旭町本郷362-10", "url": "https://www.kaigokensaku.mhlw.go.jp/32/index.php?action_kouhyou_detail_004_kani=true&JigyosyoCd=3251980037-00&ServiceCd=430&Type=search", "url2": "tomomi-kai-yasuragi.com" }, "geometry": { "type": "Point", "coordinates": [ 132.303315199999986, 34.864239 ] } },
{ "type": "Feature", "properties": { "内容": "有限会社　ケアオフィス　長浜居宅介護支援事業所【居宅介護支援】島根県浜田市長浜町205番地6", "url": "https://www.kaigokensaku.mhlw.go.jp/32/index.php?action_kouhyou_detail_004_kani=true&JigyosyoCd=3270700564-00&ServiceCd=430&Type=search", "url2": null }, "geometry": { "type": "Point", "coordinates": [ 132.045654847221414, 34.870272004919606 ] } },
{ "type": "Feature", "properties": { "内容": "みんなの家居宅介護支援事業所【居宅介護支援】島根県浜田市錦町21-2", "url": "https://www.kaigokensaku.mhlw.go.jp/32/index.php?action_kouhyou_detail_004_kani=true&JigyosyoCd=3270701331-00&ServiceCd=430&Type=search", "url2": "http://iwaumi.jp/" }, "geometry": { "type": "Point", "coordinates": [ 132.076581673677936, 34.89781734570483 ] } },
{ "type": "Feature", "properties": { "内容": "居宅介護支援事業所　はなみずき【居宅介護支援】島根県浜田市港町276番地5", "url": "https://www.kaigokensaku.mhlw.go.jp/32/index.php?action_kouhyou_detail_004_kani=true&JigyosyoCd=3270701398-00&ServiceCd=430&Type=search", "url2": null }, "geometry": { "type": "Point", "coordinates": [ 132.069572961971289, 34.902769890620803 ] } },
{ "type": "Feature", "properties": { "内容": "ケアプラン　たいせつ【居宅介護支援】島根県浜田市弥栄町木都賀イ811－11", "url": "https://www.kaigokensaku.mhlw.go.jp/32/index.php?action_kouhyou_detail_004_kani=true&JigyosyoCd=3270701042-00&ServiceCd=430&Type=search", "url2": null }, "geometry": { "type": "Point", "coordinates": [ 132.070310512828087, 34.771936795207594 ] } },
{ "type": "Feature", "properties": { "内容": "ケアプランやわらぎ【居宅介護支援】島根県出雲市知井宮町1192-9", "url": "https://www.kaigokensaku.mhlw.go.jp/32/index.php?action_kouhyou_detail_004_kani=true&JigyosyoCd=3270402278-00&ServiceCd=430&Type=search", "url2": null }, "geometry": { "type": "Point", "coordinates": [ 132.716866500000037, 35.3363571 ] } },
{ "type": "Feature", "properties": { "内容": "しあわせぞうさん【居宅介護支援】島根県出雲市大社町遙堪663-25", "url": "https://www.kaigokensaku.mhlw.go.jp/32/index.php?action_kouhyou_detail_004_kani=true&JigyosyoCd=3270403482-00&ServiceCd=430&Type=search", "url2": null }, "geometry": { "type": "Point", "coordinates": [ 132.7232564, 35.3884562 ] } },
{ "type": "Feature", "properties": { "内容": "出雲ケアセンターそよ風【居宅介護支援】島根県出雲市今市町876-9", "url": "https://www.kaigokensaku.mhlw.go.jp/32/index.php?action_kouhyou_detail_004_kani=true&JigyosyoCd=3270401254-00&ServiceCd=430&Type=search", "url2": null }, "geometry": { "type": "Point", "coordinates": [ 132.754537199999959, 35.3620773 ] } },
{ "type": "Feature", "properties": { "内容": "ひかわ生協指定居宅介護支援事業所【居宅介護支援】島根県出雲市斐川町美南1507番地1", "url": "https://www.kaigokensaku.mhlw.go.jp/32/index.php?action_kouhyou_detail_004_kani=true&JigyosyoCd=3211610054-00&ServiceCd=430&Type=search", "url2": "http://www.hikawa-hp.com" }, "geometry": { "type": "Point", "coordinates": [ 132.823109394442781, 35.393330859765761 ] } },
{ "type": "Feature", "properties": { "内容": "合同会社　社会福祉支援ちいろば【居宅介護支援】出雲市大社町北荒木1369", "url": "https://www.kaigokensaku.mhlw.go.jp/32/index.php?action_kouhyou_detail_004_kani=true&JigyosyoCd=3270403110-00&ServiceCd=430&Type=search", "url2": null }, "geometry": { "type": "Point", "coordinates": [ 132.700069399999961, 35.3843545 ] } },
{ "type": "Feature", "properties": { "内容": "ケアプランあじさい【居宅介護支援】島根県出雲市里方町８１２番地５", "url": "https://www.kaigokensaku.mhlw.go.jp/32/index.php?action_kouhyou_detail_004_kani=true&JigyosyoCd=3270402997-00&ServiceCd=430&Type=search", "url2": null }, "geometry": { "type": "Point", "coordinates": [ 132.746692, 35.3899822 ] } },
{ "type": "Feature", "properties": { "内容": "居宅介護支援事業所リンクス【居宅介護支援】島根県出雲市小山町260-3ステージック2階", "url": "https://www.kaigokensaku.mhlw.go.jp/32/index.php?action_kouhyou_detail_004_kani=true&JigyosyoCd=3270403052-00&ServiceCd=430&Type=search", "url2": null }, "geometry": { "type": "Point", "coordinates": [ 132.7438042, 35.3715318 ] } },
{ "type": "Feature", "properties": { "内容": "ほっとみるくいずも【居宅介護支援】島根県出雲斐川町荘原485-125", "url": "https://www.kaigokensaku.mhlw.go.jp/32/index.php?action_kouhyou_detail_004_kani=true&JigyosyoCd=3270403144-00&ServiceCd=430&Type=search", "url2": null }, "geometry": { "type": "Point", "coordinates": [ 132.871820627953639, 35.403534730118992 ] } },
{ "type": "Feature", "properties": { "内容": "居宅介護支援事業所たんぽぽ【居宅介護支援】島根県出雲市荒茅町２７８０－２８住宅型有料老人ホーム出雲すずかけの樹東棟", "url": "https://www.kaigokensaku.mhlw.go.jp/32/index.php?action_kouhyou_detail_004_kani=true&JigyosyoCd=3270402914-00&ServiceCd=430&Type=search", "url2": null }, "geometry": { "type": "Point", "coordinates": [ 132.699942299999947, 35.3611207 ] } },
{ "type": "Feature", "properties": { "内容": "居宅介護支援事業所　　成相【居宅介護支援】島根県出雲市上塩冶町234", "url": "https://www.kaigokensaku.mhlw.go.jp/32/index.php?action_kouhyou_detail_004_kani=true&JigyosyoCd=3270402856-00&ServiceCd=430&Type=search", "url2": null }, "geometry": { "type": "Point", "coordinates": [ 132.759589799999958, 35.3510594 ] } },
{ "type": "Feature", "properties": { "内容": "サンキ・ウエルビィ介護センター出雲【居宅介護支援】島根県出雲市浜町96-1", "url": "https://www.kaigokensaku.mhlw.go.jp/32/index.php?action_kouhyou_detail_004_kani=true&JigyosyoCd=3270400454-00&ServiceCd=430&Type=search", "url2": null }, "geometry": { "type": "Point", "coordinates": [ 132.726840855728199, 35.376757203996242 ] } },
{ "type": "Feature", "properties": { "内容": "デイサービス金太郎の家【居宅介護支援】島根県出雲市斐川町学頭1463-10", "url": "https://www.kaigokensaku.mhlw.go.jp/32/index.php?action_kouhyou_detail_004_kani=true&JigyosyoCd=3270402476-00&ServiceCd=430&Type=search", "url2": "http://www.kintarounoie.jp" }, "geometry": { "type": "Point", "coordinates": [ 132.870930499999986, 35.3890425 ] } },
{ "type": "Feature", "properties": { "内容": "ライラック居宅介護支援事業所【居宅介護支援】島根県出雲市中野町757-3", "url": "https://www.kaigokensaku.mhlw.go.jp/32/index.php?action_kouhyou_detail_004_kani=true&JigyosyoCd=3270402195-00&ServiceCd=430&Type=search", "url2": null }, "geometry": { "type": "Point", "coordinates": [ 132.769705919049102, 35.375249860421043 ] } },
{ "type": "Feature", "properties": { "内容": "みどりの郷湖陵【居宅介護支援】出雲市湖陵町三部1231-1", "url": "https://www.kaigokensaku.mhlw.go.jp/32/index.php?action_kouhyou_detail_004_kani=true&JigyosyoCd=3271600045-00&ServiceCd=430&Type=search", "url2": "https://jaizumo-fukushikai.jp/" }, "geometry": { "type": "Point", "coordinates": [ 132.674052599999982, 35.3166586 ] } },
{ "type": "Feature", "properties": { "内容": "みどりの郷出雲【居宅介護支援】出雲市所原町2715-1", "url": "https://www.kaigokensaku.mhlw.go.jp/32/index.php?action_kouhyou_detail_004_kani=true&JigyosyoCd=3270400157-00&ServiceCd=430&Type=search", "url2": null }, "geometry": { "type": "Point", "coordinates": [ 132.761801500000047, 35.2988943 ] } },
{ "type": "Feature", "properties": { "内容": "みどりの郷大社【居宅介護支援】出雲市大社町北荒木483", "url": "https://www.kaigokensaku.mhlw.go.jp/32/index.php?action_kouhyou_detail_004_kani=true&JigyosyoCd=3270401031-00&ServiceCd=430&Type=search", "url2": "http//jaizumo-fukushikai.jp" }, "geometry": { "type": "Point", "coordinates": [ 132.689478399999985, 35.386984499999983 ] } },
{ "type": "Feature", "properties": { "内容": "みどりの郷平田居宅介護支援事業所【居宅介護支援】島根県出雲市平田町２３０８番地９", "url": "https://www.kaigokensaku.mhlw.go.jp/32/index.php?action_kouhyou_detail_004_kani=true&JigyosyoCd=3270300241-00&ServiceCd=430&Type=search", "url2": "http://www.jaizumo.or.jp/welfare" }, "geometry": { "type": "Point", "coordinates": [ 132.824837900000034, 35.434715 ] } },
{ "type": "Feature", "properties": { "内容": "いなさ園居宅介護支援事業所【居宅介護支援】出雲市大社町杵築西１６４３番地２", "url": "https://www.kaigokensaku.mhlw.go.jp/32/index.php?action_kouhyou_detail_004_kani=true&JigyosyoCd=3271600078-00&ServiceCd=430&Type=search", "url2": "http//www.kidukikai.or.jp" }, "geometry": { "type": "Point", "coordinates": [ 132.678423800000019, 35.3856095 ] } },
{ "type": "Feature", "properties": { "内容": "花水木【居宅介護支援】出雲市灘分町786番地1", "url": "https://www.kaigokensaku.mhlw.go.jp/32/index.php?action_kouhyou_detail_004_kani=true&JigyosyoCd=3270401932-00&ServiceCd=430&Type=search", "url2": "https://hirahuku.com" }, "geometry": { "type": "Point", "coordinates": [ 132.825246057702657, 35.430845276012846 ] } },
{ "type": "Feature", "properties": { "内容": "ほのぼの在宅介護相談センター【居宅介護支援】島根県出雲市大社町中荒木1745-2", "url": "https://www.kaigokensaku.mhlw.go.jp/32/index.php?action_kouhyou_detail_004_kani=true&JigyosyoCd=3270403094-00&ServiceCd=430&Type=search", "url2": "https://www.sunlight.or.jp" }, "geometry": { "type": "Point", "coordinates": [ 132.687367600000016, 35.3792259 ] } },
{ "type": "Feature", "properties": { "内容": "やまゆり居宅介護支援事業所【居宅介護支援】島根県出雲市佐田町一窪田１９６１－５", "url": "https://www.kaigokensaku.mhlw.go.jp/32/index.php?action_kouhyou_detail_004_kani=true&JigyosyoCd=3270401304-00&ServiceCd=430&Type=search", "url2": "http://www.izumo-yamayuri.or.jp" }, "geometry": { "type": "Point", "coordinates": [ 132.6715034, 35.2338617 ] } },
{ "type": "Feature", "properties": { "内容": "ひまわり園介護支援センター【居宅介護支援】出雲市神西沖町2513‐4", "url": "https://www.kaigokensaku.mhlw.go.jp/32/index.php?action_kouhyou_detail_004_kani=true&JigyosyoCd=3270400025-00&ServiceCd=430&Type=search", "url2": "URＬ：http：//ｗ-himawari.jp" }, "geometry": { "type": "Point", "coordinates": [ 132.68078125634463, 35.336484262704914 ] } },
{ "type": "Feature", "properties": { "内容": "清流園在宅介護支援センター【居宅介護支援】島根県出雲市大津町3529番地", "url": "https://www.kaigokensaku.mhlw.go.jp/32/index.php?action_kouhyou_detail_004_kani=true&JigyosyoCd=3270400033-00&ServiceCd=430&Type=search", "url2": null }, "geometry": { "type": "Point", "coordinates": [ 132.783739400000059, 35.3592841 ] } },
{ "type": "Feature", "properties": { "内容": "たき居宅介護支援事業所【居宅介護支援】出雲市多伎町小田50－3", "url": "https://www.kaigokensaku.mhlw.go.jp/32/index.php?action_kouhyou_detail_004_kani=true&JigyosyoCd=3271600029-00&ServiceCd=430&Type=search", "url2": "http://www.takinosato.jp" }, "geometry": { "type": "Point", "coordinates": [ 132.626624, 35.2839598 ] } },
{ "type": "Feature", "properties": { "内容": "なのはな園居宅介護支援事業所【居宅介護支援】出雲市斐川町上直江1829-1", "url": "https://www.kaigokensaku.mhlw.go.jp/32/index.php?action_kouhyou_detail_004_kani=true&JigyosyoCd=3271600169-00&ServiceCd=430&Type=search", "url2": "shimane@s-lighthouse.jp" }, "geometry": { "type": "Point", "coordinates": [ 132.811314, 35.3778265 ] } },
{ "type": "Feature", "properties": { "内容": "ＮＰＯ法人たすけあい平田【居宅介護支援】出雲市西代町１０３２-４", "url": "https://www.kaigokensaku.mhlw.go.jp/32/index.php?action_kouhyou_detail_004_kani=true&JigyosyoCd=3270300118-00&ServiceCd=430&Type=search", "url2": "https://tasukeai-hirata.jp" }, "geometry": { "type": "Point", "coordinates": [ 132.817975838314879, 35.422252557125233 ] } },
{ "type": "Feature", "properties": { "内容": "有限会社　ケアサービス出雲【居宅介護支援】出雲市塩冶町980-3", "url": "https://www.kaigokensaku.mhlw.go.jp/32/index.php?action_kouhyou_detail_004_kani=true&JigyosyoCd=3270400165-00&ServiceCd=430&Type=search", "url2": "https://care-service-izumo.biz" }, "geometry": { "type": "Point", "coordinates": [ 132.755881718138085, 35.354946172403316 ] } },
{ "type": "Feature", "properties": { "内容": "もくもく苑居宅介護支援事業所【居宅介護支援】出雲市矢野町845", "url": "https://www.kaigokensaku.mhlw.go.jp/32/index.php?action_kouhyou_detail_004_kani=true&JigyosyoCd=3270400439-00&ServiceCd=430&Type=search", "url2": "http://www.otuka-wel.jp" }, "geometry": { "type": "Point", "coordinates": [ 132.73560729999997, 35.3833578 ] } },
{ "type": "Feature", "properties": { "内容": "株式会社ホームケアー島根【居宅介護支援】出雲市斐川町上直江２１３９－１３５", "url": "https://www.kaigokensaku.mhlw.go.jp/32/index.php?action_kouhyou_detail_004_kani=true&JigyosyoCd=3270400017-00&ServiceCd=430&Type=search", "url2": "http//www.homecare-shimane.jp/" }, "geometry": { "type": "Point", "coordinates": [ 132.815752673016391, 35.385722291669325 ] } },
{ "type": "Feature", "properties": { "内容": "高鳥クリニック地域リハビリテーションセンター　居宅介護支援事業所【居宅介護支援】島根県出雲市武志町７３４－１", "url": "https://www.kaigokensaku.mhlw.go.jp/32/index.php?action_kouhyou_detail_004_kani=true&JigyosyoCd=3260490044-00&ServiceCd=430&Type=search", "url2": null }, "geometry": { "type": "Point", "coordinates": [ 132.774250199999983, 35.3951739 ] } },
{ "type": "Feature", "properties": { "内容": "出雲市民病院　居宅介護支援事業所【居宅介護支援】出雲市今市町新町827-21在宅支援センター2階", "url": "https://www.kaigokensaku.mhlw.go.jp/32/index.php?action_kouhyou_detail_004_kani=true&JigyosyoCd=3210412528-00&ServiceCd=430&Type=search", "url2": "kaigo@izumo-hp.com" }, "geometry": { "type": "Point", "coordinates": [ 132.752017803179911, 35.362706429040514 ] } },
{ "type": "Feature", "properties": { "内容": "CarePlanningこころ【居宅介護支援】島根県出雲市天神町１１５番地２", "url": "https://www.kaigokensaku.mhlw.go.jp/32/index.php?action_kouhyou_detail_004_kani=true&JigyosyoCd=3270403367-00&ServiceCd=430&Type=search", "url2": null }, "geometry": { "type": "Point", "coordinates": [ 132.7343639, 35.3701175 ] } },
{ "type": "Feature", "properties": { "内容": "寿生在宅介護相談センター【居宅介護支援】出雲市上塩冶町2862-1", "url": "https://www.kaigokensaku.mhlw.go.jp/32/index.php?action_kouhyou_detail_004_kani=true&JigyosyoCd=3270400207-00&ServiceCd=430&Type=search", "url2": "http://www.juseikai.jp/" }, "geometry": { "type": "Point", "coordinates": [ 132.778141112303189, 35.354283909377251 ] } },
{ "type": "Feature", "properties": { "内容": "ひまり　居宅介護支援事業所【居宅介護支援】出雲市馬木町758-2", "url": "https://www.kaigokensaku.mhlw.go.jp/32/index.php?action_kouhyou_detail_004_kani=true&JigyosyoCd=3270402039-00&ServiceCd=430&Type=search", "url2": null }, "geometry": { "type": "Point", "coordinates": [ 132.76663659999997, 35.3329924 ] } },
{ "type": "Feature", "properties": { "内容": "穂なみ介護支援事業所【居宅介護支援】島根県出雲市上塩冶町1741‐３", "url": "https://www.kaigokensaku.mhlw.go.jp/32/index.php?action_kouhyou_detail_004_kani=true&JigyosyoCd=3270402468-00&ServiceCd=430&Type=search", "url2": "http://www.cs-izumo.jp" }, "geometry": { "type": "Point", "coordinates": [ 132.761445404822126, 35.352063791678056 ] } },
{ "type": "Feature", "properties": { "内容": "ファーマシィ出雲　居宅介護支援事業所【居宅介護支援】島根県出雲市姫原4丁目10-2", "url": "https://www.kaigokensaku.mhlw.go.jp/32/index.php?action_kouhyou_detail_004_kani=true&JigyosyoCd=3270402344-00&ServiceCd=430&Type=search", "url2": null }, "geometry": { "type": "Point", "coordinates": [ 132.757947996850589, 35.376695850082854 ] } },
{ "type": "Feature", "properties": { "内容": "居宅介護支援事業所　彩雲【居宅介護支援】島根県出雲市武志町755-1夢ハイツ107", "url": "https://www.kaigokensaku.mhlw.go.jp/32/index.php?action_kouhyou_detail_004_kani=true&JigyosyoCd=3270403375-00&ServiceCd=430&Type=search", "url2": "https://lush-care.jp" }, "geometry": { "type": "Point", "coordinates": [ 132.775223148839245, 35.394624238697247 ] } },
{ "type": "Feature", "properties": { "内容": "まんだ居宅介護支援事業所【居宅介護支援】出雲市万田町538", "url": "https://www.kaigokensaku.mhlw.go.jp/32/index.php?action_kouhyou_detail_004_kani=true&JigyosyoCd=3270300233-00&ServiceCd=430&Type=search", "url2": "http://mandanosato.jp/" }, "geometry": { "type": "Point", "coordinates": [ 132.7849615503319, 35.443623104990095 ] } },
{ "type": "Feature", "properties": { "内容": "ケアプラン　サン・スマイル【居宅介護支援】島根県出雲市神西沖町215-1", "url": "https://www.kaigokensaku.mhlw.go.jp/32/index.php?action_kouhyou_detail_004_kani=true&JigyosyoCd=3271600011-00&ServiceCd=430&Type=search", "url2": "https://keijukai.jp/" }, "geometry": { "type": "Point", "coordinates": [ 132.703454374775305, 35.332519173608112 ] } },
{ "type": "Feature", "properties": { "内容": "るんびにぃ苑居宅介護支援事業所【居宅介護支援】出雲市園町２６０６－１", "url": "https://www.kaigokensaku.mhlw.go.jp/32/index.php?action_kouhyou_detail_004_kani=true&JigyosyoCd=3270300225-00&ServiceCd=430&Type=search", "url2": "http://lumbini-en.jp/" }, "geometry": { "type": "Point", "coordinates": [ 132.856992499999933, 35.4597906 ] } },
{ "type": "Feature", "properties": { "内容": "ケアプラン向日葵の家【居宅介護支援】出雲市斐川町荘原3169番地28", "url": "https://www.kaigokensaku.mhlw.go.jp/32/index.php?action_kouhyou_detail_004_kani=true&JigyosyoCd=3271600565-00&ServiceCd=430&Type=search", "url2": "http://tsukasa1.webcrow.jp/" }, "geometry": { "type": "Point", "coordinates": [ 132.865638900000022, 35.4015101 ] } },
{ "type": "Feature", "properties": { "内容": "居宅介護支援事業所　ライフコネクト【居宅介護支援】島根県　出雲市　西園町273-1ライフサポートモール蒔庵内", "url": "https://www.kaigokensaku.mhlw.go.jp/32/index.php?action_kouhyou_detail_004_kani=true&JigyosyoCd=3270403102-00&ServiceCd=430&Type=search", "url2": "http://www.spn‐web.jp" }, "geometry": { "type": "Point", "coordinates": [ 132.697589120352347, 35.34969177210391 ] } },
{ "type": "Feature", "properties": { "内容": "いこいの郷　居宅介護支援事業所【居宅介護支援】島根県出雲市西林木町３３番地１いこいの郷", "url": "https://www.kaigokensaku.mhlw.go.jp/32/index.php?action_kouhyou_detail_004_kani=true&JigyosyoCd=3270403078-00&ServiceCd=430&Type=search", "url2": "http:／／ｗｗｗ．ｉｚｕｍｏ．ｎｅｔ．ｎｅ．ｊｐ／～ｉｋｏｉ／" }, "geometry": { "type": "Point", "coordinates": [ 132.767936599999985, 35.3969746 ] } },
{ "type": "Feature", "properties": { "内容": "石野居宅介護支援事業所【居宅介護支援】島根県出雲市稗原町２５２１番地５ケア・プラン石野合同会社", "url": "https://www.kaigokensaku.mhlw.go.jp/32/index.php?action_kouhyou_detail_004_kani=true&JigyosyoCd=3270401734-00&ServiceCd=430&Type=search", "url2": null }, "geometry": { "type": "Point", "coordinates": [ 132.795622800000046, 35.3142426 ] } },
{ "type": "Feature", "properties": { "内容": "指定居宅介護支援事業所エスポアール【居宅介護支援】出雲市小山町３６2－1", "url": "https://www.kaigokensaku.mhlw.go.jp/32/index.php?action_kouhyou_detail_004_kani=true&JigyosyoCd=3270401064-00&ServiceCd=430&Type=search", "url2": "http://www.espoir-izumo.or.jp" }, "geometry": { "type": "Point", "coordinates": [ 132.740613, 35.3734617 ] } },
{ "type": "Feature", "properties": { "内容": "介護の森山【居宅介護支援】荒茅町412番地", "url": "https://www.kaigokensaku.mhlw.go.jp/32/index.php?action_kouhyou_detail_004_kani=true&JigyosyoCd=3270401684-00&ServiceCd=430&Type=search", "url2": null }, "geometry": { "type": "Point", "coordinates": [ 132.739594600000032, 35.3456983 ] } },
{ "type": "Feature", "properties": { "内容": "うさぎケアプラン出雲【居宅介護支援】小山町３８５－５", "url": "https://www.kaigokensaku.mhlw.go.jp/32/index.php?action_kouhyou_detail_004_kani=true&JigyosyoCd=3270402245-00&ServiceCd=430&Type=search", "url2": null }, "geometry": { "type": "Point", "coordinates": [ 132.739563856036085, 35.373838098527884 ] } },
{ "type": "Feature", "properties": { "内容": "うさぎケアプラン大社【居宅介護支援】大社町北荒木211-4", "url": "https://www.kaigokensaku.mhlw.go.jp/32/index.php?action_kouhyou_detail_004_kani=true&JigyosyoCd=3270403235-00&ServiceCd=430&Type=search", "url2": null }, "geometry": { "type": "Point", "coordinates": [ 132.6861254, 35.3860103 ] } },
{ "type": "Feature", "properties": { "内容": "ケアサービスひらた【居宅介護支援】平田町698番地", "url": "https://www.kaigokensaku.mhlw.go.jp/32/index.php?action_kouhyou_detail_004_kani=true&JigyosyoCd=3270401536-00&ServiceCd=430&Type=search", "url2": "http://kyotaku.kaigodaiko.com/" }, "geometry": { "type": "Point", "coordinates": [ 132.819309250926153, 35.436397968414326 ] } },
{ "type": "Feature", "properties": { "内容": "いきいきプラン居宅介護支援事業所【居宅介護支援】島根県出雲市灘分町２２５－１７", "url": "https://www.kaigokensaku.mhlw.go.jp/32/index.php?action_kouhyou_detail_004_kani=true&JigyosyoCd=3270300258-00&ServiceCd=430&Type=search", "url2": null }, "geometry": { "type": "Point", "coordinates": [ 132.829907300000059, 35.427579600000016 ] } },
{ "type": "Feature", "properties": { "内容": "ケアプランセンター里庵【居宅介護支援】島根県出雲市美野町504", "url": "https://www.kaigokensaku.mhlw.go.jp/32/index.php?action_kouhyou_detail_004_kani=true&JigyosyoCd=3270403250-00&ServiceCd=430&Type=search", "url2": "http://inohonjin.jp/" }, "geometry": { "type": "Point", "coordinates": [ 132.9002087, 35.4627692 ] } },
{ "type": "Feature", "properties": { "内容": "指定居宅介護支援事業所えがおライフ川光（大社）【居宅介護支援】島根県出雲市平野町1116番地4", "url": "https://www.kaigokensaku.mhlw.go.jp/32/index.php?action_kouhyou_detail_004_kani=true&JigyosyoCd=3270403326-00&ServiceCd=430&Type=search", "url2": "smile-life-kawamitsu.jp" }, "geometry": { "type": "Point", "coordinates": [ 132.737269613925179, 35.391181050661608 ] } },
{ "type": "Feature", "properties": { "内容": "居宅介護支援事業所つなぐ【居宅介護支援】島根県出雲市塩冶神前2丁目6-12コーポミスティ201", "url": "https://www.kaigokensaku.mhlw.go.jp/32/index.php?action_kouhyou_detail_004_kani=true&JigyosyoCd=3270403359-00&ServiceCd=430&Type=search", "url2": null }, "geometry": { "type": "Point", "coordinates": [ 132.754568799999987, 35.3493299 ] } },
{ "type": "Feature", "properties": { "内容": "居宅介護支援事業所　絆結【居宅介護支援】島根県出雲市斐川町鳥井691", "url": "https://www.kaigokensaku.mhlw.go.jp/32/index.php?action_kouhyou_detail_004_kani=true&JigyosyoCd=3270403417-00&ServiceCd=430&Type=search", "url2": null }, "geometry": { "type": "Point", "coordinates": [ 132.792583, 35.3953865 ] } },
{ "type": "Feature", "properties": { "内容": "山根居宅介護支援事業所【居宅介護支援】出雲市芦渡町789-2", "url": "https://www.kaigokensaku.mhlw.go.jp/32/index.php?action_kouhyou_detail_004_kani=true&JigyosyoCd=3270403441-00&ServiceCd=430&Type=search", "url2": null }, "geometry": { "type": "Point", "coordinates": [ 132.727903, 35.3411306 ] } },
{ "type": "Feature", "properties": { "内容": "るあん居宅介護支援事業所【居宅介護支援】島根県出雲市白枝町543番地6－2", "url": "https://www.kaigokensaku.mhlw.go.jp/32/index.php?action_kouhyou_detail_004_kani=true&JigyosyoCd=3270403425-00&ServiceCd=430&Type=search", "url2": null }, "geometry": { "type": "Point", "coordinates": [ 132.735852599999987, 35.3639586 ] } },
{ "type": "Feature", "properties": { "内容": "居宅介護支援事業所Gift【居宅介護支援】島根県出雲市斐川町荘原2936番地1レジェンドひかわ103", "url": "https://www.kaigokensaku.mhlw.go.jp/32/index.php?action_kouhyou_detail_004_kani=true&JigyosyoCd=3270403474-00&ServiceCd=430&Type=search", "url2": "https://gift-izumo.jimdosite.com/" }, "geometry": { "type": "Point", "coordinates": [ 132.845916656257884, 35.393071489951083 ] } },
{ "type": "Feature", "properties": { "内容": "へいあん堂【居宅介護支援】島根県出雲市天神町883-1　三光ビル８号", "url": "https://www.kaigokensaku.mhlw.go.jp/32/index.php?action_kouhyou_detail_004_kani=true&JigyosyoCd=3270403490-00&ServiceCd=430&Type=search", "url2": null }, "geometry": { "type": "Point", "coordinates": [ 132.745074080515906, 35.354171320046589 ] } },
{ "type": "Feature", "properties": { "内容": "みどりの郷斐川居宅介護支援事業所【居宅介護支援】島根県出雲市斐川町直江885番地", "url": "https://www.kaigokensaku.mhlw.go.jp/32/index.php?action_kouhyou_detail_004_kani=true&JigyosyoCd=3270403524-00&ServiceCd=430&Type=search", "url2": "https://jaizumo-hukushikai.jp" }, "geometry": { "type": "Point", "coordinates": [ 132.8163669, 35.3893385 ] } },
{ "type": "Feature", "properties": { "内容": "あゆ美【居宅介護支援】島根県出雲市坂浦町1524", "url": "https://www.kaigokensaku.mhlw.go.jp/32/index.php?action_kouhyou_detail_004_kani=true&JigyosyoCd=3270403508-00&ServiceCd=430&Type=search", "url2": "ayumi2025.com" }, "geometry": { "type": "Point", "coordinates": [ 132.8520519, 35.4957509 ] } },
{ "type": "Feature", "properties": { "内容": "あかね居宅介護支援事業所【居宅介護支援】島根県出雲市天神町883-1三光ビル4号室", "url": "https://www.kaigokensaku.mhlw.go.jp/32/index.php?action_kouhyou_detail_004_kani=true&JigyosyoCd=3270403516-00&ServiceCd=430&Type=search", "url2": null }, "geometry": { "type": "Point", "coordinates": [ 132.745101264418054, 35.354242559986389 ] } },
{ "type": "Feature", "properties": { "内容": "ケアプランニング「すみよし」【居宅介護支援】島根県益田市本町3-19", "url": "https://www.kaigokensaku.mhlw.go.jp/32/index.php?action_kouhyou_detail_004_kani=true&JigyosyoCd=3270801073-00&ServiceCd=430&Type=search", "url2": null }, "geometry": { "type": "Point", "coordinates": [ 131.859257800000023, 34.6767199 ] } },
{ "type": "Feature", "properties": { "内容": "居宅介護支援事業所いわみ【居宅介護支援】島根県益田市染羽町1-27", "url": "https://www.kaigokensaku.mhlw.go.jp/32/index.php?action_kouhyou_detail_004_kani=true&JigyosyoCd=3270800950-00&ServiceCd=430&Type=search", "url2": null }, "geometry": { "type": "Point", "coordinates": [ 131.862585299999978, 34.6807502 ] } },
{ "type": "Feature", "properties": { "内容": "益田居宅介護支援事業所さくらんぼ【居宅介護支援】島根県益田市駅前町３－１９", "url": "https://www.kaigokensaku.mhlw.go.jp/32/index.php?action_kouhyou_detail_004_kani=true&JigyosyoCd=3270800992-00&ServiceCd=430&Type=search", "url2": "http://r.goope.jp/sakuranbo" }, "geometry": { "type": "Point", "coordinates": [ 131.84283419999997, 34.6754921 ] } },
{ "type": "Feature", "properties": { "内容": "デイサービスセンター共楽苑【居宅介護支援】島根県益田市桂平町１０７番地３デイサービスセンター共楽苑", "url": "https://www.kaigokensaku.mhlw.go.jp/32/index.php?action_kouhyou_detail_004_kani=true&JigyosyoCd=3270800539-00&ServiceCd=430&Type=search", "url2": "https://www.wakakusa-fukushikai.jp/kyorakuen/" }, "geometry": { "type": "Point", "coordinates": [ 131.726969464279136, 34.601181197473323 ] } },
{ "type": "Feature", "properties": { "内容": "居宅介護支援おいでんさい【居宅介護支援】島根県益田市昭和町24番24号", "url": "https://www.kaigokensaku.mhlw.go.jp/32/index.php?action_kouhyou_detail_004_kani=true&JigyosyoCd=3270801065-00&ServiceCd=430&Type=search", "url2": null }, "geometry": { "type": "Point", "coordinates": [ 131.849889100000041, 34.6802611 ] } },
{ "type": "Feature", "properties": { "内容": "益田市社会福祉協議会指定居宅介護支援事業所【居宅介護支援】益田市須子町3番1号", "url": "https://www.kaigokensaku.mhlw.go.jp/32/index.php?action_kouhyou_detail_004_kani=true&JigyosyoCd=3270800133-00&ServiceCd=430&Type=search", "url2": "http://masuda-shakyou.or.jp/" }, "geometry": { "type": "Point", "coordinates": [ 131.830779600000028, 34.6793971 ] } },
{ "type": "Feature", "properties": { "内容": "匹見指定居宅介護支援事業所【居宅介護支援】益田市匹見町匹見イ１２０８番地", "url": "https://www.kaigokensaku.mhlw.go.jp/32/index.php?action_kouhyou_detail_004_kani=true&JigyosyoCd=3270800596-00&ServiceCd=430&Type=search", "url2": "http://masuda-shakyo.or.jp/" }, "geometry": { "type": "Point", "coordinates": [ 132.013184099999989, 34.5739761 ] } },
{ "type": "Feature", "properties": { "内容": "美都町居宅介護支援事業所【居宅介護支援】益田市美都町都茂１１９５番地", "url": "https://www.kaigokensaku.mhlw.go.jp/32/index.php?action_kouhyou_detail_004_kani=true&JigyosyoCd=3272000104-00&ServiceCd=430&Type=search", "url2": "ｍａｓｕｄａ-ｓｈａｋｙｏｕ.ｏｒ.ｊｐ" }, "geometry": { "type": "Point", "coordinates": [ 131.984882800000037, 34.6673263 ] } },
{ "type": "Feature", "properties": { "内容": "万葉苑居宅介護支援事業所【居宅介護支援】益田市高津町四丁目６番４０号", "url": "https://www.kaigokensaku.mhlw.go.jp/32/index.php?action_kouhyou_detail_004_kani=true&JigyosyoCd=3270800018-00&ServiceCd=430&Type=search", "url2": "https://www.baijukai.jp/" }, "geometry": { "type": "Point", "coordinates": [ 131.793728200000032, 34.679602 ] } },
{ "type": "Feature", "properties": { "内容": "益田市医師会居宅介護支援事業所【居宅介護支援】島根県益田市遠田町３７２１番地１２益田市医師会在宅医療介護連携・研修センター", "url": "https://www.kaigokensaku.mhlw.go.jp/32/index.php?action_kouhyou_detail_004_kani=true&JigyosyoCd=3270800042-00&ServiceCd=430&Type=search", "url2": "https://www.masuda-med.or.jp/kunisakien/" }, "geometry": { "type": "Point", "coordinates": [ 131.8664516, 34.6968405 ] } },
{ "type": "Feature", "properties": { "内容": "居宅介護支援事業所たかつ【居宅介護支援】島根県益田市高津１丁目７番2号", "url": "https://www.kaigokensaku.mhlw.go.jp/32/index.php?action_kouhyou_detail_004_kani=true&JigyosyoCd=3270801032-00&ServiceCd=430&Type=search", "url2": "http://www.kaneshima.or.jp/" }, "geometry": { "type": "Point", "coordinates": [ 131.826054800000065, 34.6852964 ] } },
{ "type": "Feature", "properties": { "内容": "居宅介護支援事業所ひなたぼっこ【居宅介護支援】島根県益田市中吉田町５０８番地４　２Ｆ", "url": "https://www.kaigokensaku.mhlw.go.jp/32/index.php?action_kouhyou_detail_004_kani=true&JigyosyoCd=3270800406-00&ServiceCd=430&Type=search", "url2": "https://www.hinata-hyoma.com/" }, "geometry": { "type": "Point", "coordinates": [ 131.837150807284502, 34.68689444985548 ] } },
{ "type": "Feature", "properties": { "内容": "からおと苑居宅介護支援事業所【居宅介護支援】益田市西平原町671番地1", "url": "https://www.kaigokensaku.mhlw.go.jp/32/index.php?action_kouhyou_detail_004_kani=true&JigyosyoCd=3270800224-00&ServiceCd=430&Type=search", "url2": "http://kamatefukushikai.jp" }, "geometry": { "type": "Point", "coordinates": [ 131.877528623248281, 34.749673280684235 ] } },
{ "type": "Feature", "properties": { "内容": "居宅介護支援事業所　すまいる【居宅介護支援】島根県益田市あけぼの西町14－7", "url": "https://www.kaigokensaku.mhlw.go.jp/32/index.php?action_kouhyou_detail_004_kani=true&JigyosyoCd=3270801115-00&ServiceCd=430&Type=search", "url2": "www.harasho.co.jp" }, "geometry": { "type": "Point", "coordinates": [ 131.8386333, 34.6816808 ] } },
{ "type": "Feature", "properties": { "内容": "有限会社椋木商会【居宅介護支援】益田市幸町４番６３号", "url": "https://www.kaigokensaku.mhlw.go.jp/32/index.php?action_kouhyou_detail_004_kani=true&JigyosyoCd=3270800059-00&ServiceCd=430&Type=search", "url2": "http://mukunoki-ailand.jp" }, "geometry": { "type": "Point", "coordinates": [ 131.855488700000024, 34.6742312 ] } },
{ "type": "Feature", "properties": { "内容": "すてっぷ居宅介護支援事業所【居宅介護支援】益田市駅前町１７－１駅前ビルEAGA内", "url": "https://www.kaigokensaku.mhlw.go.jp/32/index.php?action_kouhyou_detail_004_kani=true&JigyosyoCd=3270800653-00&ServiceCd=430&Type=search", "url2": null }, "geometry": { "type": "Point", "coordinates": [ 131.837587399999961, 34.6783279 ] } },
{ "type": "Feature", "properties": { "内容": "ミツマル居宅介護支援事業所【居宅介護支援】島根県益田市水分町7-13", "url": "https://www.kaigokensaku.mhlw.go.jp/32/index.php?action_kouhyou_detail_004_kani=true&JigyosyoCd=3270801164-00&ServiceCd=430&Type=search", "url2": null }, "geometry": { "type": "Point", "coordinates": [ 131.84363304418028, 34.671744935490366 ] } },
{ "type": "Feature", "properties": { "内容": "居宅介護支援事業所つなぐ【居宅介護支援】島根県益田市横田町2019番地", "url": "https://www.kaigokensaku.mhlw.go.jp/32/index.php?action_kouhyou_detail_004_kani=true&JigyosyoCd=3270801206-00&ServiceCd=430&Type=search", "url2": null }, "geometry": { "type": "Point", "coordinates": [ 131.8107335, 34.626945 ] } },
{ "type": "Feature", "properties": { "内容": "居宅介護支援事業所てのひら【居宅介護支援】島根県益田市大草町1088-10", "url": "https://www.kaigokensaku.mhlw.go.jp/32/index.php?action_kouhyou_detail_004_kani=true&JigyosyoCd=3290800261-00&ServiceCd=430&Type=search", "url2": "http://akatsuki-hohoemi.jp" }, "geometry": { "type": "Point", "coordinates": [ 131.886095, 34.695904400000011 ] } },
{ "type": "Feature", "properties": { "内容": "しろがねの里居宅介護支援事業所【居宅介護支援】島根県大田市大田町大田ロ985‐4", "url": "https://www.kaigokensaku.mhlw.go.jp/32/index.php?action_kouhyou_detail_004_kani=true&JigyosyoCd=3270500493-00&ServiceCd=430&Type=search", "url2": "http://shirogane.in/" }, "geometry": { "type": "Point", "coordinates": [ 132.500902142327845, 35.18956578496887 ] } },
{ "type": "Feature", "properties": { "内容": "居宅介護支援事業所　きれんげ【居宅介護支援】島根県大田市鳥井町鳥井１２０４番地", "url": "https://www.kaigokensaku.mhlw.go.jp/32/index.php?action_kouhyou_detail_004_kani=true&JigyosyoCd=3270500576-00&ServiceCd=430&Type=search", "url2": "http://kirenge.jp/" }, "geometry": { "type": "Point", "coordinates": [ 132.479316360882564, 35.212693191379763 ] } },
{ "type": "Feature", "properties": { "内容": "湯の郷苑居宅介護支援事業所【居宅介護支援】大田市温泉津町上村４６１番地", "url": "https://www.kaigokensaku.mhlw.go.jp/32/index.php?action_kouhyou_detail_004_kani=true&JigyosyoCd=3271700019-00&ServiceCd=430&Type=search", "url2": null }, "geometry": { "type": "Point", "coordinates": [ 132.349620800000025, 35.0698475 ] } },
{ "type": "Feature", "properties": { "内容": "居宅介護支援事業所しおさい【居宅介護支援】大田市仁摩町天河内831番地", "url": "https://www.kaigokensaku.mhlw.go.jp/32/index.php?action_kouhyou_detail_004_kani=true&JigyosyoCd=3271700027-00&ServiceCd=430&Type=search", "url2": "http://www.shiosai.or.jp" }, "geometry": { "type": "Point", "coordinates": [ 132.407834396739929, 35.144157542537165 ] } },
{ "type": "Feature", "properties": { "内容": "ビラおおだ居宅介護支援事業所【居宅介護支援】大田市川合町川合1081-2", "url": "https://www.kaigokensaku.mhlw.go.jp/32/index.php?action_kouhyou_detail_004_kani=true&JigyosyoCd=3270500568-00&ServiceCd=430&Type=search", "url2": "https://www.ooda-sj.jp/" }, "geometry": { "type": "Point", "coordinates": [ 132.506845500000054, 35.1520364 ] } },
{ "type": "Feature", "properties": { "内容": "大田眺峰園居宅介護支援事業所【居宅介護支援】大田市川合町吉永1025-1", "url": "https://www.kaigokensaku.mhlw.go.jp/32/index.php?action_kouhyou_detail_004_kani=true&JigyosyoCd=3270500071-00&ServiceCd=430&Type=search", "url2": "https://www.ssw.or.jp/facilities/seniors/chohoen" }, "geometry": { "type": "Point", "coordinates": [ 132.512003199999981, 35.1711364 ] } },
{ "type": "Feature", "properties": { "内容": "居宅介護支援事業所　恵寿【居宅介護支援】島根県大田市大田町大田イ８６０－３", "url": "https://www.kaigokensaku.mhlw.go.jp/32/index.php?action_kouhyou_detail_004_kani=true&JigyosyoCd=3270500089-00&ServiceCd=430&Type=search", "url2": null }, "geometry": { "type": "Point", "coordinates": [ 132.506125900000029, 35.1995223 ] } },
{ "type": "Feature", "properties": { "内容": "医療法人社団　福田医院【居宅介護支援】大田市波根町字古川２０２８番地", "url": "https://www.kaigokensaku.mhlw.go.jp/32/index.php?action_kouhyou_detail_004_kani=true&JigyosyoCd=3210510735-00&ServiceCd=430&Type=search", "url2": "http://www.dr-fukuda.jp" }, "geometry": { "type": "Point", "coordinates": [ 132.530517099683351, 35.245039494479997 ] } },
{ "type": "Feature", "properties": { "内容": "居宅介護支援センターさわらび【居宅介護支援】大田市三瓶町池田2303－1", "url": "https://www.kaigokensaku.mhlw.go.jp/32/index.php?action_kouhyou_detail_004_kani=true&JigyosyoCd=3270500055-00&ServiceCd=430&Type=search", "url2": "caresawarabi@sawarabi.info" }, "geometry": { "type": "Point", "coordinates": [ 132.583032970696365, 35.145839633263762 ] } },
{ "type": "Feature", "properties": { "内容": "ケアサポートいろり【居宅介護支援】大田市久手町刺鹿2194-1", "url": "https://www.kaigokensaku.mhlw.go.jp/32/index.php?action_kouhyou_detail_004_kani=true&JigyosyoCd=3270500352-00&ServiceCd=430&Type=search", "url2": null }, "geometry": { "type": "Point", "coordinates": [ 132.507717041896626, 35.224946574182724 ] } },
{ "type": "Feature", "properties": { "内容": "居宅介護支援事業所ケアプランよしなが【居宅介護支援】島根県大田市川合町吉永1154", "url": "https://www.kaigokensaku.mhlw.go.jp/32/index.php?action_kouhyou_detail_004_kani=true&JigyosyoCd=3270500832-00&ServiceCd=430&Type=search", "url2": null }, "geometry": { "type": "Point", "coordinates": [ 132.5087531, 35.1724065 ] } },
{ "type": "Feature", "properties": { "内容": "福田金物居宅介護支援事業所【居宅介護支援】島根県大田市大田町大田ロ940番地", "url": "https://www.kaigokensaku.mhlw.go.jp/32/index.php?action_kouhyou_detail_004_kani=true&JigyosyoCd=3270500824-00&ServiceCd=430&Type=search", "url2": null }, "geometry": { "type": "Point", "coordinates": [ 132.5040813, 35.1922134 ] } },
{ "type": "Feature", "properties": { "内容": "居宅介護支援事業所　たてがみの郷【居宅介護支援】大田市波根町1290番地１", "url": "https://www.kaigokensaku.mhlw.go.jp/32/index.php?action_kouhyou_detail_004_kani=true&JigyosyoCd=3270500261-00&ServiceCd=430&Type=search", "url2": "http://www.well-nc.or.jp/" }, "geometry": { "type": "Point", "coordinates": [ 132.527589499999976, 35.2404372 ] } },
{ "type": "Feature", "properties": { "内容": "とも・らいふ【居宅介護支援】飯島町293番地25", "url": "https://www.kaigokensaku.mhlw.go.jp/32/index.php?action_kouhyou_detail_004_kani=true&JigyosyoCd=3270290053-00&ServiceCd=430&Type=search", "url2": "http://www.tomo-life.biz" }, "geometry": { "type": "Point", "coordinates": [ 133.239694854698797, 35.434301707799584 ] } },
{ "type": "Feature", "properties": { "内容": "ケアマネジメント　くるみ【居宅介護支援】島根県安来市飯島町1205番地1", "url": "https://www.kaigokensaku.mhlw.go.jp/32/index.php?action_kouhyou_detail_004_kani=true&JigyosyoCd=3270200433-00&ServiceCd=430&Type=search", "url2": "https://signpost-llc.com/" }, "geometry": { "type": "Point", "coordinates": [ 133.24776849024974, 35.432079806849181 ] } },
{ "type": "Feature", "properties": { "内容": "安来市在宅介護支援センター　ケアプランやすぎ【居宅介護支援】安来市安来町８９９－１", "url": "https://www.kaigokensaku.mhlw.go.jp/32/index.php?action_kouhyou_detail_004_kani=true&JigyosyoCd=3270200011-00&ServiceCd=430&Type=search", "url2": "http://www.syourinkai.or.ip" }, "geometry": { "type": "Point", "coordinates": [ 133.252153899999939, 35.4318422 ] } },
{ "type": "Feature", "properties": { "内容": "しらさぎ苑在宅介護支援センター【居宅介護支援】安来市古川町829-1", "url": "https://www.kaigokensaku.mhlw.go.jp/32/index.php?action_kouhyou_detail_004_kani=true&JigyosyoCd=3270200052-00&ServiceCd=430&Type=search", "url2": "http://www.sirasagi-yasugi.or.jp" }, "geometry": { "type": "Point", "coordinates": [ 133.197248700000046, 35.3759102 ] } },
{ "type": "Feature", "properties": { "内容": "いきいきの郷はくた【居宅介護支援】安来市伯太町安田1687", "url": "https://www.kaigokensaku.mhlw.go.jp/32/index.php?action_kouhyou_detail_004_kani=true&JigyosyoCd=3271200036-00&ServiceCd=430&Type=search", "url2": "http://www.yasugishakyo.com" }, "geometry": { "type": "Point", "coordinates": [ 133.274121, 35.3725647 ] } },
{ "type": "Feature", "properties": { "内容": "在宅介護支援センターひろせ【居宅介護支援】島根県安来市広瀬町広瀬1911-1", "url": "https://www.kaigokensaku.mhlw.go.jp/32/index.php?action_kouhyou_detail_004_kani=true&JigyosyoCd=3270200227-00&ServiceCd=430&Type=search", "url2": "http://amago-taiyo.jp/" }, "geometry": { "type": "Point", "coordinates": [ 133.177536300000043, 35.3688437 ] } },
{ "type": "Feature", "properties": { "内容": "安来市医師会　介護計画センター【居宅介護支援】島根県安来市伯太町安田１７００番地", "url": "https://www.kaigokensaku.mhlw.go.jp/32/index.php?action_kouhyou_detail_004_kani=true&JigyosyoCd=3271200010-00&ServiceCd=430&Type=search", "url2": null }, "geometry": { "type": "Point", "coordinates": [ 133.273779399999967, 35.3719287 ] } },
{ "type": "Feature", "properties": { "内容": "株式会社　広瀬介護サポートセンター【居宅介護支援】島根県安来市広瀬町広瀬８１４－２", "url": "https://www.kaigokensaku.mhlw.go.jp/32/index.php?action_kouhyou_detail_004_kani=true&JigyosyoCd=3270200375-00&ServiceCd=430&Type=search", "url2": null }, "geometry": { "type": "Point", "coordinates": [ 133.173647699999947, 35.3671133 ] } },
{ "type": "Feature", "properties": { "内容": "居宅介護支援事業所　SmileGarden【居宅介護支援】島根県江津市都野津町2372‐6", "url": "https://www.kaigokensaku.mhlw.go.jp/32/index.php?action_kouhyou_detail_004_kani=true&JigyosyoCd=3270600566-00&ServiceCd=430&Type=search", "url2": "smilegarden-tsunodu.com" }, "geometry": { "type": "Point", "coordinates": [ 132.184277299999962, 34.9843032 ] } },
{ "type": "Feature", "properties": { "内容": "居宅介護支援事業所　むりょうじゅ【居宅介護支援】敬川町　296番地6", "url": "https://www.kaigokensaku.mhlw.go.jp/32/index.php?action_kouhyou_detail_004_kani=true&JigyosyoCd=3270600483-00&ServiceCd=430&Type=search", "url2": "www.muryoujyu.jp" }, "geometry": { "type": "Point", "coordinates": [ 132.171024399999965, 34.9707436 ] } },
{ "type": "Feature", "properties": { "内容": "青山介護支援事業所【居宅介護支援】江津市二宮町神主1964-31", "url": "https://www.kaigokensaku.mhlw.go.jp/32/index.php?action_kouhyou_detail_004_kani=true&JigyosyoCd=3270600111-00&ServiceCd=430&Type=search", "url2": "http://www.iwamifukushikai.or.jp/" }, "geometry": { "type": "Point", "coordinates": [ 132.185430358322037, 34.976403205862383 ] } },
{ "type": "Feature", "properties": { "内容": "桜寿園ケアプランセンター【居宅介護支援】江津市桜江町小田138番地1桜寿園", "url": "https://www.kaigokensaku.mhlw.go.jp/32/index.php?action_kouhyou_detail_004_kani=true&JigyosyoCd=3271800231-00&ServiceCd=430&Type=search", "url2": "http://sakuraefukushikai.jp/" }, "geometry": { "type": "Point", "coordinates": [ 132.329735699999986, 34.9503748 ] } },
{ "type": "Feature", "properties": { "内容": "済生会居宅介護支援事業所【居宅介護支援】江津市江津町1110", "url": "https://www.kaigokensaku.mhlw.go.jp/32/index.php?action_kouhyou_detail_004_kani=true&JigyosyoCd=3270600012-00&ServiceCd=430&Type=search", "url2": "http://hakujyuen.jp" }, "geometry": { "type": "Point", "coordinates": [ 132.217727800000034, 35.0132312 ] } },
{ "type": "Feature", "properties": { "内容": "よろこぼう屋ケアマネステーション【居宅介護支援】江津市和木町1173-5", "url": "https://www.kaigokensaku.mhlw.go.jp/32/index.php?action_kouhyou_detail_004_kani=true&JigyosyoCd=3270600285-00&ServiceCd=430&Type=search", "url2": "yorokobouya@yorokobouya.jp" }, "geometry": { "type": "Point", "coordinates": [ 132.203116283605908, 35.004496073725335 ] } },
{ "type": "Feature", "properties": { "内容": "居宅介護支援事業所結【居宅介護支援】島根県江津市嘉久志町イ１６７８", "url": "https://www.kaigokensaku.mhlw.go.jp/32/index.php?action_kouhyou_detail_004_kani=true&JigyosyoCd=3270600574-00&ServiceCd=430&Type=search", "url2": null }, "geometry": { "type": "Point", "coordinates": [ 132.210956, 35.005085 ] } },
{ "type": "Feature", "properties": { "内容": "居宅介護支援事業所　合歓の郷【居宅介護支援】江津市後地町８２１番地", "url": "https://www.kaigokensaku.mhlw.go.jp/32/index.php?action_kouhyou_detail_004_kani=true&JigyosyoCd=3270600178-00&ServiceCd=430&Type=search", "url2": "https://www.hana-mura.net" }, "geometry": { "type": "Point", "coordinates": [ 132.301073299999985, 35.0376203 ] } },
{ "type": "Feature", "properties": { "内容": "ケアセンターきすき居宅介護支援事業所【居宅介護支援】雲南市木次町山方１１１１番地", "url": "https://www.kaigokensaku.mhlw.go.jp/32/index.php?action_kouhyou_detail_004_kani=true&JigyosyoCd=3271400016-00&ServiceCd=430&Type=search", "url2": null }, "geometry": { "type": "Point", "coordinates": [ 132.911923099999967, 35.3113753 ] } },
{ "type": "Feature", "properties": { "内容": "ニチイケアセンターあかがわ【居宅介護支援】雲南市大東町仁和寺1918-7", "url": "https://www.kaigokensaku.mhlw.go.jp/32/index.php?action_kouhyou_detail_004_kani=true&JigyosyoCd=3271400255-00&ServiceCd=430&Type=search", "url2": null }, "geometry": { "type": "Point", "coordinates": [ 132.937134, 35.334698 ] } },
{ "type": "Feature", "properties": { "内容": "かも福祉会　居宅介護支援事業所【居宅介護支援】島根県雲南市加茂町宇治328番地", "url": "https://www.kaigokensaku.mhlw.go.jp/32/index.php?action_kouhyou_detail_004_kani=true&JigyosyoCd=3271400321-00&ServiceCd=430&Type=search", "url2": "http://kamofukushikai.jp/publics/index/18/&anchor_link=page18#page18" }, "geometry": { "type": "Point", "coordinates": [ 132.905906499999986, 35.341807299999978 ] } },
{ "type": "Feature", "properties": { "内容": "ケアプランよしだ【居宅介護支援】雲南市吉田町深野８４－６", "url": "https://www.kaigokensaku.mhlw.go.jp/32/index.php?action_kouhyou_detail_004_kani=true&JigyosyoCd=3271500039-00&ServiceCd=430&Type=search", "url2": "https://yoshida-fukushikai.jp/" }, "geometry": { "type": "Point", "coordinates": [ 132.915962700000023, 35.2038261 ] } },
{ "type": "Feature", "properties": { "内容": "居宅介護支援事業所みとや【居宅介護支援】雲南市三刀屋町三刀屋1212-3", "url": "https://www.kaigokensaku.mhlw.go.jp/32/index.php?action_kouhyou_detail_004_kani=true&JigyosyoCd=3271500021-00&ServiceCd=430&Type=search", "url2": "http://unnanshakyo.jp/" }, "geometry": { "type": "Point", "coordinates": [ 132.885029300000042, 35.2941468 ] } },
{ "type": "Feature", "properties": { "内容": "居宅介護支援事業所おおぎ【居宅介護支援】雲南市大東町大東１０３８", "url": "https://www.kaigokensaku.mhlw.go.jp/32/index.php?action_kouhyou_detail_004_kani=true&JigyosyoCd=3271400032-00&ServiceCd=430&Type=search", "url2": null }, "geometry": { "type": "Point", "coordinates": [ 132.964192499999967, 35.3207671 ] } },
{ "type": "Feature", "properties": { "内容": "居宅介護支援事業所かけや【居宅介護支援】雲南市掛合町掛合1310", "url": "https://www.kaigokensaku.mhlw.go.jp/32/index.php?action_kouhyou_detail_004_kani=true&JigyosyoCd=3271500088-00&ServiceCd=430&Type=search", "url2": "http://unnanshakyo.jp/" }, "geometry": { "type": "Point", "coordinates": [ 132.813388900000064, 35.1961584 ] } },
{ "type": "Feature", "properties": { "内容": "ゆりさわ居宅介護支援事業所【居宅介護支援】島根県雲南市三刀屋町伊萱40番地6", "url": "https://www.kaigokensaku.mhlw.go.jp/32/index.php?action_kouhyou_detail_004_kani=true&JigyosyoCd=3271400644-00&ServiceCd=430&Type=search", "url2": "http://amigo-shimane.jp/" }, "geometry": { "type": "Point", "coordinates": [ 132.88942992209013, 35.320757374935845 ] } },
{ "type": "Feature", "properties": { "内容": "木次居宅介護支援事業所【居宅介護支援】島根県雲南市木次町東日登345番地1", "url": "https://www.kaigokensaku.mhlw.go.jp/32/index.php?action_kouhyou_detail_004_kani=true&JigyosyoCd=3271400024-00&ServiceCd=430&Type=search", "url2": "https://www.sakurasaku-home.org" }, "geometry": { "type": "Point", "coordinates": [ 132.92538890000003, 35.2792244 ] } },
{ "type": "Feature", "properties": { "内容": "ケアプランほっと【居宅介護支援】雲南市大東町新庄283番地1", "url": "https://www.kaigokensaku.mhlw.go.jp/32/index.php?action_kouhyou_detail_004_kani=true&JigyosyoCd=3271400230-00&ServiceCd=430&Type=search", "url2": "http//user.yoitoko.jp.hottoman/" }, "geometry": { "type": "Point", "coordinates": [ 132.9880647, 35.3239119 ] } },
{ "type": "Feature", "properties": { "内容": "介護相談やわらぎ【居宅介護支援】木次町里方８４－５３", "url": "https://www.kaigokensaku.mhlw.go.jp/32/index.php?action_kouhyou_detail_004_kani=true&JigyosyoCd=3271400503-00&ServiceCd=430&Type=search", "url2": "http://blog.canpan.info/ikiikiyawaragi/" }, "geometry": { "type": "Point", "coordinates": [ 132.90468809999993, 35.2970049 ] } },
{ "type": "Feature", "properties": { "内容": "仁多福祉会居宅介護支援事業所【居宅介護支援】奥出雲町三成226番地", "url": "https://www.kaigokensaku.mhlw.go.jp/32/index.php?action_kouhyou_detail_004_kani=true&JigyosyoCd=3271300026-00&ServiceCd=430&Type=search", "url2": "http://www.nitafukushikai.or.jp" }, "geometry": { "type": "Point", "coordinates": [ 133.000357, 35.1990182 ] } },
{ "type": "Feature", "properties": { "内容": "社会福祉法人よこた福祉会居宅介護支援事業所【居宅介護支援】奥出雲町稲原57番地6", "url": "https://www.kaigokensaku.mhlw.go.jp/32/index.php?action_kouhyou_detail_004_kani=true&JigyosyoCd=3271300018-00&ServiceCd=430&Type=search", "url2": "http://www.yokota.or.jp" }, "geometry": { "type": "Point", "coordinates": [ 133.097852200000034, 35.1758698 ] } },
{ "type": "Feature", "properties": { "内容": "奥出雲居宅介護支援事業所【居宅介護支援】島根県仁多郡奥出雲町三沢927－55", "url": "https://www.kaigokensaku.mhlw.go.jp/32/index.php?action_kouhyou_detail_004_kani=true&JigyosyoCd=3271300216-00&ServiceCd=430&Type=search", "url2": "https://www.furusato-bloom.com/" }, "geometry": { "type": "Point", "coordinates": [ 132.9893021488557, 35.199977100264149 ] } },
{ "type": "Feature", "properties": { "内容": "飯南町社会福祉協議会　居宅介護支援事業所【居宅介護支援】島根県飯石郡飯南町野萱1831-2", "url": "https://www.kaigokensaku.mhlw.go.jp/32/index.php?action_kouhyou_detail_004_kani=true&JigyosyoCd=3271500047-00&ServiceCd=430&Type=search", "url2": "http:www.iinansyakyo.com/" }, "geometry": { "type": "Point", "coordinates": [ 132.742360100000042, 35.0300736 ] } },
{ "type": "Feature", "properties": { "内容": "居宅介護支援事業所　あゆみの杜【居宅介護支援】飯南町頓原１０７０番地", "url": "https://www.kaigokensaku.mhlw.go.jp/32/index.php?action_kouhyou_detail_004_kani=true&JigyosyoCd=3271500393-00&ServiceCd=430&Type=search", "url2": null }, "geometry": { "type": "Point", "coordinates": [ 132.792841800000019, 35.0810092 ] } },
{ "type": "Feature", "properties": { "内容": "ケアプランステーションかわもと【居宅介護支援】島根県邑智郡川本町大字川本383-1", "url": "https://www.kaigokensaku.mhlw.go.jp/32/index.php?action_kouhyou_detail_004_kani=true&JigyosyoCd=3271800108-00&ServiceCd=430&Type=search", "url2": "http://www.k-jinju.or.jp/" }, "geometry": { "type": "Point", "coordinates": [ 132.494744575254771, 34.99095232561632 ] } },
{ "type": "Feature", "properties": { "内容": "川本福祉会居宅介護支援事業所【居宅介護支援】邑智郡川本町大字因原５７０－１", "url": "https://www.kaigokensaku.mhlw.go.jp/32/index.php?action_kouhyou_detail_004_kani=true&JigyosyoCd=3271800090-00&ServiceCd=430&Type=search", "url2": "http://www.kawamotofukushikai.jp" }, "geometry": { "type": "Point", "coordinates": [ 132.47313680000002, 34.9643923 ] } },
{ "type": "Feature", "properties": { "内容": "美郷町社会福祉協議会　居宅介護支援事業所【居宅介護支援】島根県邑智郡美郷町潮村300番地1", "url": "https://www.kaigokensaku.mhlw.go.jp/32/index.php?action_kouhyou_detail_004_kani=true&JigyosyoCd=3271800017-00&ServiceCd=430&Type=search", "url2": "http://www.misato-shakyo.jp/" }, "geometry": { "type": "Point", "coordinates": [ 132.632561033102093, 35.01378678104804 ] } },
{ "type": "Feature", "properties": { "内容": "吾郷会居宅介護支援事業所【居宅介護支援】美郷町滝原174番地2", "url": "https://www.kaigokensaku.mhlw.go.jp/32/index.php?action_kouhyou_detail_004_kani=true&JigyosyoCd=3271800033-00&ServiceCd=430&Type=search", "url2": "http://fish.miracle.ne.jp/f-wave/" }, "geometry": { "type": "Point", "coordinates": [ 132.6000752, 35.0514465 ] } },
{ "type": "Feature", "properties": { "内容": "やすらぎの里別府居宅介護支援事業所【居宅介護支援】島根県邑智郡美郷町別府８－５", "url": "https://www.kaigokensaku.mhlw.go.jp/32/index.php?action_kouhyou_detail_004_kani=true&JigyosyoCd=3271800660-00&ServiceCd=430&Type=search", "url2": "https://keiai-beppu.or.jp" }, "geometry": { "type": "Point", "coordinates": [ 132.525545800000032, 35.098284 ] } },
{ "type": "Feature", "properties": { "内容": "居宅介護支援事業所有竹【居宅介護支援】島根県邑智郡邑南町井原1423", "url": "https://www.kaigokensaku.mhlw.go.jp/32/index.php?action_kouhyou_detail_004_kani=true&JigyosyoCd=3271800702-00&ServiceCd=430&Type=search", "url2": null }, "geometry": { "type": "Point", "coordinates": [ 132.476426, 34.9203549 ] } },
{ "type": "Feature", "properties": { "内容": "介護計画センターみずほ【居宅介護支援】島根県邑智郡邑南町山田３３番地６三上医院２Ｆ", "url": "https://www.kaigokensaku.mhlw.go.jp/32/index.php?action_kouhyou_detail_004_kani=true&JigyosyoCd=3271800058-00&ServiceCd=430&Type=search", "url2": null }, "geometry": { "type": "Point", "coordinates": [ 132.539971400000013, 34.8607047 ] } },
{ "type": "Feature", "properties": { "内容": "瑞穂西居宅介護支援事業所【居宅介護支援】邑智郡邑南町上亀谷2181番地1", "url": "https://www.kaigokensaku.mhlw.go.jp/32/index.php?action_kouhyou_detail_004_kani=true&JigyosyoCd=3271800074-00&ServiceCd=430&Type=search", "url2": "http://oonanfukushikai.jp/" }, "geometry": { "type": "Point", "coordinates": [ 132.515926400000012, 34.8458531 ] } },
{ "type": "Feature", "properties": { "内容": "縁TSUNAGU居宅介護支援事業所【居宅介護支援】島根県邑智郡邑南町下田所900", "url": "https://www.kaigokensaku.mhlw.go.jp/32/index.php?action_kouhyou_detail_004_kani=true&JigyosyoCd=3271800728-00&ServiceCd=430&Type=search", "url2": null }, "geometry": { "type": "Point", "coordinates": [ 132.505743, 34.842897 ] } },
{ "type": "Feature", "properties": { "内容": "邑南社協居宅介護支援事業所【居宅介護支援】島根県邑智郡邑南町高見485-1", "url": "https://www.kaigokensaku.mhlw.go.jp/32/index.php?action_kouhyou_detail_004_kani=true&JigyosyoCd=3271800066-00&ServiceCd=430&Type=search", "url2": null }, "geometry": { "type": "Point", "coordinates": [ 132.55327039877173, 34.89465423552776 ] } },
{ "type": "Feature", "properties": { "内容": "石見さくら会居宅介護支援事業所【居宅介護支援】島根県邑智郡邑南町矢上347番地", "url": "https://www.kaigokensaku.mhlw.go.jp/32/index.php?action_kouhyou_detail_004_kani=true&JigyosyoCd=3271800553-00&ServiceCd=430&Type=search", "url2": "URLhttp://www.iwamisakurakai.or.jp" }, "geometry": { "type": "Point", "coordinates": [ 132.4449859, 34.8933525 ] } },
{ "type": "Feature", "properties": { "内容": "居宅介護支援事業所にじのわ【居宅介護支援】島根県邑智郡邑南町中野43", "url": "https://www.kaigokensaku.mhlw.go.jp/32/index.php?action_kouhyou_detail_004_kani=true&JigyosyoCd=3271800736-00&ServiceCd=430&Type=search", "url2": null }, "geometry": { "type": "Point", "coordinates": [ 132.4456511, 34.9053392 ] } },
{ "type": "Feature", "properties": { "内容": "希翔会居宅介護支援事業所【居宅介護支援】島根県　鹿足郡　津和野町　後田ロ431", "url": "https://www.kaigokensaku.mhlw.go.jp/32/index.php?action_kouhyou_detail_004_kani=true&JigyosyoCd=3272100383-00&ServiceCd=430&Type=search", "url2": null }, "geometry": { "type": "Point", "coordinates": [ 131.7761352, 34.4703045 ] } },
{ "type": "Feature", "properties": { "内容": "津和野居宅介護支援事業所【居宅介護支援】鹿足郡津和野町日原14番地", "url": "https://www.kaigokensaku.mhlw.go.jp/32/index.php?action_kouhyou_detail_004_kani=true&JigyosyoCd=3272100029-00&ServiceCd=430&Type=search", "url2": null }, "geometry": { "type": "Point", "coordinates": [ 131.839130100000034, 34.54144 ] } },
{ "type": "Feature", "properties": { "内容": "吉賀町ケアマネセンター【居宅介護支援】鹿足郡吉賀町六日市580番地4吉賀町社会福祉協議会", "url": "https://www.kaigokensaku.mhlw.go.jp/32/index.php?action_kouhyou_detail_004_kani=true&JigyosyoCd=3272100037-00&ServiceCd=430&Type=search", "url2": "http://yoshika-shakyo.jp/publics/index/1/" }, "geometry": { "type": "Point", "coordinates": [ 131.937491099999988, 34.3550017 ] } },
{ "type": "Feature", "properties": { "内容": "社会福祉法人海士町社会福祉協議会【居宅介護支援】海士町大字海士3964特別養護老人ホーム諏訪苑", "url": "https://www.kaigokensaku.mhlw.go.jp/32/index.php?action_kouhyou_detail_004_kani=true&JigyosyoCd=3272200076-00&ServiceCd=430&Type=search", "url2": "http://www.amasyakyo.com" }, "geometry": { "type": "Point", "coordinates": [ 133.092967384378085, 36.098272865737549 ] } },
{ "type": "Feature", "properties": { "内容": "社会福祉法人西ノ島町社会福祉協議会【居宅介護支援】島根県隠岐郡西ノ島町大字美田２４８５", "url": "https://www.kaigokensaku.mhlw.go.jp/32/index.php?action_kouhyou_detail_004_kani=true&JigyosyoCd=3272200159-00&ServiceCd=430&Type=search", "url2": "http://nishi-shakyo.sakura.ne.jp/" }, "geometry": { "type": "Point", "coordinates": [ 133.013101600000027, 36.0971325 ] } },
{ "type": "Feature", "properties": { "内容": "知夫村社協居宅介護支援事業所【居宅介護支援】隠岐郡知夫村６６４番地", "url": "https://www.kaigokensaku.mhlw.go.jp/32/index.php?action_kouhyou_detail_004_kani=true&JigyosyoCd=3272200043-00&ServiceCd=430&Type=search", "url2": "http://chibu-shakyo.sakura.ne.jp" }, "geometry": { "type": "Point", "coordinates": [ 133.04254370000001, 36.0148231 ] } },
{ "type": "Feature", "properties": { "内容": "居宅介護支援事業所かえで【居宅介護支援】島根県隠岐郡隠岐の島町岬町中の津の四３０２番地", "url": "https://www.kaigokensaku.mhlw.go.jp/32/index.php?action_kouhyou_detail_004_kani=true&JigyosyoCd=3272200845-00&ServiceCd=430&Type=search", "url2": null }, "geometry": { "type": "Point", "coordinates": [ 133.334826232649931, 36.187358670428765 ] } },
{ "type": "Feature", "properties": { "内容": "あたご会居宅介護支援事業所【居宅介護支援】隠岐郡隠岐の島町郡425番5", "url": "https://www.kaigokensaku.mhlw.go.jp/32/index.php?action_kouhyou_detail_004_kani=true&JigyosyoCd=3272200530-00&ServiceCd=430&Type=search", "url2": "https://atagokai.jp/" }, "geometry": { "type": "Point", "coordinates": [ 133.2506416, 36.284327 ] } },
{ "type": "Feature", "properties": { "内容": "居宅介護支援事業所　共生【居宅介護支援】隠岐郡隠岐の島町栄町1088番地", "url": "https://www.kaigokensaku.mhlw.go.jp/32/index.php?action_kouhyou_detail_004_kani=true&JigyosyoCd=3272200027-00&ServiceCd=430&Type=search", "url2": "http://www.kyousei.gr.jp" }, "geometry": { "type": "Point", "coordinates": [ 133.3267495, 36.2147242 ] } },
{ "type": "Feature", "properties": { "内容": "住吉在宅介護支援センター【居宅介護支援】隠岐の島町都万1791-1", "url": "https://www.kaigokensaku.mhlw.go.jp/32/index.php?action_kouhyou_detail_004_kani=true&JigyosyoCd=3272200092-00&ServiceCd=430&Type=search", "url2": "https://www.takatakai.com" }, "geometry": { "type": "Point", "coordinates": [ 133.235854600000039, 36.1968524 ] } }
]
}
