{
"type": "FeatureCollection",
"name": "geo_32_介護老人保健施設",
"crs": { "type": "name", "properties": { "name": "urn:ogc:def:crs:OGC:1.3:CRS84" } },
"features": [
{ "type": "Feature", "properties": { "内容": "介護老人保健施設悠々園【介護老人保健施設】松江市川原町３０９－１", "url": "https://www.kaigokensaku.mhlw.go.jp/32/index.php?action_kouhyou_detail_004_kani=true&JigyosyoCd=3250180035-00&ServiceCd=520&Type=search", "url2": "http://www.kaishunkai.com/yuyuen/" }, "geometry": { "type": "Point", "coordinates": [ 133.092874599999959, 35.5027013 ] } },
{ "type": "Feature", "properties": { "内容": "介護老人保健施設　ライフケア回春苑【介護老人保健施設】松江市新庄町1172", "url": "https://www.kaigokensaku.mhlw.go.jp/32/index.php?action_kouhyou_detail_004_kani=true&JigyosyoCd=3250180043-00&ServiceCd=520&Type=search", "url2": "http://www.kaishunkai.com/kaishunen/" }, "geometry": { "type": "Point", "coordinates": [ 133.1332294, 35.4994763 ] } },
{ "type": "Feature", "properties": { "内容": "介護老人保健施設松江センターアゼリア【介護老人保健施設】島根県松江市寺町99-26", "url": "https://www.kaigokensaku.mhlw.go.jp/32/index.php?action_kouhyou_detail_004_kani=true&JigyosyoCd=3250180076-00&ServiceCd=520&Type=search", "url2": null }, "geometry": { "type": "Point", "coordinates": [ 133.0596339, 35.4620597 ] } },
{ "type": "Feature", "properties": { "内容": "介護老人保健施設もちだの郷【介護老人保健施設】松江市東持田町520番地1", "url": "https://www.kaigokensaku.mhlw.go.jp/32/index.php?action_kouhyou_detail_004_kani=true&JigyosyoCd=3250180050-00&ServiceCd=520&Type=search", "url2": "http://www.kyousei.gr.jp/mochidanosato.html" }, "geometry": { "type": "Point", "coordinates": [ 133.08570839999993, 35.5080949 ] } },
{ "type": "Feature", "properties": { "内容": "介護老人保健施設　福寿苑【介護老人保健施設】松江市八束町波入６１４－９", "url": "https://www.kaigokensaku.mhlw.go.jp/32/index.php?action_kouhyou_detail_004_kani=true&JigyosyoCd=3251180034-00&ServiceCd=520&Type=search", "url2": "http://www.shimane-fukujuen.jp" }, "geometry": { "type": "Point", "coordinates": [ 133.178983900000048, 35.4870658 ] } },
{ "type": "Feature", "properties": { "内容": "介護老人保健施設さんさんケアセンター【介護老人保健施設】島根県松江市東出雲町揖屋１１９６", "url": "https://www.kaigokensaku.mhlw.go.jp/32/index.php?action_kouhyou_detail_004_kani=true&JigyosyoCd=3251180026-00&ServiceCd=520&Type=search", "url2": "http://hc.sansancare.com/" }, "geometry": { "type": "Point", "coordinates": [ 133.153022299999947, 35.42661 ] } },
{ "type": "Feature", "properties": { "内容": "介護老人保健施設アゼーリみずすみ【介護老人保健施設】島根県浜田市三隅町河内４５１番地1", "url": "https://www.kaigokensaku.mhlw.go.jp/32/index.php?action_kouhyou_detail_004_kani=true&JigyosyoCd=3251980029-00&ServiceCd=520&Type=search", "url2": "http://mizusumikai.or.jp/" }, "geometry": { "type": "Point", "coordinates": [ 131.981657, 34.759348 ] } },
{ "type": "Feature", "properties": { "内容": "介護老人保健施設夕陽ヶ丘【介護老人保健施設】浜田市国分町955-1", "url": "https://www.kaigokensaku.mhlw.go.jp/32/index.php?action_kouhyou_detail_004_kani=true&JigyosyoCd=3250780008-00&ServiceCd=520&Type=search", "url2": "http://www.yuuhigaoka.org/" }, "geometry": { "type": "Point", "coordinates": [ 132.116536900000028, 34.9449319 ] } },
{ "type": "Feature", "properties": { "内容": "介護老人保健施設旭・やすらぎの郷【介護老人保健施設】島根県浜田市旭町本郷362-10", "url": "https://www.kaigokensaku.mhlw.go.jp/32/index.php?action_kouhyou_detail_004_kani=true&JigyosyoCd=3251980037-00&ServiceCd=520&Type=search", "url2": "tomomi-kai-yasuragi.com" }, "geometry": { "type": "Point", "coordinates": [ 132.303315199999986, 34.864239 ] } },
{ "type": "Feature", "properties": { "内容": "介護老人保健施設さざんか【介護老人保健施設】島根県浜田市金城町七条ハ403番地", "url": "https://www.kaigokensaku.mhlw.go.jp/32/index.php?action_kouhyou_detail_004_kani=true&JigyosyoCd=3251980011-00&ServiceCd=520&Type=search", "url2": "https://sazanka.okita-naika.jp/" }, "geometry": { "type": "Point", "coordinates": [ 132.149398199999951, 34.8690952 ] } },
{ "type": "Feature", "properties": { "内容": "介護老人保健施設ケアセンターかんど【介護老人保健施設】島根県出雲市西新町２丁目２４５７番地３", "url": "https://www.kaigokensaku.mhlw.go.jp/32/index.php?action_kouhyou_detail_004_kani=true&JigyosyoCd=3250480054-00&ServiceCd=520&Type=search", "url2": "http://www.kandokai.jp/" }, "geometry": { "type": "Point", "coordinates": [ 132.72533240000007, 35.3325357 ] } },
{ "type": "Feature", "properties": { "内容": "老人保健施設たき【介護老人保健施設】出雲市多伎町小田５０番地7", "url": "https://www.kaigokensaku.mhlw.go.jp/32/index.php?action_kouhyou_detail_004_kani=true&JigyosyoCd=3251680018-00&ServiceCd=520&Type=search", "url2": "http://www.takinosato.jp" }, "geometry": { "type": "Point", "coordinates": [ 132.627048899999977, 35.2844431 ] } },
{ "type": "Feature", "properties": { "内容": "介護老人保健施設もくもく【介護老人保健施設】出雲市江田町278番地", "url": "https://www.kaigokensaku.mhlw.go.jp/32/index.php?action_kouhyou_detail_004_kani=true&JigyosyoCd=3250480047-00&ServiceCd=520&Type=search", "url2": "http://www.otuka-wel.jp/" }, "geometry": { "type": "Point", "coordinates": [ 132.7351129, 35.3837438 ] } },
{ "type": "Feature", "properties": { "内容": "介護老人保健施設　出雲徳洲苑【介護老人保健施設】島根県出雲市斐川町直江3964-1", "url": "https://www.kaigokensaku.mhlw.go.jp/32/index.php?action_kouhyou_detail_004_kani=true&JigyosyoCd=3250480088-00&ServiceCd=520&Type=search", "url2": "https://izumo-tokushuen.com/" }, "geometry": { "type": "Point", "coordinates": [ 132.8221207, 35.3819431 ] } },
{ "type": "Feature", "properties": { "内容": "介護老人保健施設　寿生苑【介護老人保健施設】出雲市上塩冶町2862-1", "url": "https://www.kaigokensaku.mhlw.go.jp/32/index.php?action_kouhyou_detail_004_kani=true&JigyosyoCd=3250480021-00&ServiceCd=520&Type=search", "url2": "http://juseikai.jp/" }, "geometry": { "type": "Point", "coordinates": [ 132.777998876196307, 35.354206724357603 ] } },
{ "type": "Feature", "properties": { "内容": "介護老人保健施設　まんだ【介護老人保健施設】島根県出雲市万田町５３５－１", "url": "https://www.kaigokensaku.mhlw.go.jp/32/index.php?action_kouhyou_detail_004_kani=true&JigyosyoCd=3250480062-00&ServiceCd=520&Type=search", "url2": "https://mandanosato.jp/pages/85/" }, "geometry": { "type": "Point", "coordinates": [ 132.784544899999986, 35.4446657 ] } },
{ "type": "Feature", "properties": { "内容": "介護老人保健施設ほのぼの苑【介護老人保健施設】出雲市大社町中荒木1745-2", "url": "https://www.kaigokensaku.mhlw.go.jp/32/index.php?action_kouhyou_detail_004_kani=true&JigyosyoCd=3251680009-00&ServiceCd=520&Type=search", "url2": "http://www.sunlight.or.jp" }, "geometry": { "type": "Point", "coordinates": [ 132.687342700000045, 35.3792909 ] } },
{ "type": "Feature", "properties": { "内容": "益田市立介護老人保健施設くにさき苑【介護老人保健施設】益田市遠田町1956番地8", "url": "https://www.kaigokensaku.mhlw.go.jp/32/index.php?action_kouhyou_detail_004_kani=true&JigyosyoCd=3250880022-00&ServiceCd=520&Type=search", "url2": "https://www..masuda-med.or.jp/kunisakien/" }, "geometry": { "type": "Point", "coordinates": [ 131.8664516, 34.6968405 ] } },
{ "type": "Feature", "properties": { "内容": "介護老人保健施設　恵寿苑【介護老人保健施設】島根県大田市大田町大田イ８６０－３", "url": "https://www.kaigokensaku.mhlw.go.jp/32/index.php?action_kouhyou_detail_004_kani=true&JigyosyoCd=3250580002-00&ServiceCd=520&Type=search", "url2": "http://keiwakai-ohda.jp/keijuen/" }, "geometry": { "type": "Point", "coordinates": [ 132.506158086508208, 35.199767777455058 ] } },
{ "type": "Feature", "properties": { "内容": "介護老人保健施設　たてがみの郷多床室型【介護老人保健施設】大田市波根町１２９０番地１", "url": "https://www.kaigokensaku.mhlw.go.jp/32/index.php?action_kouhyou_detail_004_kani=true&JigyosyoCd=3250580010-00&ServiceCd=520&Type=search", "url2": "http://www.well-nc.or.jp/" }, "geometry": { "type": "Point", "coordinates": [ 132.527589499999976, 35.2404372 ] } },
{ "type": "Feature", "properties": { "内容": "介護老人保健施設　たてがみの郷【介護老人保健施設】大田市波根町1290番地1", "url": "https://www.kaigokensaku.mhlw.go.jp/32/index.php?action_kouhyou_detail_004_kani=true&JigyosyoCd=3250580028-00&ServiceCd=520&Type=search", "url2": "http://www.well-nc.or.jp/" }, "geometry": { "type": "Point", "coordinates": [ 132.527589499999976, 35.240437200000017 ] } },
{ "type": "Feature", "properties": { "内容": "介護老人保健施設昌寿苑【介護老人保健施設】安来市安来町899-1", "url": "https://www.kaigokensaku.mhlw.go.jp/32/index.php?action_kouhyou_detail_004_kani=true&JigyosyoCd=3250280017-00&ServiceCd=520&Type=search", "url2": "http://www.syourinkai.or.jp" }, "geometry": { "type": "Point", "coordinates": [ 133.252797630163485, 35.433170960442354 ] } },
{ "type": "Feature", "properties": { "内容": "介護老人保健施設コスモス苑【介護老人保健施設】島根県安来市伯太町1700番地2", "url": "https://www.kaigokensaku.mhlw.go.jp/32/index.php?action_kouhyou_detail_004_kani=true&JigyosyoCd=3250280025-00&ServiceCd=520&Type=search", "url2": null }, "geometry": { "type": "Point", "coordinates": [ 133.27350720000004, 35.3714426 ] } },
{ "type": "Feature", "properties": { "内容": "島根県済生会　介護老人保健施設　高砂ケアセンター【介護老人保健施設】島根県江津市江津町１１１０－１５", "url": "https://www.kaigokensaku.mhlw.go.jp/32/index.php?action_kouhyou_detail_004_kani=true&JigyosyoCd=3250680018-00&ServiceCd=520&Type=search", "url2": "http://www.gotsu-takasago.jp/" }, "geometry": { "type": "Point", "coordinates": [ 132.2184638, 35.0138922 ] } },
{ "type": "Feature", "properties": { "内容": "介護老人保健施設ケアセンターきすき【介護老人保健施設】雲南市木次町山方1111番地", "url": "https://www.kaigokensaku.mhlw.go.jp/32/index.php?action_kouhyou_detail_004_kani=true&JigyosyoCd=3251480004-00&ServiceCd=520&Type=search", "url2": null }, "geometry": { "type": "Point", "coordinates": [ 132.911923099999967, 35.3113753 ] } },
{ "type": "Feature", "properties": { "内容": "介護老人保健施設平成苑【介護老人保健施設】島根県雲南市三刀屋町三刀屋1294-1", "url": "https://www.kaigokensaku.mhlw.go.jp/32/index.php?action_kouhyou_detail_004_kani=true&JigyosyoCd=3251580019-00&ServiceCd=520&Type=search", "url2": "http://www.heisei-hosp.jp/" }, "geometry": { "type": "Point", "coordinates": [ 132.884896, 35.2925525 ] } },
{ "type": "Feature", "properties": { "内容": "介護老人保健施設　仁寿苑【介護老人保健施設】島根県邑智郡川本町大字川本381-4", "url": "https://www.kaigokensaku.mhlw.go.jp/32/index.php?action_kouhyou_detail_004_kani=true&JigyosyoCd=3251880013-00&ServiceCd=520&Type=search", "url2": "http://www.k-jinju.or.jp/" }, "geometry": { "type": "Point", "coordinates": [ 132.494558792729208, 34.991187197102789 ] } },
{ "type": "Feature", "properties": { "内容": "介護老人保健施設　サンホームみずほ【介護老人保健施設】島根県邑智郡邑南町高見821番地1", "url": "https://www.kaigokensaku.mhlw.go.jp/32/index.php?action_kouhyou_detail_004_kani=true&JigyosyoCd=3251880021-00&ServiceCd=520&Type=search", "url2": "http://tokuyu-kai.sakura.ne.jp/sunhome/index.htm/" }, "geometry": { "type": "Point", "coordinates": [ 132.548791899999969, 34.8992512 ] } },
{ "type": "Feature", "properties": { "内容": "介護老人保健施設　せせらぎ【介護老人保健施設】島根県鹿足郡津和野町森村ﾛ141番地", "url": "https://www.kaigokensaku.mhlw.go.jp/32/index.php?action_kouhyou_detail_004_kani=true&JigyosyoCd=3252180017-00&ServiceCd=520&Type=search", "url2": "https://kisseido.or.jp/" }, "geometry": { "type": "Point", "coordinates": [ 131.834972200000038, 34.541962 ] } },
{ "type": "Feature", "properties": { "内容": "老人保健施設ともいきの郷【介護老人保健施設】島根県隠岐郡隠岐の島町栄町975番地2", "url": "https://www.kaigokensaku.mhlw.go.jp/32/index.php?action_kouhyou_detail_004_kani=true&JigyosyoCd=3252280007-00&ServiceCd=520&Type=search", "url2": "http://www.kyousei.gr.jp" }, "geometry": { "type": "Point", "coordinates": [ 133.326788399999941, 36.2157296 ] } }
]
}
