{
"type": "FeatureCollection",
"name": "geo_32_地域密着型通所介護",
"crs": { "type": "name", "properties": { "name": "urn:ogc:def:crs:OGC:1.3:CRS84" } },
"features": [
{ "type": "Feature", "properties": { "内容": "健笑庵　いくま【地域密着型通所介護】島根県松江市西生馬482", "url": "https://www.kaigokensaku.mhlw.go.jp/32/index.php?action_kouhyou_detail_004_kani=true&JigyosyoCd=3270100914-00&ServiceCd=780&Type=search", "url2": "http://hot-matsue.com/kotobuki/index.html" }, "geometry": { "type": "Point", "coordinates": [ 133.02487629999996, 35.4952583 ] } },
{ "type": "Feature", "properties": { "内容": "デイサービス　ノワ【地域密着型通所介護】島根県松江市上乃木8丁目3番30号", "url": "https://www.kaigokensaku.mhlw.go.jp/32/index.php?action_kouhyou_detail_004_kani=true&JigyosyoCd=3290100662-00&ServiceCd=780&Type=search", "url2": "uprice-nowa.com" }, "geometry": { "type": "Point", "coordinates": [ 133.066502899999989, 35.44215430000002 ] } },
{ "type": "Feature", "properties": { "内容": "デイサービスあったかホーム【地域密着型通所介護】島根県松江市大庭町432番地14", "url": "https://www.kaigokensaku.mhlw.go.jp/32/index.php?action_kouhyou_detail_004_kani=true&JigyosyoCd=3290100688-00&ServiceCd=780&Type=search", "url2": null }, "geometry": { "type": "Point", "coordinates": [ 133.090834099999938, 35.4288285 ] } },
{ "type": "Feature", "properties": { "内容": "合同会社ほのぼの【地域密着型通所介護】島根県松江市下東川津町２６８－６", "url": "https://www.kaigokensaku.mhlw.go.jp/32/index.php?action_kouhyou_detail_004_kani=true&JigyosyoCd=3290100811-00&ServiceCd=780&Type=search", "url2": "https://www.goudouhonobono.co.jp" }, "geometry": { "type": "Point", "coordinates": [ 133.0888947, 35.5028405 ] } },
{ "type": "Feature", "properties": { "内容": "デイサービス　もみの木苑【地域密着型通所介護】島根県松江市東出雲町出雲郷771－4", "url": "https://www.kaigokensaku.mhlw.go.jp/32/index.php?action_kouhyou_detail_004_kani=true&JigyosyoCd=3270103280-00&ServiceCd=780&Type=search", "url2": "http://www.mominokien.jp/" }, "geometry": { "type": "Point", "coordinates": [ 133.13792015211493, 35.427120795573082 ] } },
{ "type": "Feature", "properties": { "内容": "ハピネデイサービスセンター松江【地域密着型通所介護】松江市学園2丁目33番27号ハピネケアセンター松江", "url": "https://www.kaigokensaku.mhlw.go.jp/32/index.php?action_kouhyou_detail_004_kani=true&JigyosyoCd=3270100575-00&ServiceCd=780&Type=search", "url2": null }, "geometry": { "type": "Point", "coordinates": [ 133.069300399999946, 35.4817002 ] } },
{ "type": "Feature", "properties": { "内容": "通所介護事業所　花きりん【地域密着型通所介護】東出雲町意宇南5丁目4－1花きりんハウス東出雲", "url": "https://www.kaigokensaku.mhlw.go.jp/32/index.php?action_kouhyou_detail_004_kani=true&JigyosyoCd=3270102902-00&ServiceCd=780&Type=search", "url2": "http://hanakirin.net" }, "geometry": { "type": "Point", "coordinates": [ 133.129668587696841, 35.427950836967923 ] } },
{ "type": "Feature", "properties": { "内容": "ココ・リハ乃木【地域密着型通所介護】松江市上乃木5-12-21", "url": "https://www.kaigokensaku.mhlw.go.jp/32/index.php?action_kouhyou_detail_004_kani=true&JigyosyoCd=3270103124-00&ServiceCd=780&Type=search", "url2": null }, "geometry": { "type": "Point", "coordinates": [ 133.067965800000025, 35.447779 ] } },
{ "type": "Feature", "properties": { "内容": "デイサービス一休庵・東津田【地域密着型通所介護】島根県松江市東津田町465-3", "url": "https://www.kaigokensaku.mhlw.go.jp/32/index.php?action_kouhyou_detail_004_kani=true&JigyosyoCd=3270103835-00&ServiceCd=780&Type=search", "url2": "https://emukea-ikkyuuan.jimdo.com/%E3%83%87%E3%82%A4%E3%82%B5%E3%83%BC%E3%83%93%E3%82%B9%E4%B8%80%E4%BC%91%E5%BA%B5-%E6%9D%B1%E6%B4%A5%E7%94%B0/" }, "geometry": { "type": "Point", "coordinates": [ 133.083319699999947, 35.4589447 ] } },
{ "type": "Feature", "properties": { "内容": "デイサービス　愛桜【地域密着型通所介護】島根県松江市鹿島町名分1348番地2", "url": "https://www.kaigokensaku.mhlw.go.jp/32/index.php?action_kouhyou_detail_004_kani=true&JigyosyoCd=3271100426-00&ServiceCd=780&Type=search", "url2": "http//www.kashima-fukushikai.jp" }, "geometry": { "type": "Point", "coordinates": [ 133.0080639, 35.5090575 ] } },
{ "type": "Feature", "properties": { "内容": "老人デイサービス事業きらめき【地域密着型通所介護】松江市山代町934-5", "url": "https://www.kaigokensaku.mhlw.go.jp/32/index.php?action_kouhyou_detail_004_kani=true&JigyosyoCd=3270100484-00&ServiceCd=780&Type=search", "url2": "http://www.sirayurikai.or.jp/" }, "geometry": { "type": "Point", "coordinates": [ 133.09536090000006, 35.4399581 ] } },
{ "type": "Feature", "properties": { "内容": "社会福祉法人ふれあい本庄デイサービスセンター【地域密着型通所介護】松江市野原町417番地2", "url": "https://www.kaigokensaku.mhlw.go.jp/32/index.php?action_kouhyou_detail_004_kani=true&JigyosyoCd=3270100252-00&ServiceCd=780&Type=search", "url2": null }, "geometry": { "type": "Point", "coordinates": [ 133.13595620000001, 35.5161858 ] } },
{ "type": "Feature", "properties": { "内容": "あいかの里介護福祉サービスセンター【地域密着型通所介護】島根県松江市岡本町1138番地1", "url": "https://www.kaigokensaku.mhlw.go.jp/32/index.php?action_kouhyou_detail_004_kani=true&JigyosyoCd=3270101037-00&ServiceCd=780&Type=search", "url2": "http://kohoku-aikanosato.jp" }, "geometry": { "type": "Point", "coordinates": [ 132.950962600000025, 35.4806301 ] } },
{ "type": "Feature", "properties": { "内容": "デイサービス陽恵苑【地域密着型通所介護】馬潟町92-1", "url": "https://www.kaigokensaku.mhlw.go.jp/32/index.php?action_kouhyou_detail_004_kani=true&JigyosyoCd=3290100928-00&ServiceCd=780&Type=search", "url2": "https://san-link.jp/" }, "geometry": { "type": "Point", "coordinates": [ 133.111675, 35.4435017 ] } },
{ "type": "Feature", "properties": { "内容": "デイサービスゆうゆう【地域密着型通所介護】島根県松江市馬潟町349番地29", "url": "https://www.kaigokensaku.mhlw.go.jp/32/index.php?action_kouhyou_detail_004_kani=true&JigyosyoCd=3290100951-00&ServiceCd=780&Type=search", "url2": null }, "geometry": { "type": "Point", "coordinates": [ 133.114136, 35.4466383 ] } },
{ "type": "Feature", "properties": { "内容": "てのひらデイサービス【地域密着型通所介護】島根県松江市矢田町88-1", "url": "https://www.kaigokensaku.mhlw.go.jp/32/index.php?action_kouhyou_detail_004_kani=true&JigyosyoCd=3290100969-00&ServiceCd=780&Type=search", "url2": null }, "geometry": { "type": "Point", "coordinates": [ 133.1020863, 35.4483486 ] } },
{ "type": "Feature", "properties": { "内容": "きたえる～む松江古志原【地域密着型通所介護】島根県松江市古志原１丁目9-5", "url": "https://www.kaigokensaku.mhlw.go.jp/32/index.php?action_kouhyou_detail_004_kani=true&JigyosyoCd=3290100944-00&ServiceCd=780&Type=search", "url2": "https://kitaeroom.com/" }, "geometry": { "type": "Point", "coordinates": [ 133.07285250000001, 35.445831 ] } },
{ "type": "Feature", "properties": { "内容": "デイサービス松寿【地域密着型通所介護】比津町295番5", "url": "https://www.kaigokensaku.mhlw.go.jp/32/index.php?action_kouhyou_detail_004_kani=true&JigyosyoCd=3270103439-00&ServiceCd=780&Type=search", "url2": "http://hitsugaoka.com" }, "geometry": { "type": "Point", "coordinates": [ 133.036150600000042, 35.4867264 ] } },
{ "type": "Feature", "properties": { "内容": "もちだの郷デイサービス【地域密着型通所介護】島根県松江市東持田町520番地１", "url": "https://www.kaigokensaku.mhlw.go.jp/32/index.php?action_kouhyou_detail_004_kani=true&JigyosyoCd=3270103504-00&ServiceCd=780&Type=search", "url2": "https://mochidanosato.com/" }, "geometry": { "type": "Point", "coordinates": [ 133.08570839999993, 35.508094900000032 ] } },
{ "type": "Feature", "properties": { "内容": "ふれあいセンター　友愛【地域密着型通所介護】松江市宍道町佐々布2145-172", "url": "https://www.kaigokensaku.mhlw.go.jp/32/index.php?action_kouhyou_detail_004_kani=true&JigyosyoCd=3270101961-00&ServiceCd=780&Type=search", "url2": null }, "geometry": { "type": "Point", "coordinates": [ 132.887489800000026, 35.3989082 ] } },
{ "type": "Feature", "properties": { "内容": "デイサービスセンターらいふ嫁島【地域密着型通所介護】島根県松江市西嫁島1丁目3-3", "url": "https://www.kaigokensaku.mhlw.go.jp/32/index.php?action_kouhyou_detail_004_kani=true&JigyosyoCd=3290100720-00&ServiceCd=780&Type=search", "url2": null }, "geometry": { "type": "Point", "coordinates": [ 133.048473, 35.4484758 ] } },
{ "type": "Feature", "properties": { "内容": "cohamaterrace【地域密着型通所介護】島根県松江市東朝日町町234番地1", "url": "https://www.kaigokensaku.mhlw.go.jp/32/index.php?action_kouhyou_detail_004_kani=true&JigyosyoCd=3290100803-00&ServiceCd=780&Type=search", "url2": null }, "geometry": { "type": "Point", "coordinates": [ 133.0758788, 35.4623856 ] } },
{ "type": "Feature", "properties": { "内容": "堂形クラブ　デイサービス【地域密着型通所介護】島根県松江市堂形町843", "url": "https://www.kaigokensaku.mhlw.go.jp/32/index.php?action_kouhyou_detail_004_kani=true&JigyosyoCd=3270101763-00&ServiceCd=780&Type=search", "url2": "https://202000.jp" }, "geometry": { "type": "Point", "coordinates": [ 133.0405647, 35.4658762 ] } },
{ "type": "Feature", "properties": { "内容": "上口デイサービスセンター【地域密着型通所介護】島根県松江市古志原4丁目19番45号", "url": "https://www.kaigokensaku.mhlw.go.jp/32/index.php?action_kouhyou_detail_004_kani=true&JigyosyoCd=32A0100016-00&ServiceCd=780&Type=search", "url2": "http://kamiguchifukushikai.jp" }, "geometry": { "type": "Point", "coordinates": [ 133.078279125656053, 35.441674252863635 ] } },
{ "type": "Feature", "properties": { "内容": "まる福デイサービス【地域密着型通所介護】島根県松江市浜乃木2丁目15番32号", "url": "https://www.kaigokensaku.mhlw.go.jp/32/index.php?action_kouhyou_detail_004_kani=true&JigyosyoCd=3270103132-00&ServiceCd=780&Type=search", "url2": "https://marufuku.co.jp/" }, "geometry": { "type": "Point", "coordinates": [ 133.048683164452768, 35.445067475681689 ] } },
{ "type": "Feature", "properties": { "内容": "はな福デイサービス【地域密着型通所介護】島根県松江市玉湯町玉造102番13", "url": "https://www.kaigokensaku.mhlw.go.jp/32/index.php?action_kouhyou_detail_004_kani=true&JigyosyoCd=3290100787-00&ServiceCd=780&Type=search", "url2": "https://marufuku.co.jp" }, "geometry": { "type": "Point", "coordinates": [ 133.013058, 35.4164493 ] } },
{ "type": "Feature", "properties": { "内容": "デイサービス　かりん【地域密着型通所介護】島根県松江市浜佐田町９５８－６", "url": "https://www.kaigokensaku.mhlw.go.jp/32/index.php?action_kouhyou_detail_004_kani=true&JigyosyoCd=3270102464-00&ServiceCd=780&Type=search", "url2": null }, "geometry": { "type": "Point", "coordinates": [ 133.028099, 35.4717696 ] } },
{ "type": "Feature", "properties": { "内容": "リハサロン　明日夢【地域密着型通所介護】島根県松江市学園２丁目３０－２２", "url": "https://www.kaigokensaku.mhlw.go.jp/32/index.php?action_kouhyou_detail_004_kani=true&JigyosyoCd=3270103462-00&ServiceCd=780&Type=search", "url2": null }, "geometry": { "type": "Point", "coordinates": [ 133.0697586, 35.4829389 ] } },
{ "type": "Feature", "properties": { "内容": "あいデイサービス【地域密着型通所介護】島根県松江市大庭町1808-10", "url": "https://www.kaigokensaku.mhlw.go.jp/32/index.php?action_kouhyou_detail_004_kani=true&JigyosyoCd=3290100779-00&ServiceCd=780&Type=search", "url2": null }, "geometry": { "type": "Point", "coordinates": [ 133.0861332, 35.4333179 ] } },
{ "type": "Feature", "properties": { "内容": "さくらデイサービス橋北【地域密着型通所介護】島根県松江市石橋町２２５", "url": "https://www.kaigokensaku.mhlw.go.jp/32/index.php?action_kouhyou_detail_004_kani=true&JigyosyoCd=3290100704-00&ServiceCd=780&Type=search", "url2": "https://matue-dayservice.jimdofree.com/" }, "geometry": { "type": "Point", "coordinates": [ 133.05991240000003, 35.4825054 ] } },
{ "type": "Feature", "properties": { "内容": "さくらデイサービス【地域密着型通所介護】島根県松江市大庭町1808-10", "url": "https://www.kaigokensaku.mhlw.go.jp/32/index.php?action_kouhyou_detail_004_kani=true&JigyosyoCd=3270103306-00&ServiceCd=780&Type=search", "url2": "https://matue-dayservice.jimdofree.com/" }, "geometry": { "type": "Point", "coordinates": [ 133.086009975532534, 35.433284596736449 ] } },
{ "type": "Feature", "properties": { "内容": "だんだんデイサービス東津田【地域密着型通所介護】東津田町１８７７－３", "url": "https://www.kaigokensaku.mhlw.go.jp/32/index.php?action_kouhyou_detail_004_kani=true&JigyosyoCd=3270103876-00&ServiceCd=780&Type=search", "url2": null }, "geometry": { "type": "Point", "coordinates": [ 133.09796, 35.45427080000001 ] } },
{ "type": "Feature", "properties": { "内容": "あかつきデイサービス【地域密着型通所介護】島根県松江市大庭町1811-3", "url": "https://www.kaigokensaku.mhlw.go.jp/32/index.php?action_kouhyou_detail_004_kani=true&JigyosyoCd=3290100829-00&ServiceCd=780&Type=search", "url2": null }, "geometry": { "type": "Point", "coordinates": [ 133.088557, 35.430084 ] } },
{ "type": "Feature", "properties": { "内容": "地域密着型通所介護事業所　大野の郷【地域密着型通所介護】島根県松江市大野町167", "url": "https://www.kaigokensaku.mhlw.go.jp/32/index.php?action_kouhyou_detail_004_kani=true&JigyosyoCd=3270101656-00&ServiceCd=780&Type=search", "url2": "http://oono167.jp/" }, "geometry": { "type": "Point", "coordinates": [ 132.918988399999989, 35.4724857 ] } },
{ "type": "Feature", "properties": { "内容": "明翔苑デイサービスセンター【地域密着型通所介護】島根県松江市西浜佐陀町1399－34", "url": "https://www.kaigokensaku.mhlw.go.jp/32/index.php?action_kouhyou_detail_004_kani=true&JigyosyoCd=3290100894-00&ServiceCd=780&Type=search", "url2": "http://www.houshinkai-s.or.jp" }, "geometry": { "type": "Point", "coordinates": [ 132.993447, 35.476404 ] } },
{ "type": "Feature", "properties": { "内容": "デイホームきたうら【地域密着型通所介護】島根県松江市美保関町北浦978", "url": "https://www.kaigokensaku.mhlw.go.jp/32/index.php?action_kouhyou_detail_004_kani=true&JigyosyoCd=3270101987-00&ServiceCd=780&Type=search", "url2": "http://siawase‐s.net" }, "geometry": { "type": "Point", "coordinates": [ 133.159424617366085, 35.564319216550814 ] } },
{ "type": "Feature", "properties": { "内容": "デイホームしあわせ【地域密着型通所介護】島根県松江市美保関町北浦978", "url": "https://www.kaigokensaku.mhlw.go.jp/32/index.php?action_kouhyou_detail_004_kani=true&JigyosyoCd=3270101292-00&ServiceCd=780&Type=search", "url2": "http://siawase‐s.net" }, "geometry": { "type": "Point", "coordinates": [ 133.159624757980282, 35.564290140693515 ] } },
{ "type": "Feature", "properties": { "内容": "デイホーム楽【地域密着型通所介護】島根県松江市美保関町北浦300", "url": "https://www.kaigokensaku.mhlw.go.jp/32/index.php?action_kouhyou_detail_004_kani=true&JigyosyoCd=3270103686-00&ServiceCd=780&Type=search", "url2": "http://siawase-s.net" }, "geometry": { "type": "Point", "coordinates": [ 133.1543671, 35.560387 ] } },
{ "type": "Feature", "properties": { "内容": "デイサービス　きねづか【地域密着型通所介護】島根県松江市上本庄町５７２ー３", "url": "https://www.kaigokensaku.mhlw.go.jp/32/index.php?action_kouhyou_detail_004_kani=true&JigyosyoCd=3270101250-00&ServiceCd=780&Type=search", "url2": "https://www.kineduka-kami-honjou.jp" }, "geometry": { "type": "Point", "coordinates": [ 133.1285378, 35.5092222 ] } },
{ "type": "Feature", "properties": { "内容": "デイサービス敬愛苑【地域密着型通所介護】松江市寺町１９８－５７ボートピア松江ビル４階", "url": "https://www.kaigokensaku.mhlw.go.jp/32/index.php?action_kouhyou_detail_004_kani=true&JigyosyoCd=3270101185-00&ServiceCd=780&Type=search", "url2": null }, "geometry": { "type": "Point", "coordinates": [ 133.058416800000032, 35.4643448 ] } },
{ "type": "Feature", "properties": { "内容": "健笑庵　のぎ【地域密着型通所介護】島根県松江市浜乃木5-2-23", "url": "https://www.kaigokensaku.mhlw.go.jp/32/index.php?action_kouhyou_detail_004_kani=true&JigyosyoCd=3270101219-00&ServiceCd=780&Type=search", "url2": "http://hot-matue.com/kotobuki/index.html" }, "geometry": { "type": "Point", "coordinates": [ 133.052811499999962, 35.4442736 ] } },
{ "type": "Feature", "properties": { "内容": "らぶらぶデイサービスセンター【地域密着型通所介護】島根県松江市竹矢町１８３４番地", "url": "https://www.kaigokensaku.mhlw.go.jp/32/index.php?action_kouhyou_detail_004_kani=true&JigyosyoCd=3290100746-00&ServiceCd=780&Type=search", "url2": null }, "geometry": { "type": "Point", "coordinates": [ 133.123728300000039, 35.4362379 ] } },
{ "type": "Feature", "properties": { "内容": "第２らぶらぶデイサービス【地域密着型通所介護】島根県松江市竹矢町１８３４番地", "url": "https://www.kaigokensaku.mhlw.go.jp/32/index.php?action_kouhyou_detail_004_kani=true&JigyosyoCd=3290100753-00&ServiceCd=780&Type=search", "url2": null }, "geometry": { "type": "Point", "coordinates": [ 133.123728300000039, 35.4362379 ] } },
{ "type": "Feature", "properties": { "内容": "デイサービスあかり【地域密着型通所介護】松江市黒田町60アダージョ黒田", "url": "https://www.kaigokensaku.mhlw.go.jp/32/index.php?action_kouhyou_detail_004_kani=true&JigyosyoCd=3290100647-00&ServiceCd=780&Type=search", "url2": null }, "geometry": { "type": "Point", "coordinates": [ 133.039594665576146, 35.484284398587214 ] } },
{ "type": "Feature", "properties": { "内容": "Ｌ．Ｃ．Ｃ．ういんぐ【地域密着型通所介護】島根県松江市東持田町222", "url": "https://www.kaigokensaku.mhlw.go.jp/32/index.php?action_kouhyou_detail_004_kani=true&JigyosyoCd=3290100902-00&ServiceCd=780&Type=search", "url2": "http://www.tidori.org/" }, "geometry": { "type": "Point", "coordinates": [ 133.082285, 35.4994139 ] } },
{ "type": "Feature", "properties": { "内容": "あおぞら八重垣デイサービスセンター【地域密着型通所介護】島根県松江市上乃木２丁目２７番２０号", "url": "https://www.kaigokensaku.mhlw.go.jp/32/index.php?action_kouhyou_detail_004_kani=true&JigyosyoCd=3290100654-00&ServiceCd=780&Type=search", "url2": "http://careguid,co,jp" }, "geometry": { "type": "Point", "coordinates": [ 133.062005, 35.4502203 ] } },
{ "type": "Feature", "properties": { "内容": "有限会社　長寿の里【地域密着型通所介護】浜田市日脚町54番地2", "url": "https://www.kaigokensaku.mhlw.go.jp/32/index.php?action_kouhyou_detail_004_kani=true&JigyosyoCd=3270700481-00&ServiceCd=780&Type=search", "url2": "kuwanomi。０１＠rapid.ocn.ne.jp" }, "geometry": { "type": "Point", "coordinates": [ 132.036807100000033, 34.8632636 ] } },
{ "type": "Feature", "properties": { "内容": "いきいきプラス三隅店【地域密着型通所介護】島根県浜田市三隅町三隅1341", "url": "https://www.kaigokensaku.mhlw.go.jp/32/index.php?action_kouhyou_detail_004_kani=true&JigyosyoCd=3290700263-00&ServiceCd=780&Type=search", "url2": "https://mikawaen.com/" }, "geometry": { "type": "Point", "coordinates": [ 131.9642901, 34.7762433 ] } },
{ "type": "Feature", "properties": { "内容": "共生型デイサービスお天氣いいね【地域密着型通所介護】島根県浜田市熱田町１１２９番地１", "url": "https://www.kaigokensaku.mhlw.go.jp/32/index.php?action_kouhyou_detail_004_kani=true&JigyosyoCd=3290700214-00&ServiceCd=780&Type=search", "url2": "https://www.attakaiinet.com" }, "geometry": { "type": "Point", "coordinates": [ 132.05665590000001, 34.8638857 ] } },
{ "type": "Feature", "properties": { "内容": "デイサービス　おあしすかわのせ【地域密着型通所介護】島根県浜田市下府町904", "url": "https://www.kaigokensaku.mhlw.go.jp/32/index.php?action_kouhyou_detail_004_kani=true&JigyosyoCd=3270700499-00&ServiceCd=780&Type=search", "url2": null }, "geometry": { "type": "Point", "coordinates": [ 132.1085862, 34.9302816 ] } },
{ "type": "Feature", "properties": { "内容": "そうえんデイサービス浜田店【地域密着型通所介護】島根県浜田市相生町3816番地相生第一ビル1Ｆ", "url": "https://www.kaigokensaku.mhlw.go.jp/32/index.php?action_kouhyou_detail_004_kani=true&JigyosyoCd=3270701240-00&ServiceCd=780&Type=search", "url2": null }, "geometry": { "type": "Point", "coordinates": [ 132.090279600000031, 34.8971808 ] } },
{ "type": "Feature", "properties": { "内容": "そうえんデイサービス熱田店【地域密着型通所介護】島根県浜田市熱田t帳1265-1", "url": "https://www.kaigokensaku.mhlw.go.jp/32/index.php?action_kouhyou_detail_004_kani=true&JigyosyoCd=3290700230-00&ServiceCd=780&Type=search", "url2": null }, "geometry": { "type": "Point", "coordinates": [ 132.0544837, 34.8687549 ] } },
{ "type": "Feature", "properties": { "内容": "デイサービスはとぽっぽ【地域密着型通所介護】島根県浜田市朝日町９３－１２", "url": "https://www.kaigokensaku.mhlw.go.jp/32/index.php?action_kouhyou_detail_004_kani=true&JigyosyoCd=3270700408-00&ServiceCd=780&Type=search", "url2": null }, "geometry": { "type": "Point", "coordinates": [ 132.0895916, 34.8993366 ] } },
{ "type": "Feature", "properties": { "内容": "あさひデイサービス【地域密着型通所介護】島根県浜田市旭町今市616番地", "url": "https://www.kaigokensaku.mhlw.go.jp/32/index.php?action_kouhyou_detail_004_kani=true&JigyosyoCd=3271900411-00&ServiceCd=780&Type=search", "url2": null }, "geometry": { "type": "Point", "coordinates": [ 132.257728400000019, 34.8617808 ] } },
{ "type": "Feature", "properties": { "内容": "デイサービスまつばら【地域密着型通所介護】浜田市松原町１１００－１", "url": "https://www.kaigokensaku.mhlw.go.jp/32/index.php?action_kouhyou_detail_004_kani=true&JigyosyoCd=3270700523-00&ServiceCd=780&Type=search", "url2": "http://www3.ocn.ne.jp/~asahien/asahien7.html" }, "geometry": { "type": "Point", "coordinates": [ 132.0749558, 34.9040214 ] } },
{ "type": "Feature", "properties": { "内容": "デイサービス偕生【地域密着型通所介護】浜田市黒川町196番地1", "url": "https://www.kaigokensaku.mhlw.go.jp/32/index.php?action_kouhyou_detail_004_kani=true&JigyosyoCd=3270700465-00&ServiceCd=780&Type=search", "url2": "http://www.ssw.or.jp/korei_kaisei/" }, "geometry": { "type": "Point", "coordinates": [ 132.096804, 34.8979723 ] } },
{ "type": "Feature", "properties": { "内容": "弥栄デイサービスセンター【地域密着型通所介護】島根県浜田市弥栄町木都賀イ539-1", "url": "https://www.kaigokensaku.mhlw.go.jp/32/index.php?action_kouhyou_detail_004_kani=true&JigyosyoCd=3271900064-00&ServiceCd=780&Type=search", "url2": "https://www.yasaka-fukushikai.com/" }, "geometry": { "type": "Point", "coordinates": [ 132.0721178, 34.7654235 ] } },
{ "type": "Feature", "properties": { "内容": "ほっとリハ【地域密着型通所介護】島根県浜田市殿町61番地8", "url": "https://www.kaigokensaku.mhlw.go.jp/32/index.php?action_kouhyou_detail_004_kani=true&JigyosyoCd=3290700198-00&ServiceCd=780&Type=search", "url2": "http://hotcare.jp" }, "geometry": { "type": "Point", "coordinates": [ 132.077450099999965, 34.9024077 ] } },
{ "type": "Feature", "properties": { "内容": "デイサービスセンター絆　黒川【地域密着型通所介護】島根県浜田市黒川町108番地49", "url": "https://www.kaigokensaku.mhlw.go.jp/32/index.php?action_kouhyou_detail_004_kani=true&JigyosyoCd=3290700248-00&ServiceCd=780&Type=search", "url2": null }, "geometry": { "type": "Point", "coordinates": [ 132.0916851, 34.9019364 ] } },
{ "type": "Feature", "properties": { "内容": "茶話本舗　花のある家　黒川邸【地域密着型通所介護】島根県浜田市黒川町4111番地", "url": "https://www.kaigokensaku.mhlw.go.jp/32/index.php?action_kouhyou_detail_004_kani=true&JigyosyoCd=3270701141-00&ServiceCd=780&Type=search", "url2": null }, "geometry": { "type": "Point", "coordinates": [ 132.097908762951647, 34.897046049617515 ] } },
{ "type": "Feature", "properties": { "内容": "デイサービス　あいあい【地域密着型通所介護】島根県浜田市下府町875", "url": "https://www.kaigokensaku.mhlw.go.jp/32/index.php?action_kouhyou_detail_004_kani=true&JigyosyoCd=3270701174-00&ServiceCd=780&Type=search", "url2": null }, "geometry": { "type": "Point", "coordinates": [ 132.109782499999937, 34.928436 ] } },
{ "type": "Feature", "properties": { "内容": "大麻山通所介護事業所【地域密着型通所介護】島根県浜田市西村町1031番地1", "url": "https://www.kaigokensaku.mhlw.go.jp/32/index.php?action_kouhyou_detail_004_kani=true&JigyosyoCd=3270700861-00&ServiceCd=780&Type=search", "url2": "http://taimasan.jp/" }, "geometry": { "type": "Point", "coordinates": [ 131.9862415, 34.825264 ] } },
{ "type": "Feature", "properties": { "内容": "ディサービスほのぼのふくちゃん【地域密着型通所介護】浜田市熱田町1421-1", "url": "https://www.kaigokensaku.mhlw.go.jp/32/index.php?action_kouhyou_detail_004_kani=true&JigyosyoCd=3270700598-00&ServiceCd=780&Type=search", "url2": null }, "geometry": { "type": "Point", "coordinates": [ 132.051900499999988, 34.8684657 ] } },
{ "type": "Feature", "properties": { "内容": "花あかり【地域密着型通所介護】熱田町558-35", "url": "https://www.kaigokensaku.mhlw.go.jp/32/index.php?action_kouhyou_detail_004_kani=true&JigyosyoCd=3290700180-00&ServiceCd=780&Type=search", "url2": "https://hanaakari-hamada.amebaownd.com/" }, "geometry": { "type": "Point", "coordinates": [ 132.06117740000002, 34.8727849 ] } },
{ "type": "Feature", "properties": { "内容": "リハトレケア浜田【地域密着型通所介護】黒川町岡本ビル1階", "url": "https://www.kaigokensaku.mhlw.go.jp/32/index.php?action_kouhyou_detail_004_kani=true&JigyosyoCd=3290700255-00&ServiceCd=780&Type=search", "url2": null }, "geometry": { "type": "Point", "coordinates": [ 140.794343, 43.174182 ] } },
{ "type": "Feature", "properties": { "内容": "いきいきプラス浜田店【地域密着型通所介護】島根県浜田市野原町859番地1浜田市総合福祉センター内", "url": "https://www.kaigokensaku.mhlw.go.jp/32/index.php?action_kouhyou_detail_004_kani=true&JigyosyoCd=3290700289-00&ServiceCd=780&Type=search", "url2": "https://mikawaen.com" }, "geometry": { "type": "Point", "coordinates": [ 132.076868, 34.8863769 ] } },
{ "type": "Feature", "properties": { "内容": "デイサービスセンター絆【地域密着型通所介護】島根県浜田市長沢町１４８３番４", "url": "https://www.kaigokensaku.mhlw.go.jp/32/index.php?action_kouhyou_detail_004_kani=true&JigyosyoCd=3270701075-00&ServiceCd=780&Type=search", "url2": "kizunanihongi@chorus.ocn.ne.jp" }, "geometry": { "type": "Point", "coordinates": [ 132.103743857001433, 34.910485648962869 ] } },
{ "type": "Feature", "properties": { "内容": "やまねこデイサービス【地域密着型通所介護】島根県出雲市芦渡町789-2", "url": "https://www.kaigokensaku.mhlw.go.jp/32/index.php?action_kouhyou_detail_004_kani=true&JigyosyoCd=3290400807-00&ServiceCd=780&Type=search", "url2": null }, "geometry": { "type": "Point", "coordinates": [ 132.727903, 35.3411306 ] } },
{ "type": "Feature", "properties": { "内容": "穂なみデイサービスセンターみなみ【地域密着型通所介護】里方町116番地", "url": "https://www.kaigokensaku.mhlw.go.jp/32/index.php?action_kouhyou_detail_004_kani=true&JigyosyoCd=3290400724-00&ServiceCd=780&Type=search", "url2": "http://cs-izumo.jp/" }, "geometry": { "type": "Point", "coordinates": [ 132.74349380000001, 35.3921958 ] } },
{ "type": "Feature", "properties": { "内容": "ひかわ生協デイサービス　ふらみんご【地域密着型通所介護】島根県出雲市斐川町直江４８８３番地１", "url": "https://www.kaigokensaku.mhlw.go.jp/32/index.php?action_kouhyou_detail_004_kani=true&JigyosyoCd=3271600656-00&ServiceCd=780&Type=search", "url2": "http://www.hikawa-hp.com" }, "geometry": { "type": "Point", "coordinates": [ 132.823334700000032, 35.3927886 ] } },
{ "type": "Feature", "properties": { "内容": "連珠　出雲四絡【地域密着型通所介護】島根県出雲市小山町633-1", "url": "https://www.kaigokensaku.mhlw.go.jp/32/index.php?action_kouhyou_detail_004_kani=true&JigyosyoCd=3290400732-00&ServiceCd=780&Type=search", "url2": null }, "geometry": { "type": "Point", "coordinates": [ 132.7458026, 35.375242 ] } },
{ "type": "Feature", "properties": { "内容": "デイサービスセンター高砂【地域密着型通所介護】島根県出雲市今市町822番地22", "url": "https://www.kaigokensaku.mhlw.go.jp/32/index.php?action_kouhyou_detail_004_kani=true&JigyosyoCd=3290400716-00&ServiceCd=780&Type=search", "url2": null }, "geometry": { "type": "Point", "coordinates": [ 132.75287, 35.3628667 ] } },
{ "type": "Feature", "properties": { "内容": "デイサービスセンター翔雲【地域密着型通所介護】島根県出雲市今市町822-22", "url": "https://www.kaigokensaku.mhlw.go.jp/32/index.php?action_kouhyou_detail_004_kani=true&JigyosyoCd=3290400765-00&ServiceCd=780&Type=search", "url2": null }, "geometry": { "type": "Point", "coordinates": [ 132.752866, 35.3628765 ] } },
{ "type": "Feature", "properties": { "内容": "デイサービスゆうゆう広場【地域密着型通所介護】知井宮町５－１", "url": "https://www.kaigokensaku.mhlw.go.jp/32/index.php?action_kouhyou_detail_004_kani=true&JigyosyoCd=3270401650-00&ServiceCd=780&Type=search", "url2": "https://eikoh-elc.com" }, "geometry": { "type": "Point", "coordinates": [ 132.716263799999979, 35.3388068 ] } },
{ "type": "Feature", "properties": { "内容": "フロディいずも【地域密着型通所介護】塩冶有原町５丁目３６番地", "url": "https://www.kaigokensaku.mhlw.go.jp/32/index.php?action_kouhyou_detail_004_kani=true&JigyosyoCd=3290400583-00&ServiceCd=780&Type=search", "url2": null }, "geometry": { "type": "Point", "coordinates": [ 132.747029700000013, 35.35781930000001 ] } },
{ "type": "Feature", "properties": { "内容": "穂なみデイサービスセンターひかわ【地域密着型通所介護】島根県出雲市斐川町上直江２４３－３", "url": "https://www.kaigokensaku.mhlw.go.jp/32/index.php?action_kouhyou_detail_004_kani=true&JigyosyoCd=3290400674-00&ServiceCd=780&Type=search", "url2": "http://cs-izumo.jp/" }, "geometry": { "type": "Point", "coordinates": [ 132.807716, 35.3867696 ] } },
{ "type": "Feature", "properties": { "内容": "穂なみデイサービスセンターひらた【地域密着型通所介護】島根県出雲市平田町1953－3", "url": "https://www.kaigokensaku.mhlw.go.jp/32/index.php?action_kouhyou_detail_004_kani=true&JigyosyoCd=3290400757-00&ServiceCd=780&Type=search", "url2": null }, "geometry": { "type": "Point", "coordinates": [ 132.8187485, 35.4257875 ] } },
{ "type": "Feature", "properties": { "内容": "アクティブDAYいぶき【地域密着型通所介護】島根県出雲市斐川町学頭1511-1", "url": "https://www.kaigokensaku.mhlw.go.jp/32/index.php?action_kouhyou_detail_004_kani=true&JigyosyoCd=3290400740-00&ServiceCd=780&Type=search", "url2": "http://www.kintarounoie.jp" }, "geometry": { "type": "Point", "coordinates": [ 132.872225180687025, 35.390407392612239 ] } },
{ "type": "Feature", "properties": { "内容": "デイサービス金太郎の家やまぶき【地域密着型通所介護】島根県出雲市斐川町学頭1511番地1金太郎の家", "url": "https://www.kaigokensaku.mhlw.go.jp/32/index.php?action_kouhyou_detail_004_kani=true&JigyosyoCd=3270402419-00&ServiceCd=780&Type=search", "url2": "http://www.kintarounoie.jp/" }, "geometry": { "type": "Point", "coordinates": [ 132.872239417999225, 35.390455057218105 ] } },
{ "type": "Feature", "properties": { "内容": "デイサービス　さくら【地域密着型通所介護】矢尾町273番地プライム有限会社", "url": "https://www.kaigokensaku.mhlw.go.jp/32/index.php?action_kouhyou_detail_004_kani=true&JigyosyoCd=3270402641-00&ServiceCd=780&Type=search", "url2": "http://prime-conpany.jp" }, "geometry": { "type": "Point", "coordinates": [ 132.740964399999939, 35.3955927 ] } },
{ "type": "Feature", "properties": { "内容": "ウェルファ出雲デイサービスセンターかえで【地域密着型通所介護】島根県出雲市塩冶神前１－６－２７CASA神前１階", "url": "https://www.kaigokensaku.mhlw.go.jp/32/index.php?action_kouhyou_detail_004_kani=true&JigyosyoCd=3270402666-00&ServiceCd=780&Type=search", "url2": null }, "geometry": { "type": "Point", "coordinates": [ 132.752523900000028, 35.3494177 ] } },
{ "type": "Feature", "properties": { "内容": "デイサービス　グッドライフ【地域密着型通所介護】島根県出雲市塩冶善行町14-3", "url": "https://www.kaigokensaku.mhlw.go.jp/32/index.php?action_kouhyou_detail_004_kani=true&JigyosyoCd=3270402120-00&ServiceCd=780&Type=search", "url2": "http://www.cosmos-izumo.jp" }, "geometry": { "type": "Point", "coordinates": [ 132.7539041, 35.3582639 ] } },
{ "type": "Feature", "properties": { "内容": "デイサービスMILK新【地域密着型通所介護】島根県出雲市斐川町上庄原1649番地", "url": "https://www.kaigokensaku.mhlw.go.jp/32/index.php?action_kouhyou_detail_004_kani=true&JigyosyoCd=3290400526-00&ServiceCd=780&Type=search", "url2": null }, "geometry": { "type": "Point", "coordinates": [ 132.840708100000029, 35.3917111 ] } },
{ "type": "Feature", "properties": { "内容": "ハピネデイサービスセンター出雲【地域密着型通所介護】出雲市渡橋町303番地3", "url": "https://www.kaigokensaku.mhlw.go.jp/32/index.php?action_kouhyou_detail_004_kani=true&JigyosyoCd=3270400538-00&ServiceCd=780&Type=search", "url2": "http://www.hapine.com" }, "geometry": { "type": "Point", "coordinates": [ 132.745179499999949, 35.3682208 ] } },
{ "type": "Feature", "properties": { "内容": "デイサービス新川【地域密着型通所介護】島根県出雲市斐川町大字上庄原字上新川1634番地5", "url": "https://www.kaigokensaku.mhlw.go.jp/32/index.php?action_kouhyou_detail_004_kani=true&JigyosyoCd=3271600664-00&ServiceCd=780&Type=search", "url2": "http://www.h-ikkou.co.jp" }, "geometry": { "type": "Point", "coordinates": [ 132.831178101104797, 35.388099814518377 ] } },
{ "type": "Feature", "properties": { "内容": "デイサービス　ゆうらいふ【地域密着型通所介護】島根県出雲市荒茅町3501", "url": "https://www.kaigokensaku.mhlw.go.jp/32/index.php?action_kouhyou_detail_004_kani=true&JigyosyoCd=3270401437-00&ServiceCd=780&Type=search", "url2": "http://youlife-n.com" }, "geometry": { "type": "Point", "coordinates": [ 132.693467899999973, 35.3617234 ] } },
{ "type": "Feature", "properties": { "内容": "あんのんの里川跡【地域密着型通所介護】荻杼町666-1", "url": "https://www.kaigokensaku.mhlw.go.jp/32/index.php?action_kouhyou_detail_004_kani=true&JigyosyoCd=3270402138-00&ServiceCd=780&Type=search", "url2": null }, "geometry": { "type": "Point", "coordinates": [ 132.763229799999976, 35.3822363 ] } },
{ "type": "Feature", "properties": { "内容": "あんのん【地域密着型通所介護】島根県出雲市荻杼町519-1北陽ビル1Ｆ", "url": "https://www.kaigokensaku.mhlw.go.jp/32/index.php?action_kouhyou_detail_004_kani=true&JigyosyoCd=3290400625-00&ServiceCd=780&Type=search", "url2": null }, "geometry": { "type": "Point", "coordinates": [ 132.7661372, 35.3839619 ] } },
{ "type": "Feature", "properties": { "内容": "あんのん大社【地域密着型通所介護】島根県出雲市大社町杵築西1735", "url": "https://www.kaigokensaku.mhlw.go.jp/32/index.php?action_kouhyou_detail_004_kani=true&JigyosyoCd=3290400799-00&ServiceCd=780&Type=search", "url2": null }, "geometry": { "type": "Point", "coordinates": [ 132.6758293, 35.3903644 ] } },
{ "type": "Feature", "properties": { "内容": "ココ・リハ平田【地域密着型通所介護】島根県出雲市西平田町104番地3", "url": "https://www.kaigokensaku.mhlw.go.jp/32/index.php?action_kouhyou_detail_004_kani=true&JigyosyoCd=3270402336-00&ServiceCd=780&Type=search", "url2": null }, "geometry": { "type": "Point", "coordinates": [ 132.815386399999966, 35.4305402 ] } },
{ "type": "Feature", "properties": { "内容": "社会福祉法人やまゆり　通所やまゆり【地域密着型通所介護】島根県出雲市佐田町一窪田1961番地５", "url": "https://www.kaigokensaku.mhlw.go.jp/32/index.php?action_kouhyou_detail_004_kani=true&JigyosyoCd=3270401361-00&ServiceCd=780&Type=search", "url2": "http://www.izumo-yamayuri.or.jp" }, "geometry": { "type": "Point", "coordinates": [ 132.6715034, 35.2338617 ] } },
{ "type": "Feature", "properties": { "内容": "通所　かがやきの家【地域密着型通所介護】島根県出雲市佐田町須佐736番地2", "url": "https://www.kaigokensaku.mhlw.go.jp/32/index.php?action_kouhyou_detail_004_kani=true&JigyosyoCd=3270401403-00&ServiceCd=780&Type=search", "url2": "http://www.izumo-yamayuri.or.jp" }, "geometry": { "type": "Point", "coordinates": [ 132.7355983, 35.2356074 ] } },
{ "type": "Feature", "properties": { "内容": "稗原デイサービスセンター　やまゆり【地域密着型通所介護】島根県出雲市稗原町1724番地", "url": "https://www.kaigokensaku.mhlw.go.jp/32/index.php?action_kouhyou_detail_004_kani=true&JigyosyoCd=3290400708-00&ServiceCd=780&Type=search", "url2": "http://www.izumo-yamayuri.or.jp" }, "geometry": { "type": "Point", "coordinates": [ 132.802745, 35.305691 ] } },
{ "type": "Feature", "properties": { "内容": "社会福祉法人静和会プライム清流園デイサービスセンター【地域密着型通所介護】島根県出雲市大津町3529", "url": "https://www.kaigokensaku.mhlw.go.jp/32/index.php?action_kouhyou_detail_004_kani=true&JigyosyoCd=3290400773-00&ServiceCd=780&Type=search", "url2": "https://www.seiryuuen.com/page533016.html" }, "geometry": { "type": "Point", "coordinates": [ 132.783661200000012, 35.3592597 ] } },
{ "type": "Feature", "properties": { "内容": "ケアサポート　相生【地域密着型通所介護】出雲市今市町７４１－５", "url": "https://www.kaigokensaku.mhlw.go.jp/32/index.php?action_kouhyou_detail_004_kani=true&JigyosyoCd=3270401114-00&ServiceCd=780&Type=search", "url2": "http://jukokai.jp/" }, "geometry": { "type": "Point", "coordinates": [ 132.754484400000024, 35.3643937 ] } },
{ "type": "Feature", "properties": { "内容": "NPO法人たすけあい平田デイサービスセンターさわやか【地域密着型通所介護】島根県出雲市西代町1032-4", "url": "https://www.kaigokensaku.mhlw.go.jp/32/index.php?action_kouhyou_detail_004_kani=true&JigyosyoCd=3270402781-00&ServiceCd=780&Type=search", "url2": "http://www.npo.lsnet.ne.jp/tasukeaihirata/" }, "geometry": { "type": "Point", "coordinates": [ 132.818367099999932, 35.4219633 ] } },
{ "type": "Feature", "properties": { "内容": "えきまえデイサービス　夢のむら【地域密着型通所介護】出雲市塩冶町　980-3", "url": "https://www.kaigokensaku.mhlw.go.jp/32/index.php?action_kouhyou_detail_004_kani=true&JigyosyoCd=3270401171-00&ServiceCd=780&Type=search", "url2": "https://care-service-izumo.biz/" }, "geometry": { "type": "Point", "coordinates": [ 132.755866757621789, 35.354909075187969 ] } },
{ "type": "Feature", "properties": { "内容": "デイサービス寿生の家【地域密着型通所介護】出雲市上塩冶町2854-5", "url": "https://www.kaigokensaku.mhlw.go.jp/32/index.php?action_kouhyou_detail_004_kani=true&JigyosyoCd=3270401411-00&ServiceCd=780&Type=search", "url2": "http://www.juseikai.jp" }, "geometry": { "type": "Point", "coordinates": [ 132.776860676057368, 35.354665436440563 ] } },
{ "type": "Feature", "properties": { "内容": "デイサービス　こひまり【地域密着型通所介護】島根県出雲市馬木町224-1", "url": "https://www.kaigokensaku.mhlw.go.jp/32/index.php?action_kouhyou_detail_004_kani=true&JigyosyoCd=3290400567-00&ServiceCd=780&Type=search", "url2": null }, "geometry": { "type": "Point", "coordinates": [ 132.765814500000033, 35.3331756 ] } },
{ "type": "Feature", "properties": { "内容": "ﾃﾞｲｻｰﾋﾞｽ　ひまり【地域密着型通所介護】出雲市馬木町７５８番地２", "url": "https://www.kaigokensaku.mhlw.go.jp/32/index.php?action_kouhyou_detail_004_kani=true&JigyosyoCd=3270402047-00&ServiceCd=780&Type=search", "url2": null }, "geometry": { "type": "Point", "coordinates": [ 132.76663659999997, 35.3329924 ] } },
{ "type": "Feature", "properties": { "内容": "デイサービスもくれん・荒茅【地域密着型通所介護】出雲市荒茅町2780番地32", "url": "https://www.kaigokensaku.mhlw.go.jp/32/index.php?action_kouhyou_detail_004_kani=true&JigyosyoCd=3270401965-00&ServiceCd=780&Type=search", "url2": "izumo-mokuren.com" }, "geometry": { "type": "Point", "coordinates": [ 132.699542400000041, 35.3606902 ] } },
{ "type": "Feature", "properties": { "内容": "デイサービスもくれん【地域密着型通所介護】出雲市松寄下町1286－1", "url": "https://www.kaigokensaku.mhlw.go.jp/32/index.php?action_kouhyou_detail_004_kani=true&JigyosyoCd=3270401528-00&ServiceCd=780&Type=search", "url2": "https://www.izumo-mokuren.com/" }, "geometry": { "type": "Point", "coordinates": [ 132.717982200000051, 35.3629012 ] } },
{ "type": "Feature", "properties": { "内容": "デイサービス　なすの花【地域密着型通所介護】島根県出雲市白枝町７８１－８", "url": "https://www.kaigokensaku.mhlw.go.jp/32/index.php?action_kouhyou_detail_004_kani=true&JigyosyoCd=3270401635-00&ServiceCd=780&Type=search", "url2": null }, "geometry": { "type": "Point", "coordinates": [ 132.730361600000037, 35.3632126 ] } },
{ "type": "Feature", "properties": { "内容": "出雲市里家センター【地域密着型通所介護】出雲市乙立町3162番地", "url": "https://www.kaigokensaku.mhlw.go.jp/32/index.php?action_kouhyou_detail_004_kani=true&JigyosyoCd=3270401551-00&ServiceCd=780&Type=search", "url2": null }, "geometry": { "type": "Point", "coordinates": [ 132.725339299999973, 35.2847589 ] } },
{ "type": "Feature", "properties": { "内容": "通所介護長浜味覚亭【地域密着型通所介護】出雲市西園町500番地1", "url": "https://www.kaigokensaku.mhlw.go.jp/32/index.php?action_kouhyou_detail_004_kani=true&JigyosyoCd=3270401288-00&ServiceCd=780&Type=search", "url2": null }, "geometry": { "type": "Point", "coordinates": [ 132.698737400000027, 35.3506829 ] } },
{ "type": "Feature", "properties": { "内容": "出東デイサービスセンター【地域密着型通所介護】島根県出雲市斐川町三分市1077", "url": "https://www.kaigokensaku.mhlw.go.jp/32/index.php?action_kouhyou_detail_004_kani=true&JigyosyoCd=3271600144-00&ServiceCd=780&Type=search", "url2": "https://syuttou-fukushikai.net/day/" }, "geometry": { "type": "Point", "coordinates": [ 132.847606399999989, 35.4149742 ] } },
{ "type": "Feature", "properties": { "内容": "デイサービス向日葵の家【地域密着型通所介護】出雲市斐川町荘原3169-28", "url": "https://www.kaigokensaku.mhlw.go.jp/32/index.php?action_kouhyou_detail_004_kani=true&JigyosyoCd=3271600565-00&ServiceCd=780&Type=search", "url2": "http://tsukasaizumo.html.xdomain.jp/index.html" }, "geometry": { "type": "Point", "coordinates": [ 132.865638900000022, 35.4015101 ] } },
{ "type": "Feature", "properties": { "内容": "介護予防センター　早稲田イーライフきらり【地域密着型通所介護】島根県出雲市湖陵町二部1192番地1", "url": "https://www.kaigokensaku.mhlw.go.jp/32/index.php?action_kouhyou_detail_004_kani=true&JigyosyoCd=3270401916-00&ServiceCd=780&Type=search", "url2": "http://www.h-sweet-home.com/" }, "geometry": { "type": "Point", "coordinates": [ 132.679410200000035, 35.322219 ] } },
{ "type": "Feature", "properties": { "内容": "介護予防センター　早稲田イーライフ出雲【地域密着型通所介護】大津新崎町1丁目29番地1", "url": "https://www.kaigokensaku.mhlw.go.jp/32/index.php?action_kouhyou_detail_004_kani=true&JigyosyoCd=3270402310-00&ServiceCd=780&Type=search", "url2": "http://www.h-sweet-home.com" }, "geometry": { "type": "Point", "coordinates": [ 132.766360599999985, 35.3702295 ] } },
{ "type": "Feature", "properties": { "内容": "茶話本舗デイサービス出雲【地域密着型通所介護】島根県出雲市大津新崎町5-38-1", "url": "https://www.kaigokensaku.mhlw.go.jp/32/index.php?action_kouhyou_detail_004_kani=true&JigyosyoCd=3270402534-00&ServiceCd=780&Type=search", "url2": "https://www.sawaizumo.com/" }, "geometry": { "type": "Point", "coordinates": [ 132.769724099999962, 35.3681548 ] } },
{ "type": "Feature", "properties": { "内容": "デイサービス　春の野【地域密着型通所介護】島根県出雲市小山町３３４番地板倉ビル１０３号室", "url": "https://www.kaigokensaku.mhlw.go.jp/32/index.php?action_kouhyou_detail_004_kani=true&JigyosyoCd=3290400781-00&ServiceCd=780&Type=search", "url2": "https://www.facebook.com/people/デイサービス春の野/100094930075195/" }, "geometry": { "type": "Point", "coordinates": [ 132.741440167049348, 35.373206757698469 ] } },
{ "type": "Feature", "properties": { "内容": "デイサービス「まほろば」【地域密着型通所介護】島根県益田市高津1丁目36-7", "url": "https://www.kaigokensaku.mhlw.go.jp/32/index.php?action_kouhyou_detail_004_kani=true&JigyosyoCd=3290800238-00&ServiceCd=780&Type=search", "url2": null }, "geometry": { "type": "Point", "coordinates": [ 131.821322, 34.6816496 ] } },
{ "type": "Feature", "properties": { "内容": "デイサービスなごみ【地域密着型通所介護】島根県益田市乙吉町イ322番地7", "url": "https://www.kaigokensaku.mhlw.go.jp/32/index.php?action_kouhyou_detail_004_kani=true&JigyosyoCd=3270801008-00&ServiceCd=780&Type=search", "url2": "https://ones-create.net/welfare/" }, "geometry": { "type": "Point", "coordinates": [ 131.84580475524271, 34.681765421390608 ] } },
{ "type": "Feature", "properties": { "内容": "デイサービスセンター　おりがみ【地域密着型通所介護】島根県益田市高津町イ2559-7デイサービスセンター　おりがみ", "url": "https://www.kaigokensaku.mhlw.go.jp/32/index.php?action_kouhyou_detail_004_kani=true&JigyosyoCd=3290800279-00&ServiceCd=780&Type=search", "url2": "https://akatsuki-hohoemi.jp/pages/264/" }, "geometry": { "type": "Point", "coordinates": [ 131.801742138249637, 34.687470950613623 ] } },
{ "type": "Feature", "properties": { "内容": "デイサービスセンター　ひぐらし苑【地域密着型通所介護】島根県益田市波田町イ584-1", "url": "https://www.kaigokensaku.mhlw.go.jp/32/index.php?action_kouhyou_detail_004_kani=true&JigyosyoCd=3270800927-00&ServiceCd=780&Type=search", "url2": null }, "geometry": { "type": "Point", "coordinates": [ 131.939483726983667, 34.63427553412285 ] } },
{ "type": "Feature", "properties": { "内容": "デイサービスセンター共楽苑【地域密着型通所介護】島根県益田市桂平町１０７番地３", "url": "https://www.kaigokensaku.mhlw.go.jp/32/index.php?action_kouhyou_detail_004_kani=true&JigyosyoCd=3270800091-00&ServiceCd=780&Type=search", "url2": "https://www.wakakusa-fukushikai.jp/kyorakuen/" }, "geometry": { "type": "Point", "coordinates": [ 131.726970715869129, 34.601169153657175 ] } },
{ "type": "Feature", "properties": { "内容": "匹見指定もみじ通所介護事業所【地域密着型通所介護】島根県益田市匹見町匹見イ１２０８", "url": "https://www.kaigokensaku.mhlw.go.jp/32/index.php?action_kouhyou_detail_004_kani=true&JigyosyoCd=3270800687-00&ServiceCd=780&Type=search", "url2": "http://masuda-shakyou.or.jp/" }, "geometry": { "type": "Point", "coordinates": [ 132.013184099999989, 34.5739761 ] } },
{ "type": "Feature", "properties": { "内容": "益田市立美都デイサービスセンター【地域密着型通所介護】島根県益田市美都町都茂1195番地", "url": "https://www.kaigokensaku.mhlw.go.jp/32/index.php?action_kouhyou_detail_004_kani=true&JigyosyoCd=3272000096-00&ServiceCd=780&Type=search", "url2": null }, "geometry": { "type": "Point", "coordinates": [ 131.984712300000012, 34.6673561 ] } },
{ "type": "Feature", "properties": { "内容": "匹見指定通所介護事業所【地域密着型通所介護】島根県益田市匹見町澄川イ277－1", "url": "https://www.kaigokensaku.mhlw.go.jp/32/index.php?action_kouhyou_detail_004_kani=true&JigyosyoCd=3270800612-00&ServiceCd=780&Type=search", "url2": "http://masuda-shakyou.or.jp/" }, "geometry": { "type": "Point", "coordinates": [ 131.954951299999948, 34.6059902 ] } },
{ "type": "Feature", "properties": { "内容": "益田市デイサービスセンター湖水園【地域密着型通所介護】島根県益田市高津六丁目１８－２５", "url": "https://www.kaigokensaku.mhlw.go.jp/32/index.php?action_kouhyou_detail_004_kani=true&JigyosyoCd=3290800147-00&ServiceCd=780&Type=search", "url2": "nemunoie.com" }, "geometry": { "type": "Point", "coordinates": [ 131.810697459524562, 34.687397756018299 ] } },
{ "type": "Feature", "properties": { "内容": "デイサービス　どんちっち【地域密着型通所介護】須子町１５番１６号", "url": "https://www.kaigokensaku.mhlw.go.jp/32/index.php?action_kouhyou_detail_004_kani=true&JigyosyoCd=3270800851-00&ServiceCd=780&Type=search", "url2": null }, "geometry": { "type": "Point", "coordinates": [ 131.829363740475429, 34.676402050582141 ] } },
{ "type": "Feature", "properties": { "内容": "デイサービスセンター　中吉田・しずかさんの家【地域密着型通所介護】島根県益田市中吉田町５０８番地４", "url": "https://www.kaigokensaku.mhlw.go.jp/32/index.php?action_kouhyou_detail_004_kani=true&JigyosyoCd=3270800661-00&ServiceCd=780&Type=search", "url2": "https://www.hinata-hyoma.com/" }, "geometry": { "type": "Point", "coordinates": [ 131.837134500000047, 34.6868908 ] } },
{ "type": "Feature", "properties": { "内容": "すこデイサービスとねりこ【地域密着型通所介護】島根県益田市須子町27-16", "url": "https://www.kaigokensaku.mhlw.go.jp/32/index.php?action_kouhyou_detail_004_kani=true&JigyosyoCd=3270800703-00&ServiceCd=780&Type=search", "url2": null }, "geometry": { "type": "Point", "coordinates": [ 131.825846700000056, 34.6762891 ] } },
{ "type": "Feature", "properties": { "内容": "すこデイサービス第２とねりこ【地域密着型通所介護】島根県益田市須子町イ３３４番地９", "url": "https://www.kaigokensaku.mhlw.go.jp/32/index.php?action_kouhyou_detail_004_kani=true&JigyosyoCd=3270800877-00&ServiceCd=780&Type=search", "url2": null }, "geometry": { "type": "Point", "coordinates": [ 131.826074492104311, 34.675916707224921 ] } },
{ "type": "Feature", "properties": { "内容": "花のある家中吉田邸【地域密着型通所介護】島根県益田市中吉田町953-3", "url": "https://www.kaigokensaku.mhlw.go.jp/32/index.php?action_kouhyou_detail_004_kani=true&JigyosyoCd=3270800919-00&ServiceCd=780&Type=search", "url2": null }, "geometry": { "type": "Point", "coordinates": [ 131.834895800000027, 34.6878074 ] } },
{ "type": "Feature", "properties": { "内容": "えびす【地域密着型通所介護】島根県益田市戸田町イ979番5", "url": "https://www.kaigokensaku.mhlw.go.jp/32/index.php?action_kouhyou_detail_004_kani=true&JigyosyoCd=3290800295-00&ServiceCd=780&Type=search", "url2": null }, "geometry": { "type": "Point", "coordinates": [ 131.744938709046892, 34.671650123974935 ] } },
{ "type": "Feature", "properties": { "内容": "幸久の家ディサービスセンター【地域密着型通所介護】大田市久利町久利６９１", "url": "https://www.kaigokensaku.mhlw.go.jp/32/index.php?action_kouhyou_detail_004_kani=true&JigyosyoCd=3270500188-00&ServiceCd=780&Type=search", "url2": "http:www.koukyuunoie.co.jp" }, "geometry": { "type": "Point", "coordinates": [ 132.474884800000041, 35.1509838 ] } },
{ "type": "Feature", "properties": { "内容": "デイサービスセンター　きれんげ【地域密着型通所介護】島根県大田市鳥井町鳥井1204番地", "url": "https://www.kaigokensaku.mhlw.go.jp/32/index.php?action_kouhyou_detail_004_kani=true&JigyosyoCd=3270500592-00&ServiceCd=780&Type=search", "url2": "http://kirenge.jp/" }, "geometry": { "type": "Point", "coordinates": [ 132.478971199999933, 35.2126272 ] } },
{ "type": "Feature", "properties": { "内容": "デイサービスセンターこころ路【地域密着型通所介護】島根県大田市静間町1241-6", "url": "https://www.kaigokensaku.mhlw.go.jp/32/index.php?action_kouhyou_detail_004_kani=true&JigyosyoCd=3270500659-00&ServiceCd=780&Type=search", "url2": null }, "geometry": { "type": "Point", "coordinates": [ 132.470928775671382, 35.192002478036329 ] } },
{ "type": "Feature", "properties": { "内容": "デイサービスセンターゆうイング【地域密着型通所介護】島根県大田市長久町土江55-2", "url": "https://www.kaigokensaku.mhlw.go.jp/32/index.php?action_kouhyou_detail_004_kani=true&JigyosyoCd=3290500143-00&ServiceCd=780&Type=search", "url2": null }, "geometry": { "type": "Point", "coordinates": [ 132.477448399999986, 35.1950437 ] } },
{ "type": "Feature", "properties": { "内容": "リハビリデイサービスnagomi大田店【地域密着型通所介護】島根県大田市長久町長久イ506-1", "url": "https://www.kaigokensaku.mhlw.go.jp/32/index.php?action_kouhyou_detail_004_kani=true&JigyosyoCd=3270500550-00&ServiceCd=780&Type=search", "url2": "http://www.my-nagomi.com/" }, "geometry": { "type": "Point", "coordinates": [ 132.486711470500154, 35.198212865588978 ] } },
{ "type": "Feature", "properties": { "内容": "デイサービス　李づみ野【地域密着型通所介護】大田町大田ロ204-18", "url": "https://www.kaigokensaku.mhlw.go.jp/32/index.php?action_kouhyou_detail_004_kani=true&JigyosyoCd=3270500642-00&ServiceCd=780&Type=search", "url2": null }, "geometry": { "type": "Point", "coordinates": [ 132.520285699999988, 35.184582399999989 ] } },
{ "type": "Feature", "properties": { "内容": "しらさぎ苑ﾃﾞｲｻｰﾋﾞｽｾﾝﾀｰ【地域密着型通所介護】島根県安来市古川町835-1", "url": "https://www.kaigokensaku.mhlw.go.jp/32/index.php?action_kouhyou_detail_004_kani=true&JigyosyoCd=3270200169-00&ServiceCd=780&Type=search", "url2": "http://www.sirasagi-yasugi.or.jp" }, "geometry": { "type": "Point", "coordinates": [ 133.197212600000057, 35.3755269 ] } },
{ "type": "Feature", "properties": { "内容": "デイサービスふれあい【地域密着型通所介護】島根県安来市飯島町1205-1", "url": "https://www.kaigokensaku.mhlw.go.jp/32/index.php?action_kouhyou_detail_004_kani=true&JigyosyoCd=3290200181-00&ServiceCd=780&Type=search", "url2": "https://signpost-llc.com/" }, "geometry": { "type": "Point", "coordinates": [ 133.2480325, 35.4323278 ] } },
{ "type": "Feature", "properties": { "内容": "介護支援センター和み館【地域密着型通所介護】安来市飯島町字横屋１８９－１", "url": "https://www.kaigokensaku.mhlw.go.jp/32/index.php?action_kouhyou_detail_004_kani=true&JigyosyoCd=3270200359-00&ServiceCd=780&Type=search", "url2": "thhp://www.so-unkai.jp/" }, "geometry": { "type": "Point", "coordinates": [ 133.2491652, 35.4328726 ] } },
{ "type": "Feature", "properties": { "内容": "比田デイサービスセンター【地域密着型通所介護】安来市広瀬町西比田1445-6", "url": "https://www.kaigokensaku.mhlw.go.jp/32/index.php?action_kouhyou_detail_004_kani=true&JigyosyoCd=3271200085-00&ServiceCd=780&Type=search", "url2": "http://amago-taiyo.jo/" }, "geometry": { "type": "Point", "coordinates": [ 133.1302634, 35.2389209 ] } },
{ "type": "Feature", "properties": { "内容": "レッツ倶楽部安来中央【地域密着型通所介護】安来町757-4ヤマダヤビル1F", "url": "https://www.kaigokensaku.mhlw.go.jp/32/index.php?action_kouhyou_detail_004_kani=true&JigyosyoCd=3270200391-00&ServiceCd=780&Type=search", "url2": "075-00@lets-culb.info" }, "geometry": { "type": "Point", "coordinates": [ 133.246898900000019, 35.426125800000015 ] } },
{ "type": "Feature", "properties": { "内容": "そうえんデイサービス【地域密着型通所介護】島根県江津市都野津町2371-15", "url": "https://www.kaigokensaku.mhlw.go.jp/32/index.php?action_kouhyou_detail_004_kani=true&JigyosyoCd=3270600509-00&ServiceCd=780&Type=search", "url2": null }, "geometry": { "type": "Point", "coordinates": [ 132.185126, 34.9846645 ] } },
{ "type": "Feature", "properties": { "内容": "デイサービスセンター　有福【地域密着型通所介護】島根県江津市有福温泉町546", "url": "https://www.kaigokensaku.mhlw.go.jp/32/index.php?action_kouhyou_detail_004_kani=true&JigyosyoCd=3290600133-00&ServiceCd=780&Type=search", "url2": "http://www.arifuku-home.jp/" }, "geometry": { "type": "Point", "coordinates": [ 132.1983244, 34.9450919 ] } },
{ "type": "Feature", "properties": { "内容": "桜寿園デイサービスセンター【地域密着型通所介護】島根県江津市桜江町小田138番地1桜江高齢者生活福祉センター　桜寿園", "url": "https://www.kaigokensaku.mhlw.go.jp/32/index.php?action_kouhyou_detail_004_kani=true&JigyosyoCd=3271800363-00&ServiceCd=780&Type=search", "url2": "ｈｔｔp://www.sakuraefukushikai.jp/" }, "geometry": { "type": "Point", "coordinates": [ 132.3296258, 34.9502121 ] } },
{ "type": "Feature", "properties": { "内容": "陽光苑デイサービスセンター【地域密着型通所介護】島根県江津市桜江町長谷2723番地2特別養護老人ホーム風の里　陽光苑", "url": "https://www.kaigokensaku.mhlw.go.jp/32/index.php?action_kouhyou_detail_004_kani=true&JigyosyoCd=3271800371-00&ServiceCd=780&Type=search", "url2": "http://.www.sakuraefukushikai.jp" }, "geometry": { "type": "Point", "coordinates": [ 132.270259399999986, 34.9221032 ] } },
{ "type": "Feature", "properties": { "内容": "デイホームまったり【地域密着型通所介護】島根県江津市嘉久志町イ1249-12", "url": "https://www.kaigokensaku.mhlw.go.jp/32/index.php?action_kouhyou_detail_004_kani=true&JigyosyoCd=3270600533-00&ServiceCd=780&Type=search", "url2": "mattari2209@outlook.jp" }, "geometry": { "type": "Point", "coordinates": [ 132.216113600000028, 35.0101863 ] } },
{ "type": "Feature", "properties": { "内容": "カルチャーセンター　あおぞら【地域密着型通所介護】島根県雲南市大東町下阿用４８９番地", "url": "https://www.kaigokensaku.mhlw.go.jp/32/index.php?action_kouhyou_detail_004_kani=true&JigyosyoCd=3271400529-00&ServiceCd=780&Type=search", "url2": "http://aozora-fukushi.jp/" }, "geometry": { "type": "Point", "coordinates": [ 132.971089099999972, 35.3178149 ] } },
{ "type": "Feature", "properties": { "内容": "デイサービスセンター　あおぞらの家【地域密着型通所介護】島根県雲南市大東町東阿用83番地1", "url": "https://www.kaigokensaku.mhlw.go.jp/32/index.php?action_kouhyou_detail_004_kani=true&JigyosyoCd=3271400180-00&ServiceCd=780&Type=search", "url2": "http://www.aozora-fukushi.jp/" }, "geometry": { "type": "Point", "coordinates": [ 132.9685663, 35.3059159 ] } },
{ "type": "Feature", "properties": { "内容": "社会福祉法人　よしだ福祉会　ケアポートよしだ【地域密着型通所介護】雲南市吉田町深野84番地6", "url": "https://www.kaigokensaku.mhlw.go.jp/32/index.php?action_kouhyou_detail_004_kani=true&JigyosyoCd=3271500211-00&ServiceCd=780&Type=search", "url2": "https://yoshida-fukushikai.jp/" }, "geometry": { "type": "Point", "coordinates": [ 132.915962700000023, 35.2038261 ] } },
{ "type": "Feature", "properties": { "内容": "ひかりサロン雲南【地域密着型通所介護】島根県雲南市木次町里方30-2マルシェリーズ２階", "url": "https://www.kaigokensaku.mhlw.go.jp/32/index.php?action_kouhyou_detail_004_kani=true&JigyosyoCd=3291400228-00&ServiceCd=780&Type=search", "url2": "https://hikarisalon-unnan.studio.site/" }, "geometry": { "type": "Point", "coordinates": [ 132.9013151, 35.295471 ] } },
{ "type": "Feature", "properties": { "内容": "株式会社　アミーゴ島根　デイサービスだんだん【地域密着型通所介護】雲南市三刀屋町伊萱４０－６", "url": "https://www.kaigokensaku.mhlw.go.jp/32/index.php?action_kouhyou_detail_004_kani=true&JigyosyoCd=3271500351-00&ServiceCd=780&Type=search", "url2": "http://www.amigo-shimane.jp" }, "geometry": { "type": "Point", "coordinates": [ 132.889403099999981, 35.3209237 ] } },
{ "type": "Feature", "properties": { "内容": "デイサービスセンター　うしお湯治村【地域密着型通所介護】島根県雲南市大東町中湯石４５９番地", "url": "https://www.kaigokensaku.mhlw.go.jp/32/index.php?action_kouhyou_detail_004_kani=true&JigyosyoCd=3271400537-00&ServiceCd=780&Type=search", "url2": "http:www.amigo-shimane.co.jp" }, "geometry": { "type": "Point", "coordinates": [ 133.008743517968696, 35.325633867370115 ] } },
{ "type": "Feature", "properties": { "内容": "ふれあいセンター通所介護事業所【地域密着型通所介護】島根県雲南市掛合町入間482－3", "url": "https://www.kaigokensaku.mhlw.go.jp/32/index.php?action_kouhyou_detail_004_kani=true&JigyosyoCd=3291400012-00&ServiceCd=780&Type=search", "url2": "http;//unnanshakyo.jp/" }, "geometry": { "type": "Point", "coordinates": [ 132.782430799999986, 35.1488571 ] } },
{ "type": "Feature", "properties": { "内容": "仁多デイサービスセンター【地域密着型通所介護】島根県仁多郡奥出雲町三成226", "url": "https://www.kaigokensaku.mhlw.go.jp/32/index.php?action_kouhyou_detail_004_kani=true&JigyosyoCd=3271300117-00&ServiceCd=780&Type=search", "url2": null }, "geometry": { "type": "Point", "coordinates": [ 132.999328600000013, 35.2003485 ] } },
{ "type": "Feature", "properties": { "内容": "デイサービスセンターほのぼの【地域密着型通所介護】島根県仁多郡奥出雲町稲原57番地６", "url": "https://www.kaigokensaku.mhlw.go.jp/32/index.php?action_kouhyou_detail_004_kani=true&JigyosyoCd=3271300083-00&ServiceCd=780&Type=search", "url2": "http://www.yokota.or.jp" }, "geometry": { "type": "Point", "coordinates": [ 133.098007277909886, 35.175954136872235 ] } },
{ "type": "Feature", "properties": { "内容": "デイサービスセンター　にこにこ【地域密着型通所介護】奥出雲町稲原57番地1", "url": "https://www.kaigokensaku.mhlw.go.jp/32/index.php?action_kouhyou_detail_004_kani=true&JigyosyoCd=3271300091-00&ServiceCd=780&Type=search", "url2": "http://www.yokota.or.jp" }, "geometry": { "type": "Point", "coordinates": [ 133.09752990000004, 35.1763198 ] } },
{ "type": "Feature", "properties": { "内容": "デイサービスよこたの郷【地域密着型通所介護】島根県仁多郡奥出雲町下横田27-1", "url": "https://www.kaigokensaku.mhlw.go.jp/32/index.php?action_kouhyou_detail_004_kani=true&JigyosyoCd=3271300141-00&ServiceCd=780&Type=search", "url2": "http://www.qualitylife-jp.com" }, "geometry": { "type": "Point", "coordinates": [ 133.088697300000035, 35.177353 ] } },
{ "type": "Feature", "properties": { "内容": "ディサービスセンターさんさん【地域密着型通所介護】島根県仁多郡奥出雲町横田1009-6シェアハウス1F", "url": "https://www.kaigokensaku.mhlw.go.jp/32/index.php?action_kouhyou_detail_004_kani=true&JigyosyoCd=3271300208-00&ServiceCd=780&Type=search", "url2": null }, "geometry": { "type": "Point", "coordinates": [ 133.0907221, 35.1789556 ] } },
{ "type": "Feature", "properties": { "内容": "デイサービス奥出雲　ふるさとの家【地域密着型通所介護】下横田893", "url": "https://www.kaigokensaku.mhlw.go.jp/32/index.php?action_kouhyou_detail_004_kani=true&JigyosyoCd=3291300055-00&ServiceCd=780&Type=search", "url2": null }, "geometry": { "type": "Point", "coordinates": [ 133.082453799999939, 35.1679206 ] } },
{ "type": "Feature", "properties": { "内容": "飯南町社会福祉協議会　地域密着型通所介護事業所【地域密着型通所介護】野萱1826-2", "url": "https://www.kaigokensaku.mhlw.go.jp/32/index.php?action_kouhyou_detail_004_kani=true&JigyosyoCd=3271500112-00&ServiceCd=780&Type=search", "url2": "http://www.iinanshakyo.com" }, "geometry": { "type": "Point", "coordinates": [ 132.7432207, 35.0294015 ] } },
{ "type": "Feature", "properties": { "内容": "頓原デイサービスセンター【地域密着型通所介護】飯石郡飯南町佐見47番地2", "url": "https://www.kaigokensaku.mhlw.go.jp/32/index.php?action_kouhyou_detail_004_kani=true&JigyosyoCd=3271500237-00&ServiceCd=780&Type=search", "url2": "http://www.uaikai.jp/" }, "geometry": { "type": "Point", "coordinates": [ 132.777229900000066, 35.0795149 ] } },
{ "type": "Feature", "properties": { "内容": "デイサービスセンターまごのて【地域密着型通所介護】飯石郡飯南町下赤名116番地１", "url": "https://www.kaigokensaku.mhlw.go.jp/32/index.php?action_kouhyou_detail_004_kani=true&JigyosyoCd=3271500369-00&ServiceCd=780&Type=search", "url2": null }, "geometry": { "type": "Point", "coordinates": [ 132.720901, 35.0111586 ] } },
{ "type": "Feature", "properties": { "内容": "楽屋【地域密着型通所介護】島根県邑智郡邑南町3207番地6", "url": "https://www.kaigokensaku.mhlw.go.jp/32/index.php?action_kouhyou_detail_004_kani=true&JigyosyoCd=3271800652-00&ServiceCd=780&Type=search", "url2": null }, "geometry": { "type": "Point", "coordinates": [ 132.461578499999973, 34.906932 ] } },
{ "type": "Feature", "properties": { "内容": "デイサービスセンター　希翔会【地域密着型通所介護】島根県鹿足郡津和野町後田ロ431", "url": "https://www.kaigokensaku.mhlw.go.jp/32/index.php?action_kouhyou_detail_004_kani=true&JigyosyoCd=3272100375-00&ServiceCd=780&Type=search", "url2": "kisyoukai-tuwano.webnode.jp" }, "geometry": { "type": "Point", "coordinates": [ 131.7761352, 34.4703045 ] } },
{ "type": "Feature", "properties": { "内容": "デイサービスセンター希翔会　2号館【地域密着型通所介護】島根県　鹿足郡　津和野町　森村イ605", "url": "https://www.kaigokensaku.mhlw.go.jp/32/index.php?action_kouhyou_detail_004_kani=true&JigyosyoCd=3272100409-00&ServiceCd=780&Type=search", "url2": "https://kisyoukai-tuwano.webnode.jp/" }, "geometry": { "type": "Point", "coordinates": [ 131.774055, 34.4648106 ] } },
{ "type": "Feature", "properties": { "内容": "つわぶきデイホーム【地域密着型通所介護】島根県鹿足郡津和野町中座ロ66", "url": "https://www.kaigokensaku.mhlw.go.jp/32/index.php?action_kouhyou_detail_004_kani=true&JigyosyoCd=3272100201-00&ServiceCd=780&Type=search", "url2": "dayhome＠sun-net.jp" }, "geometry": { "type": "Point", "coordinates": [ 131.76908370000001, 34.455480799999989 ] } },
{ "type": "Feature", "properties": { "内容": "つわぶきデイホーム➂【地域密着型通所介護】島根県鹿足郡津和野町町田イ82", "url": "https://www.kaigokensaku.mhlw.go.jp/32/index.php?action_kouhyou_detail_004_kani=true&JigyosyoCd=3272100276-00&ServiceCd=780&Type=search", "url2": "dayhome＠sun-net.jp" }, "geometry": { "type": "Point", "coordinates": [ 131.7716, 34.4585917 ] } },
{ "type": "Feature", "properties": { "内容": "つわの指定通所介護事業所【地域密着型通所介護】島根県鹿足郡津和野町後田ロ１２６番地", "url": "https://www.kaigokensaku.mhlw.go.jp/32/index.php?action_kouhyou_detail_004_kani=true&JigyosyoCd=3272100102-00&ServiceCd=780&Type=search", "url2": "https://silverleaf-tsuwano.com/" }, "geometry": { "type": "Point", "coordinates": [ 131.775328683992029, 34.467452260900394 ] } },
{ "type": "Feature", "properties": { "内容": "にちはらデイサービスセンター【地域密着型通所介護】島根県鹿足郡津和野町日原50番地2", "url": "https://www.kaigokensaku.mhlw.go.jp/32/index.php?action_kouhyou_detail_004_kani=true&JigyosyoCd=3272100086-00&ServiceCd=780&Type=search", "url2": "http://nichihara-hoshinosato.org" }, "geometry": { "type": "Point", "coordinates": [ 131.8390857, 34.5429964 ] } },
{ "type": "Feature", "properties": { "内容": "柿木村デイサービスセンター【地域密着型通所介護】島根県鹿足郡吉賀町柿木８０番地1", "url": "https://www.kaigokensaku.mhlw.go.jp/32/index.php?action_kouhyou_detail_004_kani=true&JigyosyoCd=3272100185-00&ServiceCd=780&Type=search", "url2": null }, "geometry": { "type": "Point", "coordinates": [ 131.8675279, 34.4366893 ] } },
{ "type": "Feature", "properties": { "内容": "七日市デイサービスセンター【地域密着型通所介護】島根県鹿足郡吉賀町七日市942番地5", "url": "https://www.kaigokensaku.mhlw.go.jp/32/index.php?action_kouhyou_detail_004_kani=true&JigyosyoCd=3272100219-00&ServiceCd=780&Type=search", "url2": "http://www.yoshika‐shakyo.jp/" }, "geometry": { "type": "Point", "coordinates": [ 131.890686599999981, 34.3885443 ] } },
{ "type": "Feature", "properties": { "内容": "福来の里ﾃﾞｲｻｰﾋﾞｽｾﾝﾀｰ【地域密着型通所介護】島根県隠岐郡海士町大字海士1470番地1", "url": "https://www.kaigokensaku.mhlw.go.jp/32/index.php?action_kouhyou_detail_004_kani=true&JigyosyoCd=3272200829-00&ServiceCd=780&Type=search", "url2": "https://www.amasyakyo.com/" }, "geometry": { "type": "Point", "coordinates": [ 133.0945379, 36.0961516 ] } },
{ "type": "Feature", "properties": { "内容": "ございな(デイサービスセンター)【地域密着型通所介護】隠岐郡西ノ島町大字別府２０５番地１", "url": "https://www.kaigokensaku.mhlw.go.jp/32/index.php?action_kouhyou_detail_004_kani=true&JigyosyoCd=3272200712-00&ServiceCd=780&Type=search", "url2": "shionsw.com" }, "geometry": { "type": "Point", "coordinates": [ 133.0414571, 36.1126042 ] } },
{ "type": "Feature", "properties": { "内容": "招福苑デイサービスセンター【地域密着型通所介護】隠岐郡知夫村６６４番地", "url": "https://www.kaigokensaku.mhlw.go.jp/32/index.php?action_kouhyou_detail_004_kani=true&JigyosyoCd=3272200654-00&ServiceCd=780&Type=search", "url2": "http://chibu-shakyo.sakura.ne.jp" }, "geometry": { "type": "Point", "coordinates": [ 133.04254370000001, 36.0148231 ] } },
{ "type": "Feature", "properties": { "内容": "高齢者生活福祉センター　蓬莱苑【地域密着型通所介護】島根県隠岐郡隠岐の島町布施642番地1", "url": "https://www.kaigokensaku.mhlw.go.jp/32/index.php?action_kouhyou_detail_004_kani=true&JigyosyoCd=3272200787-00&ServiceCd=780&Type=search", "url2": null }, "geometry": { "type": "Point", "coordinates": [ 133.348894400000063, 36.2911779 ] } },
{ "type": "Feature", "properties": { "内容": "宅老所くすもと【地域密着型通所介護】島根県隠岐郡隠岐の島町那久626", "url": "https://www.kaigokensaku.mhlw.go.jp/32/index.php?action_kouhyou_detail_004_kani=true&JigyosyoCd=3272200613-00&ServiceCd=780&Type=search", "url2": null }, "geometry": { "type": "Point", "coordinates": [ 133.2061592, 36.2211988 ] } },
{ "type": "Feature", "properties": { "内容": "一颯【地域密着型通所介護】島根県隠岐郡隠岐の島町下西５０９番1", "url": "https://www.kaigokensaku.mhlw.go.jp/32/index.php?action_kouhyou_detail_004_kani=true&JigyosyoCd=3272200811-00&ServiceCd=780&Type=search", "url2": "http://oki-ibuki.jimdo.com/" }, "geometry": { "type": "Point", "coordinates": [ 133.315506373818948, 36.206948286438767 ] } }
]
}
