{
"type": "FeatureCollection",
"name": "geo_32_特定施設入居者生活介護（有料老人ホーム）",
"crs": { "type": "name", "properties": { "name": "urn:ogc:def:crs:OGC:1.3:CRS84" } },
"features": [
{ "type": "Feature", "properties": { "内容": "シニアコート上乃木【特定施設入居者生活介護（有料老人ホーム）】上乃木3丁目11番10号", "url": "https://www.kaigokensaku.mhlw.go.jp/32/index.php?action_kouhyou_detail_004_kani=true&JigyosyoCd=3270102217-00&ServiceCd=331&Type=search", "url2": "https://region-design.co.jp/" }, "geometry": { "type": "Point", "coordinates": [ 133.064316100000042, 35.4471846 ] } },
{ "type": "Feature", "properties": { "内容": "ベストライフ松江【特定施設入居者生活介護（有料老人ホーム）】島根県松江市春日町543-2", "url": "https://www.kaigokensaku.mhlw.go.jp/32/index.php?action_kouhyou_detail_004_kani=true&JigyosyoCd=3270104189-00&ServiceCd=331&Type=search", "url2": null }, "geometry": { "type": "Point", "coordinates": [ 133.048737100000011, 35.4824485 ] } },
{ "type": "Feature", "properties": { "内容": "介護付有料老人ホーム　錦庵【特定施設入居者生活介護（有料老人ホーム）】島根県松江市東出雲町錦新町5丁目3-5", "url": "https://www.kaigokensaku.mhlw.go.jp/32/index.php?action_kouhyou_detail_004_kani=true&JigyosyoCd=3270104056-00&ServiceCd=331&Type=search", "url2": "https://www.toukou-g.com" }, "geometry": { "type": "Point", "coordinates": [ 133.1395326, 35.4325219 ] } },
{ "type": "Feature", "properties": { "内容": "介護付有料老人ホーム八重垣【特定施設入居者生活介護（有料老人ホーム）】島根県松江市大庭町1397番地1", "url": "https://www.kaigokensaku.mhlw.go.jp/32/index.php?action_kouhyou_detail_004_kani=true&JigyosyoCd=3270104460-00&ServiceCd=331&Type=search", "url2": "https://www.toukou-g.com/" }, "geometry": { "type": "Point", "coordinates": [ 133.073693, 35.4339891 ] } },
{ "type": "Feature", "properties": { "内容": "あおぞら八重垣【特定施設入居者生活介護（有料老人ホーム）】松江市佐草町194番地1", "url": "https://www.kaigokensaku.mhlw.go.jp/32/index.php?action_kouhyou_detail_004_kani=true&JigyosyoCd=3270101086-00&ServiceCd=331&Type=search", "url2": "http://www.careguid.co.jp" }, "geometry": { "type": "Point", "coordinates": [ 133.073343799999947, 35.4320974 ] } },
{ "type": "Feature", "properties": { "内容": "グランドケアホーム　はまぼうふう【特定施設入居者生活介護（有料老人ホーム）】島根県浜田市久代１-7", "url": "https://www.kaigokensaku.mhlw.go.jp/32/index.php?action_kouhyou_detail_004_kani=true&JigyosyoCd=3270700887-00&ServiceCd=331&Type=search", "url2": "http://mizusumikai.or.jp/" }, "geometry": { "type": "Point", "coordinates": [ 132.134674300000029, 34.9546034 ] } },
{ "type": "Feature", "properties": { "内容": "介護付き有料老人ホーム　サンガーデン輝らら【特定施設入居者生活介護（有料老人ホーム）】島根県浜田市金城町今福1473－1", "url": "https://www.kaigokensaku.mhlw.go.jp/32/index.php?action_kouhyou_detail_004_kani=true&JigyosyoCd=3270701026-00&ServiceCd=331&Type=search", "url2": "http://sunsun.in.kirara" }, "geometry": { "type": "Point", "coordinates": [ 132.199263774404898, 34.882826631672359 ] } },
{ "type": "Feature", "properties": { "内容": "鳳光苑【特定施設入居者生活介護（有料老人ホーム）】島根県出雲市斐川町上庄原1634番地5", "url": "https://www.kaigokensaku.mhlw.go.jp/32/index.php?action_kouhyou_detail_004_kani=true&JigyosyoCd=3271600649-00&ServiceCd=331&Type=search", "url2": "http://www.h-ikkou.co.jp/" }, "geometry": { "type": "Point", "coordinates": [ 132.832260450926242, 35.388652973801619 ] } },
{ "type": "Feature", "properties": { "内容": "出雲鳳光苑【特定施設入居者生活介護（有料老人ホーム）】島根県出雲市塩冶町879番地", "url": "https://www.kaigokensaku.mhlw.go.jp/32/index.php?action_kouhyou_detail_004_kani=true&JigyosyoCd=3270401239-00&ServiceCd=331&Type=search", "url2": "http://www.h-ikkou.co.jp" }, "geometry": { "type": "Point", "coordinates": [ 132.752509799999984, 35.3546615 ] } },
{ "type": "Feature", "properties": { "内容": "ハーモニーハウス出雲【特定施設入居者生活介護（有料老人ホーム）】出雲市塩冶町1174-3", "url": "https://www.kaigokensaku.mhlw.go.jp/32/index.php?action_kouhyou_detail_004_kani=true&JigyosyoCd=3270401692-00&ServiceCd=331&Type=search", "url2": "http://www.h-ikkou.co.jp/" }, "geometry": { "type": "Point", "coordinates": [ 132.752973699999984, 35.355442 ] } },
{ "type": "Feature", "properties": { "内容": "ゆうらいふ長浜【特定施設入居者生活介護（有料老人ホーム）】出雲市荒茅町3501番地", "url": "https://www.kaigokensaku.mhlw.go.jp/32/index.php?action_kouhyou_detail_004_kani=true&JigyosyoCd=3270401312-00&ServiceCd=331&Type=search", "url2": "www.youlife-n.com" }, "geometry": { "type": "Point", "coordinates": [ 132.693467899999973, 35.3617234 ] } },
{ "type": "Feature", "properties": { "内容": "ホーム・スイートホーム　きらり【特定施設入居者生活介護（有料老人ホーム）】島根県出雲市湖陵町二部1192番1", "url": "https://www.kaigokensaku.mhlw.go.jp/32/index.php?action_kouhyou_detail_004_kani=true&JigyosyoCd=3270401270-00&ServiceCd=331&Type=search", "url2": "http://www.h-sweet-home.com" }, "geometry": { "type": "Point", "coordinates": [ 132.6794102, 35.322219 ] } },
{ "type": "Feature", "properties": { "内容": "有料老人ホームいこいの郷【特定施設入居者生活介護（有料老人ホーム）】出雲市西林木町33番地1", "url": "https://www.kaigokensaku.mhlw.go.jp/32/index.php?action_kouhyou_detail_004_kani=true&JigyosyoCd=3270400264-00&ServiceCd=331&Type=search", "url2": "http://www.izumo-net.ne.jp/~ikoi/" }, "geometry": { "type": "Point", "coordinates": [ 132.7678813, 35.396943 ] } },
{ "type": "Feature", "properties": { "内容": "あじさい1号館【特定施設入居者生活介護（有料老人ホーム）】益田市津田町1149-6", "url": "https://www.kaigokensaku.mhlw.go.jp/32/index.php?action_kouhyou_detail_004_kani=true&JigyosyoCd=3270800695-00&ServiceCd=331&Type=search", "url2": "www.ajsaihome.jp" }, "geometry": { "type": "Point", "coordinates": [ 131.866495500000042, 34.721577 ] } },
{ "type": "Feature", "properties": { "内容": "特定施設入居者生活介護あじさい本館【特定施設入居者生活介護（有料老人ホーム）】島根県益田市幸町３－5", "url": "https://www.kaigokensaku.mhlw.go.jp/32/index.php?action_kouhyou_detail_004_kani=true&JigyosyoCd=3270800422-00&ServiceCd=331&Type=search", "url2": "www.ajisaihome.jp" }, "geometry": { "type": "Point", "coordinates": [ 131.85306216287438, 34.674040963846132 ] } },
{ "type": "Feature", "properties": { "内容": "介護付有料老人ホーム　月山【特定施設入居者生活介護（有料老人ホーム）】広瀬町広瀬680-1", "url": "https://www.kaigokensaku.mhlw.go.jp/32/index.php?action_kouhyou_detail_004_kani=true&JigyosyoCd=3270200466-00&ServiceCd=331&Type=search", "url2": "https://www.toukou-g.com/" }, "geometry": { "type": "Point", "coordinates": [ 133.1717898, 35.3643281 ] } },
{ "type": "Feature", "properties": { "内容": "さくらが丘【特定施設入居者生活介護（有料老人ホーム）】江津市桜江町小田856番地10", "url": "https://www.kaigokensaku.mhlw.go.jp/32/index.php?action_kouhyou_detail_004_kani=true&JigyosyoCd=3271800561-00&ServiceCd=331&Type=search", "url2": "http://sunlife-honobono.con/sakuragaoka/" }, "geometry": { "type": "Point", "coordinates": [ 132.326374900000019, 34.945692 ] } },
{ "type": "Feature", "properties": { "内容": "ウェルライフ三刀屋【特定施設入居者生活介護（有料老人ホーム）】島根県雲南市三刀屋町下熊谷1675-2", "url": "https://www.kaigokensaku.mhlw.go.jp/32/index.php?action_kouhyou_detail_004_kani=true&JigyosyoCd=3271400719-00&ServiceCd=331&Type=search", "url2": null }, "geometry": { "type": "Point", "coordinates": [ 132.89186149977985, 35.302079066834899 ] } },
{ "type": "Feature", "properties": { "内容": "まほろばの郷さんさん【特定施設入居者生活介護（有料老人ホーム）】島根県仁多郡奥出雲町横田１０１０－３", "url": "https://www.kaigokensaku.mhlw.go.jp/32/index.php?action_kouhyou_detail_004_kani=true&JigyosyoCd=3271300182-00&ServiceCd=331&Type=search", "url2": null }, "geometry": { "type": "Point", "coordinates": [ 133.0941775, 35.1763836 ] } },
{ "type": "Feature", "properties": { "内容": "特定施設入所者生活介護「ふる郷」【特定施設入居者生活介護（有料老人ホーム）】島根県邑智郡邑南町下田所１０８３－１", "url": "https://www.kaigokensaku.mhlw.go.jp/32/index.php?action_kouhyou_detail_004_kani=true&JigyosyoCd=3271800462-00&ServiceCd=331&Type=search", "url2": "https://www.forte-k.com/furusato-welfare" }, "geometry": { "type": "Point", "coordinates": [ 132.505052500000033, 34.8411978 ] } }
]
}
