{
"type": "FeatureCollection",
"name": "geo_32_介護老人福祉施設",
"crs": { "type": "name", "properties": { "name": "urn:ogc:def:crs:OGC:1.3:CRS84" } },
"features": [
{ "type": "Feature", "properties": { "内容": "社会福祉法人かしま福祉会　特別養護老人ホームあとむ苑【介護老人福祉施設】島根県松江市鹿島町北講武８８５番地６", "url": "https://www.kaigokensaku.mhlw.go.jp/32/index.php?action_kouhyou_detail_004_kani=true&JigyosyoCd=3271190062-00&ServiceCd=510&Type=search", "url2": "http://care-net.biz/32/kashima-f/" }, "geometry": { "type": "Point", "coordinates": [ 133.0275474, 35.5230079 ] } },
{ "type": "Feature", "properties": { "内容": "特別養護老人ホーム　詔光の里【介護老人福祉施設】松江市山代町934-5", "url": "https://www.kaigokensaku.mhlw.go.jp/32/index.php?action_kouhyou_detail_004_kani=true&JigyosyoCd=3270190089-00&ServiceCd=510&Type=search", "url2": "http://www.korei.sirayurikai.or.jp" }, "geometry": { "type": "Point", "coordinates": [ 133.09536090000006, 35.4399581 ] } },
{ "type": "Feature", "properties": { "内容": "特別養護老人ホーム松楽苑【介護老人福祉施設】松江市野原町417番地2", "url": "https://www.kaigokensaku.mhlw.go.jp/32/index.php?action_kouhyou_detail_004_kani=true&JigyosyoCd=3270190055-00&ServiceCd=510&Type=search", "url2": null }, "geometry": { "type": "Point", "coordinates": [ 133.13595620000001, 35.5161858 ] } },
{ "type": "Feature", "properties": { "内容": "介護老人福祉施設　あいかの里【介護老人福祉施設】松江市岡本町1138－1", "url": "https://www.kaigokensaku.mhlw.go.jp/32/index.php?action_kouhyou_detail_004_kani=true&JigyosyoCd=3270190071-00&ServiceCd=510&Type=search", "url2": "http://kohoku-aikanosato.jp" }, "geometry": { "type": "Point", "coordinates": [ 132.950962600000025, 35.4806301 ] } },
{ "type": "Feature", "properties": { "内容": "特別養護老人ホームうぐいす苑【介護老人福祉施設】松江市西法吉町36-1", "url": "https://www.kaigokensaku.mhlw.go.jp/32/index.php?action_kouhyou_detail_004_kani=true&JigyosyoCd=3270190048-00&ServiceCd=510&Type=search", "url2": "http://www.mizuumi.jp" }, "geometry": { "type": "Point", "coordinates": [ 133.042727499999955, 35.4948228 ] } },
{ "type": "Feature", "properties": { "内容": "特別養護老人ホームすまいる苑【介護老人福祉施設】松江市法吉町626-1", "url": "https://www.kaigokensaku.mhlw.go.jp/32/index.php?action_kouhyou_detail_004_kani=true&JigyosyoCd=3270190105-00&ServiceCd=510&Type=search", "url2": "http://www.mizuumi.jp" }, "geometry": { "type": "Point", "coordinates": [ 133.0462384, 35.4928176 ] } },
{ "type": "Feature", "properties": { "内容": "指定介護老人福祉施設　ゆうなぎ苑【介護老人福祉施設】松江市島根町大芦5707番地", "url": "https://www.kaigokensaku.mhlw.go.jp/32/index.php?action_kouhyou_detail_004_kani=true&JigyosyoCd=3271190013-00&ServiceCd=510&Type=search", "url2": "http://www.sanin-kateigakuin.jp/yuunagien/" }, "geometry": { "type": "Point", "coordinates": [ 133.055865400000016, 35.5470808 ] } },
{ "type": "Feature", "properties": { "内容": "特別養護老人ホーム津田の里【介護老人福祉施設】松江市西津田十丁目１９－５０", "url": "https://www.kaigokensaku.mhlw.go.jp/32/index.php?action_kouhyou_detail_004_kani=true&JigyosyoCd=3270190063-00&ServiceCd=510&Type=search", "url2": "https://www.tsudanosato.jp" }, "geometry": { "type": "Point", "coordinates": [ 133.079714700000068, 35.4528508 ] } },
{ "type": "Feature", "properties": { "内容": "特別養護老人ホーム津田の里【介護老人福祉施設】島根県松江市西津田十丁目１９－５０", "url": "https://www.kaigokensaku.mhlw.go.jp/32/index.php?action_kouhyou_detail_004_kani=true&JigyosyoCd=3270190139-00&ServiceCd=510&Type=search", "url2": "https://www.tsudanosato.jp/" }, "geometry": { "type": "Point", "coordinates": [ 133.079714700000068, 35.4528508 ] } },
{ "type": "Feature", "properties": { "内容": "特別養護老人ホーム東寿苑【介護老人福祉施設】島根県松江市東出雲町出雲郷493", "url": "https://www.kaigokensaku.mhlw.go.jp/32/index.php?action_kouhyou_detail_004_kani=true&JigyosyoCd=3271190021-00&ServiceCd=510&Type=search", "url2": "http://www.so-unkai.jp" }, "geometry": { "type": "Point", "coordinates": [ 133.127522804893488, 35.43257663928334 ] } },
{ "type": "Feature", "properties": { "内容": "特別養護老人ホームゆめハウス【介護老人福祉施設】松江市宍道町西来待2071-1", "url": "https://www.kaigokensaku.mhlw.go.jp/32/index.php?action_kouhyou_detail_004_kani=true&JigyosyoCd=3271190047-00&ServiceCd=510&Type=search", "url2": "http://s-lighthouse.jp" }, "geometry": { "type": "Point", "coordinates": [ 132.93597079999995, 35.4132222 ] } },
{ "type": "Feature", "properties": { "内容": "厚生センター八雲【介護老人福祉施設】松江市上乃木7-1-28", "url": "https://www.kaigokensaku.mhlw.go.jp/32/index.php?action_kouhyou_detail_004_kani=true&JigyosyoCd=3270190014-00&ServiceCd=510&Type=search", "url2": "https://www.ssw.or.jp/korei_yakumo_nyusyojigyo/" }, "geometry": { "type": "Point", "coordinates": [ 133.0687408, 35.4453376 ] } },
{ "type": "Feature", "properties": { "内容": "特別養護老人ホーム大野の郷【介護老人福祉施設】島根県松江市大野町167", "url": "https://www.kaigokensaku.mhlw.go.jp/32/index.php?action_kouhyou_detail_004_kani=true&JigyosyoCd=3270190121-00&ServiceCd=510&Type=search", "url2": "http://oono167.jp/" }, "geometry": { "type": "Point", "coordinates": [ 132.918988399999989, 35.4724857 ] } },
{ "type": "Feature", "properties": { "内容": "特別養護老人ホームやくも光陽の里【介護老人福祉施設】松江市八雲町東岩坂８０６番地", "url": "https://www.kaigokensaku.mhlw.go.jp/32/index.php?action_kouhyou_detail_004_kani=true&JigyosyoCd=3271190039-00&ServiceCd=510&Type=search", "url2": "http://www.yakumo-fukushikai.com/" }, "geometry": { "type": "Point", "coordinates": [ 133.09943, 35.414228 ] } },
{ "type": "Feature", "properties": { "内容": "特別養護老人ホーム明翔苑【介護老人福祉施設】松江市西浜佐陀町1399-34", "url": "https://www.kaigokensaku.mhlw.go.jp/32/index.php?action_kouhyou_detail_004_kani=true&JigyosyoCd=3270190113-00&ServiceCd=510&Type=search", "url2": "http://www.houshinkai-s.or.jp/" }, "geometry": { "type": "Point", "coordinates": [ 132.993447400000036, 35.4764013 ] } },
{ "type": "Feature", "properties": { "内容": "特別養護老人ホーム　陽溜の郷【介護老人福祉施設】島根県松江市馬潟町81-1", "url": "https://www.kaigokensaku.mhlw.go.jp/32/index.php?action_kouhyou_detail_004_kani=true&JigyosyoCd=3270190147-00&ServiceCd=510&Type=search", "url2": "http://www.youkeien.or.jp" }, "geometry": { "type": "Point", "coordinates": [ 133.112394799999976, 35.443847800000043 ] } },
{ "type": "Feature", "properties": { "内容": "特別養護老人ホーム長命園【介護老人福祉施設】松江市上乃木十丁目5番2号", "url": "https://www.kaigokensaku.mhlw.go.jp/32/index.php?action_kouhyou_detail_004_kani=true&JigyosyoCd=3270190022-00&ServiceCd=510&Type=search", "url2": "https://tyoumeien.m-fukushi.org/" }, "geometry": { "type": "Point", "coordinates": [ 133.060172400000056, 35.4333389 ] } },
{ "type": "Feature", "properties": { "内容": "特別養護老人ホーム　コーポ上口【介護老人福祉施設】松江市古志原６丁目８番１０号", "url": "https://www.kaigokensaku.mhlw.go.jp/32/index.php?action_kouhyou_detail_004_kani=true&JigyosyoCd=3270190030-00&ServiceCd=510&Type=search", "url2": "http://kamiguchifukushikai.jp/" }, "geometry": { "type": "Point", "coordinates": [ 133.078976499999953, 35.4409575 ] } },
{ "type": "Feature", "properties": { "内容": "特別養護老人ホーム　美保の里【介護老人福祉施設】松江市美保関町片江79番地", "url": "https://www.kaigokensaku.mhlw.go.jp/32/index.php?action_kouhyou_detail_004_kani=true&JigyosyoCd=3271190054-00&ServiceCd=510&Type=search", "url2": "https://www.fujimikai.jp" }, "geometry": { "type": "Point", "coordinates": [ 133.183201899999972, 35.5587936 ] } },
{ "type": "Feature", "properties": { "内容": "特別養護老人ホーム　ロング・レン【介護老人福祉施設】島根県浜田市長沢町1428番地6特別養護老人ホーム", "url": "https://www.kaigokensaku.mhlw.go.jp/32/index.php?action_kouhyou_detail_004_kani=true&JigyosyoCd=3270790110-00&ServiceCd=510&Type=search", "url2": "htpp://mizusumikai.jp/" }, "geometry": { "type": "Point", "coordinates": [ 132.099354975949126, 34.906410000792874 ] } },
{ "type": "Feature", "properties": { "内容": "特別養護老人ホームくざの里【介護老人福祉施設】金城町久佐イ560番地1", "url": "https://www.kaigokensaku.mhlw.go.jp/32/index.php?action_kouhyou_detail_004_kani=true&JigyosyoCd=3270790128-00&ServiceCd=510&Type=search", "url2": "http://www.kabedaimonjikai.or.jp" }, "geometry": { "type": "Point", "coordinates": [ 132.20753179999997, 34.8593437 ] } },
{ "type": "Feature", "properties": { "内容": "特別養護老人ホーム　ミレ岡見【介護老人福祉施設】島根県浜田市三隅町岡見700", "url": "https://www.kaigokensaku.mhlw.go.jp/32/index.php?action_kouhyou_detail_004_kani=true&JigyosyoCd=3270790086-00&ServiceCd=510&Type=search", "url2": null }, "geometry": { "type": "Point", "coordinates": [ 131.9232611, 34.771479 ] } },
{ "type": "Feature", "properties": { "内容": "特別養護老人ホームかなぎ園【介護老人福祉施設】島根県浜田市金城町七条イ１０４６番地５", "url": "https://www.kaigokensaku.mhlw.go.jp/32/index.php?action_kouhyou_detail_004_kani=true&JigyosyoCd=3270790045-00&ServiceCd=510&Type=search", "url2": "http://kanagi-fukushikai.com/" }, "geometry": { "type": "Point", "coordinates": [ 132.153003300000023, 34.8725617 ] } },
{ "type": "Feature", "properties": { "内容": "特別養護老人ホーム　あさひ園【介護老人福祉施設】島根県浜田市旭町本郷362番地6", "url": "https://www.kaigokensaku.mhlw.go.jp/32/index.php?action_kouhyou_detail_004_kani=true&JigyosyoCd=3270790078-00&ServiceCd=510&Type=search", "url2": "https://www.asahi-en.com/" }, "geometry": { "type": "Point", "coordinates": [ 132.303590100000065, 34.8659861 ] } },
{ "type": "Feature", "properties": { "内容": "特別養護老人ホーム偕生園【介護老人福祉施設】島根県浜田市黒川町196-1", "url": "https://www.kaigokensaku.mhlw.go.jp/32/index.php?action_kouhyou_detail_004_kani=true&JigyosyoCd=3270790011-00&ServiceCd=510&Type=search", "url2": "http://www.ssw.or.jp/korei_kaisei/" }, "geometry": { "type": "Point", "coordinates": [ 132.096804, 34.8979723 ] } },
{ "type": "Feature", "properties": { "内容": "特別養護老人ホーム　美川苑【介護老人福祉施設】浜田市内村町３６５番地７", "url": "https://www.kaigokensaku.mhlw.go.jp/32/index.php?action_kouhyou_detail_004_kani=true&JigyosyoCd=3270790029-00&ServiceCd=510&Type=search", "url2": "http://www.mikawaen.com" }, "geometry": { "type": "Point", "coordinates": [ 132.049787199999969, 34.8531092 ] } },
{ "type": "Feature", "properties": { "内容": "特別養護老人ホーム　弥栄苑新館【介護老人福祉施設】浜田市弥栄町木都賀イ５３９－１", "url": "https://www.kaigokensaku.mhlw.go.jp/32/index.php?action_kouhyou_detail_004_kani=true&JigyosyoCd=3270790102-00&ServiceCd=510&Type=search", "url2": "http://www.yasaka-fukushikai.com/" }, "geometry": { "type": "Point", "coordinates": [ 132.072175799999968, 34.7664513 ] } },
{ "type": "Feature", "properties": { "内容": "特別養護老人ホーム　弥栄苑本館【介護老人福祉施設】浜田市弥栄町木都賀イ５３９－１", "url": "https://www.kaigokensaku.mhlw.go.jp/32/index.php?action_kouhyou_detail_004_kani=true&JigyosyoCd=3270790094-00&ServiceCd=510&Type=search", "url2": "http://www.yasaka-fukushikai.com/" }, "geometry": { "type": "Point", "coordinates": [ 132.072175799999968, 34.7664513 ] } },
{ "type": "Feature", "properties": { "内容": "特別養護老人ホームたんぽぽの里【介護老人福祉施設】浜田市長浜町1900", "url": "https://www.kaigokensaku.mhlw.go.jp/32/index.php?action_kouhyou_detail_004_kani=true&JigyosyoCd=3270790037-00&ServiceCd=510&Type=search", "url2": "http://www.tanpoponosato.com" }, "geometry": { "type": "Point", "coordinates": [ 132.0376986, 34.8675797 ] } },
{ "type": "Feature", "properties": { "内容": "特別養護老人ホーム　いなさ園【介護老人福祉施設】島根県出雲市大社町杵築西１６４３番地２", "url": "https://www.kaigokensaku.mhlw.go.jp/32/index.php?action_kouhyou_detail_004_kani=true&JigyosyoCd=3271690038-00&ServiceCd=510&Type=search", "url2": "http://www.kidukikai.or.jp" }, "geometry": { "type": "Point", "coordinates": [ 132.678423800000019, 35.3856095 ] } },
{ "type": "Feature", "properties": { "内容": "特別養護老人ホームみせんの里【介護老人福祉施設】出雲市大社町遙堪65番地2", "url": "https://www.kaigokensaku.mhlw.go.jp/32/index.php?action_kouhyou_detail_004_kani=true&JigyosyoCd=3270490059-00&ServiceCd=510&Type=search", "url2": "http://www.kidukikai.or.jp" }, "geometry": { "type": "Point", "coordinates": [ 132.7186, 35.3938704 ] } },
{ "type": "Feature", "properties": { "内容": "特別養護老人ホームやまゆり苑【介護老人福祉施設】島根県出雲市佐田町一窪田1961-5", "url": "https://www.kaigokensaku.mhlw.go.jp/32/index.php?action_kouhyou_detail_004_kani=true&JigyosyoCd=3270490067-00&ServiceCd=510&Type=search", "url2": "http://www.izumo-yamayuri.or.jp" }, "geometry": { "type": "Point", "coordinates": [ 132.6715034, 35.2338617 ] } },
{ "type": "Feature", "properties": { "内容": "特別養護老人ホームひまわり園【介護老人福祉施設】島根県出雲市神西沖町2513‐8", "url": "https://www.kaigokensaku.mhlw.go.jp/32/index.php?action_kouhyou_detail_004_kani=true&JigyosyoCd=3270490091-00&ServiceCd=510&Type=search", "url2": "www.w-himawari.or.jp" }, "geometry": { "type": "Point", "coordinates": [ 132.680963646557643, 35.336685564361048 ] } },
{ "type": "Feature", "properties": { "内容": "特別養護老人ホームひまわり園【介護老人福祉施設】出雲市神西沖町2513-4", "url": "https://www.kaigokensaku.mhlw.go.jp/32/index.php?action_kouhyou_detail_004_kani=true&JigyosyoCd=3270490026-00&ServiceCd=510&Type=search", "url2": "http://w-himawari.jp" }, "geometry": { "type": "Point", "coordinates": [ 132.681392800000026, 35.3368256 ] } },
{ "type": "Feature", "properties": { "内容": "特別養護老人ホーム　清流園【介護老人福祉施設】出雲市大津町3529番地", "url": "https://www.kaigokensaku.mhlw.go.jp/32/index.php?action_kouhyou_detail_004_kani=true&JigyosyoCd=3270490034-00&ServiceCd=510&Type=search", "url2": "http://www.seiryuuen.com/" }, "geometry": { "type": "Point", "coordinates": [ 132.783739400000059, 35.3592841 ] } },
{ "type": "Feature", "properties": { "内容": "特別養護老人ホーム潮風苑【介護老人福祉施設】島根県出雲市多伎町小田50－3", "url": "https://www.kaigokensaku.mhlw.go.jp/32/index.php?action_kouhyou_detail_004_kani=true&JigyosyoCd=3271690020-00&ServiceCd=510&Type=search", "url2": "http:www.takinosato.jp" }, "geometry": { "type": "Point", "coordinates": [ 132.626624, 35.2839598 ] } },
{ "type": "Feature", "properties": { "内容": "特別養護老人ホーム　なのはな園【介護老人福祉施設】出雲市斐川町上直江1829-1", "url": "https://www.kaigokensaku.mhlw.go.jp/32/index.php?action_kouhyou_detail_004_kani=true&JigyosyoCd=3271690046-00&ServiceCd=510&Type=search", "url2": "https://s-lighthouse.jp/" }, "geometry": { "type": "Point", "coordinates": [ 132.811314, 35.3778265 ] } },
{ "type": "Feature", "properties": { "内容": "ユニット型　特別養護老人ホーム　なのはな園【介護老人福祉施設】島根県出雲市斐川町上直江1829－１", "url": "https://www.kaigokensaku.mhlw.go.jp/32/index.php?action_kouhyou_detail_004_kani=true&JigyosyoCd=3270490083-00&ServiceCd=510&Type=search", "url2": "http://www.s-lighthouse.jp" }, "geometry": { "type": "Point", "coordinates": [ 132.811314, 35.3778265 ] } },
{ "type": "Feature", "properties": { "内容": "特別養護老人ホーム天神【介護老人福祉施設】出雲市天神町163-9", "url": "https://www.kaigokensaku.mhlw.go.jp/32/index.php?action_kouhyou_detail_004_kani=true&JigyosyoCd=3270490018-00&ServiceCd=510&Type=search", "url2": "https://www.ssw.or.jp/facilities/seniors/tenjin" }, "geometry": { "type": "Point", "coordinates": [ 132.739224646835254, 35.362177606730285 ] } },
{ "type": "Feature", "properties": { "内容": "特別養護老人ホーム　湖水苑【介護老人福祉施設】島根県出雲市湖陵町差海318-1", "url": "https://www.kaigokensaku.mhlw.go.jp/32/index.php?action_kouhyou_detail_004_kani=true&JigyosyoCd=3271690061-00&ServiceCd=510&Type=search", "url2": "http://jukokai.jp/" }, "geometry": { "type": "Point", "coordinates": [ 132.6763353, 35.3277989 ] } },
{ "type": "Feature", "properties": { "内容": "特別養護老人ホームもくもく苑【介護老人福祉施設】出雲市矢野町845", "url": "https://www.kaigokensaku.mhlw.go.jp/32/index.php?action_kouhyou_detail_004_kani=true&JigyosyoCd=3270490042-00&ServiceCd=510&Type=search", "url2": "http//www.otuka-wel.jp" }, "geometry": { "type": "Point", "coordinates": [ 132.73560729999997, 35.3833578 ] } },
{ "type": "Feature", "properties": { "内容": "特別養護老人ホーム万田の郷【介護老人福祉施設】出雲市万田町692-2", "url": "https://www.kaigokensaku.mhlw.go.jp/32/index.php?action_kouhyou_detail_004_kani=true&JigyosyoCd=3270390028-00&ServiceCd=510&Type=search", "url2": "http://mandanosato.jp" }, "geometry": { "type": "Point", "coordinates": [ 132.784803300000021, 35.4437269 ] } },
{ "type": "Feature", "properties": { "内容": "特別養護老人ホーム万田の郷（新型）【介護老人福祉施設】島根県出雲市万田町538", "url": "https://www.kaigokensaku.mhlw.go.jp/32/index.php?action_kouhyou_detail_004_kani=true&JigyosyoCd=3270490075-00&ServiceCd=510&Type=search", "url2": "http://mandanosato.jp/" }, "geometry": { "type": "Point", "coordinates": [ 132.784803300000021, 35.4437269 ] } },
{ "type": "Feature", "properties": { "内容": "特別養護老人ホーム　サン・スマイル【介護老人福祉施設】島根県出雲市神西沖町215-1", "url": "https://www.kaigokensaku.mhlw.go.jp/32/index.php?action_kouhyou_detail_004_kani=true&JigyosyoCd=3271690012-00&ServiceCd=510&Type=search", "url2": "https://www.keijukai.jp/" }, "geometry": { "type": "Point", "coordinates": [ 132.703467416366465, 35.332456058397206 ] } },
{ "type": "Feature", "properties": { "内容": "特別養護老人ホームるんびにぃ苑【介護老人福祉施設】出雲市園町字妻ノ神2606番地1", "url": "https://www.kaigokensaku.mhlw.go.jp/32/index.php?action_kouhyou_detail_004_kani=true&JigyosyoCd=3270390010-00&ServiceCd=510&Type=search", "url2": "http://lumbini-en.jp" }, "geometry": { "type": "Point", "coordinates": [ 132.85718714631048, 35.4597711732088 ] } },
{ "type": "Feature", "properties": { "内容": "特別養護老人ホーム　かんべの里【介護老人福祉施設】島根県出雲市斐川町名島93番地2", "url": "https://www.kaigokensaku.mhlw.go.jp/32/index.php?action_kouhyou_detail_004_kani=true&JigyosyoCd=3271690079-00&ServiceCd=510&Type=search", "url2": "http://kiwakai-izumo.com/kanbenosato/" }, "geometry": { "type": "Point", "coordinates": [ 132.785083100000065, 35.3771459 ] } },
{ "type": "Feature", "properties": { "内容": "特別養護老人ホーム薫風園【介護老人福祉施設】島根県出雲市大津町3620番地1", "url": "https://www.kaigokensaku.mhlw.go.jp/32/index.php?action_kouhyou_detail_004_kani=true&JigyosyoCd=3270490109-00&ServiceCd=510&Type=search", "url2": "http://www.izumo-minami.jp/kunpuen/" }, "geometry": { "type": "Point", "coordinates": [ 132.7778902, 35.3555371 ] } },
{ "type": "Feature", "properties": { "内容": "益田市立特別養護老人ホームもみじの里【介護老人福祉施設】島根県益田市匹見町匹見イ１２０８番地", "url": "https://www.kaigokensaku.mhlw.go.jp/32/index.php?action_kouhyou_detail_004_kani=true&JigyosyoCd=3270890068-00&ServiceCd=510&Type=search", "url2": "http://masuda-shakyou.or.jp/" }, "geometry": { "type": "Point", "coordinates": [ 132.013184099999989, 34.5739761 ] } },
{ "type": "Feature", "properties": { "内容": "益田市立特別養護老人ホーム美寿苑【介護老人福祉施設】島根県益田市美都町都茂1871番地9", "url": "https://www.kaigokensaku.mhlw.go.jp/32/index.php?action_kouhyou_detail_004_kani=true&JigyosyoCd=3270890050-00&ServiceCd=510&Type=search", "url2": "masuda-shakyou.or.jp" }, "geometry": { "type": "Point", "coordinates": [ 131.983599599999934, 34.6666874 ] } },
{ "type": "Feature", "properties": { "内容": "特別養護老人ホーム雪舟園【介護老人福祉施設】益田市かもしま北町7-3", "url": "https://www.kaigokensaku.mhlw.go.jp/32/index.php?action_kouhyou_detail_004_kani=true&JigyosyoCd=3270890019-00&ServiceCd=510&Type=search", "url2": "https://www.ssw.or.jp/house/sessyu/" }, "geometry": { "type": "Point", "coordinates": [ 131.831225425933781, 34.695645424489179 ] } },
{ "type": "Feature", "properties": { "内容": "特別養護老人ホーム「ますだ」ハイツ【介護老人福祉施設】益田市高津四丁目6番40号", "url": "https://www.kaigokensaku.mhlw.go.jp/32/index.php?action_kouhyou_detail_004_kani=true&JigyosyoCd=3270890027-00&ServiceCd=510&Type=search", "url2": "https://www.baijukai.jp/" }, "geometry": { "type": "Point", "coordinates": [ 131.812150699999961, 34.6867599 ] } },
{ "type": "Feature", "properties": { "内容": "特別養護老人ホームくしろ宝寿苑【介護老人福祉施設】島根県益田市久城町531番地", "url": "https://www.kaigokensaku.mhlw.go.jp/32/index.php?action_kouhyou_detail_004_kani=true&JigyosyoCd=3270890035-00&ServiceCd=510&Type=search", "url2": "https://www.baijukai.jp/" }, "geometry": { "type": "Point", "coordinates": [ 131.850564, 34.7012591 ] } },
{ "type": "Feature", "properties": { "内容": "特別養護老人ホーム　湯の郷苑【介護老人福祉施設】大田市温泉津町上村４６１番地", "url": "https://www.kaigokensaku.mhlw.go.jp/32/index.php?action_kouhyou_detail_004_kani=true&JigyosyoCd=3271790010-00&ServiceCd=510&Type=search", "url2": "http://www.fukujikoukai.jp" }, "geometry": { "type": "Point", "coordinates": [ 132.349620800000025, 35.0698475 ] } },
{ "type": "Feature", "properties": { "内容": "特別養護老人ホーム　しおさい【介護老人福祉施設】島根県大田市仁摩町仁万843番地", "url": "https://www.kaigokensaku.mhlw.go.jp/32/index.php?action_kouhyou_detail_004_kani=true&JigyosyoCd=3271790028-00&ServiceCd=510&Type=search", "url2": "http://www.shiosai.or.jp" }, "geometry": { "type": "Point", "coordinates": [ 132.403219799999988, 35.1537329 ] } },
{ "type": "Feature", "properties": { "内容": "特別養護老人ホーム眺峰園【介護老人福祉施設】島根県大田市川合町吉永1025-1", "url": "https://www.kaigokensaku.mhlw.go.jp/32/index.php?action_kouhyou_detail_004_kani=true&JigyosyoCd=3270590015-00&ServiceCd=510&Type=search", "url2": "https://www.ssw.or.jp/facilities/seniors/chohoen" }, "geometry": { "type": "Point", "coordinates": [ 132.512003199999981, 35.1711364 ] } },
{ "type": "Feature", "properties": { "内容": "介護老人福祉施設　サンデイズ双葉園【介護老人福祉施設】大田市鳥井町鳥井１８８１－１", "url": "https://www.kaigokensaku.mhlw.go.jp/32/index.php?action_kouhyou_detail_004_kani=true&JigyosyoCd=3270590031-00&ServiceCd=510&Type=search", "url2": null }, "geometry": { "type": "Point", "coordinates": [ 132.4854166, 35.2146537 ] } },
{ "type": "Feature", "properties": { "内容": "介護老人福祉設　ゆうイングさわらび【介護老人福祉施設】大田市長久町土江55-2", "url": "https://www.kaigokensaku.mhlw.go.jp/32/index.php?action_kouhyou_detail_004_kani=true&JigyosyoCd=3270590049-00&ServiceCd=510&Type=search", "url2": "http://sawarabi.info/" }, "geometry": { "type": "Point", "coordinates": [ 132.477034099999969, 35.1951557 ] } },
{ "type": "Feature", "properties": { "内容": "介護老人福祉施設　サンシルバーさわらび【介護老人福祉施設】大田市長久町土江65番地2", "url": "https://www.kaigokensaku.mhlw.go.jp/32/index.php?action_kouhyou_detail_004_kani=true&JigyosyoCd=3270590023-00&ServiceCd=510&Type=search", "url2": "http://sawarabi.info//" }, "geometry": { "type": "Point", "coordinates": [ 132.475987931837977, 35.195705410341489 ] } },
{ "type": "Feature", "properties": { "内容": "特別養護老人ホーム　しらさぎ苑【介護老人福祉施設】安来市古川町８２９－１", "url": "https://www.kaigokensaku.mhlw.go.jp/32/index.php?action_kouhyou_detail_004_kani=true&JigyosyoCd=3270290012-00&ServiceCd=510&Type=search", "url2": "http://yasugifukusikai.jp/" }, "geometry": { "type": "Point", "coordinates": [ 133.197248700000046, 35.3759102 ] } },
{ "type": "Feature", "properties": { "内容": "特別養護老人ホーム　伯寿の郷【介護老人福祉施設】島根県安来市伯太町安田１７０５番地", "url": "https://www.kaigokensaku.mhlw.go.jp/32/index.php?action_kouhyou_detail_004_kani=true&JigyosyoCd=3270290079-00&ServiceCd=510&Type=search", "url2": "http://hakuikai.jp" }, "geometry": { "type": "Point", "coordinates": [ 133.2730087, 35.3712485 ] } },
{ "type": "Feature", "properties": { "内容": "特別養護老人ホ－ム尼子苑【介護老人福祉施設】島根県安来市広瀬町下山佐330番地2", "url": "https://www.kaigokensaku.mhlw.go.jp/32/index.php?action_kouhyou_detail_004_kani=true&JigyosyoCd=3270290061-00&ServiceCd=510&Type=search", "url2": "http://amago-taiyo.jp/" }, "geometry": { "type": "Point", "coordinates": [ 133.157632787171906, 35.349647865958779 ] } },
{ "type": "Feature", "properties": { "内容": "特別養護老人ホームやすぎの郷【介護老人福祉施設】安来市安来町970-1", "url": "https://www.kaigokensaku.mhlw.go.jp/32/index.php?action_kouhyou_detail_004_kani=true&JigyosyoCd=3270290020-00&ServiceCd=510&Type=search", "url2": "http://www.sendankai.net/" }, "geometry": { "type": "Point", "coordinates": [ 133.253037100000029, 35.4337004 ] } },
{ "type": "Feature", "properties": { "内容": "特別養護老人ホーム　風の里　陽光苑【介護老人福祉施設】江津市桜江町長谷２７２３番地２", "url": "https://www.kaigokensaku.mhlw.go.jp/32/index.php?action_kouhyou_detail_004_kani=true&JigyosyoCd=3271890075-00&ServiceCd=510&Type=search", "url2": "https://www.sakuraefukushikai.jp/" }, "geometry": { "type": "Point", "coordinates": [ 132.270144800000025, 34.9219936 ] } },
{ "type": "Feature", "properties": { "内容": "白寿園【介護老人福祉施設】江津市江津町1110", "url": "https://www.kaigokensaku.mhlw.go.jp/32/index.php?action_kouhyou_detail_004_kani=true&JigyosyoCd=3270690013-00&ServiceCd=510&Type=search", "url2": "http://hakujyuen.jp" }, "geometry": { "type": "Point", "coordinates": [ 132.217727800000034, 35.0132312 ] } },
{ "type": "Feature", "properties": { "内容": "特別養護老人ホーム　笑寿苑【介護老人福祉施設】雲南市加茂町加茂中915", "url": "https://www.kaigokensaku.mhlw.go.jp/32/index.php?action_kouhyou_detail_004_kani=true&JigyosyoCd=3271490041-00&ServiceCd=510&Type=search", "url2": "http://kamofukushikai.jp/" }, "geometry": { "type": "Point", "coordinates": [ 132.902731600000038, 35.3480315 ] } },
{ "type": "Feature", "properties": { "内容": "特別養護老人ホームえがおの里【介護老人福祉施設】島根県雲南市掛合町掛合８５３－１", "url": "https://www.kaigokensaku.mhlw.go.jp/32/index.php?action_kouhyou_detail_004_kani=true&JigyosyoCd=3271490082-00&ServiceCd=510&Type=search", "url2": "http://unnanshakyo.jp" }, "geometry": { "type": "Point", "coordinates": [ 132.8173385, 35.1946003 ] } },
{ "type": "Feature", "properties": { "内容": "特別養護老人ホームえがおの里【介護老人福祉施設】島根県雲南市掛合町掛合８５３－１", "url": "https://www.kaigokensaku.mhlw.go.jp/32/index.php?action_kouhyou_detail_004_kani=true&JigyosyoCd=3271490090-00&ServiceCd=510&Type=search", "url2": "http://unnanshakyo.jp" }, "geometry": { "type": "Point", "coordinates": [ 132.8173385, 35.1946003 ] } },
{ "type": "Feature", "properties": { "内容": "特別養護老人ホーム簸の上園【介護老人福祉施設】島根県雲南市大東町中湯石88", "url": "https://www.kaigokensaku.mhlw.go.jp/32/index.php?action_kouhyou_detail_004_kani=true&JigyosyoCd=3271490017-00&ServiceCd=510&Type=search", "url2": "https://www.ssw.or.jp/facilities/seniors/hinokamien" }, "geometry": { "type": "Point", "coordinates": [ 132.991517, 35.3265034 ] } },
{ "type": "Feature", "properties": { "内容": "特別養護老人ホームさくら苑【介護老人福祉施設】島根県雲南市木次町東日登345番地1", "url": "https://www.kaigokensaku.mhlw.go.jp/32/index.php?action_kouhyou_detail_004_kani=true&JigyosyoCd=3271490025-00&ServiceCd=510&Type=search", "url2": "https://www.sakurasaku-home.org/" }, "geometry": { "type": "Point", "coordinates": [ 132.92538890000003, 35.2792244 ] } },
{ "type": "Feature", "properties": { "内容": "特別養護老人ホーム　みとやの郷【介護老人福祉施設】島根県雲南市三刀屋町乙加宮3400番地2", "url": "https://www.kaigokensaku.mhlw.go.jp/32/index.php?action_kouhyou_detail_004_kani=true&JigyosyoCd=3271490066-00&ServiceCd=510&Type=search", "url2": "https://www.mitoyanosato.jp" }, "geometry": { "type": "Point", "coordinates": [ 132.846694699999944, 35.2735184 ] } },
{ "type": "Feature", "properties": { "内容": "特別養護老人ホーム梅里苑【介護老人福祉施設】島根県雲南市三刀屋町三刀屋１３２６－８", "url": "https://www.kaigokensaku.mhlw.go.jp/32/index.php?action_kouhyou_detail_004_kani=true&JigyosyoCd=3271590014-00&ServiceCd=510&Type=search", "url2": "https://www.yurinkai.jp" }, "geometry": { "type": "Point", "coordinates": [ 132.886120900000037, 35.2923914 ] } },
{ "type": "Feature", "properties": { "内容": "社会福祉法人仁多福祉会奥出雲特別養護老人ホームあいサンホーム【介護老人福祉施設】奥出雲町上阿井４２４－１", "url": "https://www.kaigokensaku.mhlw.go.jp/32/index.php?action_kouhyou_detail_004_kani=true&JigyosyoCd=3271390027-00&ServiceCd=510&Type=search", "url2": "http://cms.nitafukushikai.or.jp/admin" }, "geometry": { "type": "Point", "coordinates": [ 132.9461728, 35.1413632 ] } },
{ "type": "Feature", "properties": { "内容": "特別養護老人ホーム　むらくも苑【介護老人福祉施設】奥出雲町稲原57番地1", "url": "https://www.kaigokensaku.mhlw.go.jp/32/index.php?action_kouhyou_detail_004_kani=true&JigyosyoCd=3271390019-00&ServiceCd=510&Type=search", "url2": "http://www.yokota.or.jp" }, "geometry": { "type": "Point", "coordinates": [ 133.09752990000004, 35.1763198 ] } },
{ "type": "Feature", "properties": { "内容": "特別養護老人ホームあかぎの里【介護老人福祉施設】島根県飯石郡飯南町野萱１８３１番地２", "url": "https://www.kaigokensaku.mhlw.go.jp/32/index.php?action_kouhyou_detail_004_kani=true&JigyosyoCd=3271590030-00&ServiceCd=510&Type=search", "url2": "http://www.iinansyakyo.com/" }, "geometry": { "type": "Point", "coordinates": [ 132.742360100000042, 35.0300736 ] } },
{ "type": "Feature", "properties": { "内容": "特別養護老人ホーム愛寿園【介護老人福祉施設】飯石郡飯南町佐見４５", "url": "https://www.kaigokensaku.mhlw.go.jp/32/index.php?action_kouhyou_detail_004_kani=true&JigyosyoCd=3271590022-00&ServiceCd=510&Type=search", "url2": "http://www.uaikai.jp/" }, "geometry": { "type": "Point", "coordinates": [ 132.7775633, 35.0793482 ] } },
{ "type": "Feature", "properties": { "内容": "みどりの里やすらぎ荘【介護老人福祉施設】邑智郡川本町因原５７０－１", "url": "https://www.kaigokensaku.mhlw.go.jp/32/index.php?action_kouhyou_detail_004_kani=true&JigyosyoCd=3271890018-00&ServiceCd=510&Type=search", "url2": "http://www.kawamotofukushikai.jp/" }, "geometry": { "type": "Point", "coordinates": [ 132.47313680000002, 34.9643923 ] } },
{ "type": "Feature", "properties": { "内容": "特別養護老人ホーム双葉園【介護老人福祉施設】邑智郡美郷町滝原167番地1", "url": "https://www.kaigokensaku.mhlw.go.jp/32/index.php?action_kouhyou_detail_004_kani=true&JigyosyoCd=3271890026-00&ServiceCd=510&Type=search", "url2": "http://fish.miracle.ne.jp/f-wave/" }, "geometry": { "type": "Point", "coordinates": [ 132.6000752, 35.0514465 ] } },
{ "type": "Feature", "properties": { "内容": "指定介護老人福祉施設ハートランド双葉園【介護老人福祉施設】邑智郡美郷町長藤745-5", "url": "https://www.kaigokensaku.mhlw.go.jp/32/index.php?action_kouhyou_detail_004_kani=true&JigyosyoCd=3271890034-00&ServiceCd=510&Type=search", "url2": null }, "geometry": { "type": "Point", "coordinates": [ 132.6313146, 35.0120042 ] } },
{ "type": "Feature", "properties": { "内容": "特別養護老人ホーム　あさぎり【介護老人福祉施設】邑智郡邑南町下口羽391番地2", "url": "https://www.kaigokensaku.mhlw.go.jp/32/index.php?action_kouhyou_detail_004_kani=true&JigyosyoCd=3271890067-00&ServiceCd=510&Type=search", "url2": "http://oonanfukushikai.jp/" }, "geometry": { "type": "Point", "coordinates": [ 132.665026099999977, 34.881540100000024 ] } },
{ "type": "Feature", "properties": { "内容": "特別養護老人ホーム　ゆめあいの丘【介護老人福祉施設】邑智郡邑南町上亀谷２１８０－２", "url": "https://www.kaigokensaku.mhlw.go.jp/32/index.php?action_kouhyou_detail_004_kani=true&JigyosyoCd=3271890042-00&ServiceCd=510&Type=search", "url2": "http://oonanfukushikai.jp/" }, "geometry": { "type": "Point", "coordinates": [ 132.515959800000019, 34.8449948 ] } },
{ "type": "Feature", "properties": { "内容": "特別養護老人ホーム　桃源の家【介護老人福祉施設】中野574-3", "url": "https://www.kaigokensaku.mhlw.go.jp/32/index.php?action_kouhyou_detail_004_kani=true&JigyosyoCd=3271890109-00&ServiceCd=510&Type=search", "url2": "http://iwamisakurakai.or.jp" }, "geometry": { "type": "Point", "coordinates": [ 132.451140799999962, 34.8983744 ] } },
{ "type": "Feature", "properties": { "内容": "特別養護老人ホーム　シルバーリーフつわの【介護老人福祉施設】島根県鹿足郡津和野町後田ロ１２６番地", "url": "https://www.kaigokensaku.mhlw.go.jp/32/index.php?action_kouhyou_detail_004_kani=true&JigyosyoCd=3272190012-00&ServiceCd=510&Type=search", "url2": "https://silverleaf-tsuwano.com/" }, "geometry": { "type": "Point", "coordinates": [ 131.775688100000025, 34.4676159 ] } },
{ "type": "Feature", "properties": { "内容": "特別養護老人ホーム星の里【介護老人福祉施設】鹿足郡津和野町日原５０番地２", "url": "https://www.kaigokensaku.mhlw.go.jp/32/index.php?action_kouhyou_detail_004_kani=true&JigyosyoCd=3272190020-00&ServiceCd=510&Type=search", "url2": "http://nichihara-hoshinosato.org" }, "geometry": { "type": "Point", "coordinates": [ 131.83901620000006, 34.542912 ] } },
{ "type": "Feature", "properties": { "内容": "吉賀町特別養護老人ホーム　とびのこ苑【介護老人福祉施設】島根県鹿足郡吉賀町柿木村柿木80番1", "url": "https://www.kaigokensaku.mhlw.go.jp/32/index.php?action_kouhyou_detail_004_kani=true&JigyosyoCd=3272190061-00&ServiceCd=510&Type=search", "url2": "http://yoshika-syakyo.jp/" }, "geometry": { "type": "Point", "coordinates": [ 131.867463728836157, 34.436482786507568 ] } },
{ "type": "Feature", "properties": { "内容": "特別養護老人ホームみろく苑【介護老人福祉施設】吉賀町六日市５８２番地１", "url": "https://www.kaigokensaku.mhlw.go.jp/32/index.php?action_kouhyou_detail_004_kani=true&JigyosyoCd=3272190038-00&ServiceCd=510&Type=search", "url2": "＠yoshika-syakyo.ne.jp" }, "geometry": { "type": "Point", "coordinates": [ 131.9368217, 34.3554266 ] } },
{ "type": "Feature", "properties": { "内容": "特別養護老人ホーム　諏訪苑【介護老人福祉施設】海士町大字海士3964番地", "url": "https://www.kaigokensaku.mhlw.go.jp/32/index.php?action_kouhyou_detail_004_kani=true&JigyosyoCd=3272290036-00&ServiceCd=510&Type=search", "url2": "www.amasyakyo.com" }, "geometry": { "type": "Point", "coordinates": [ 133.092972457672118, 36.098259482904616 ] } },
{ "type": "Feature", "properties": { "内容": "特別養護老人ホーム和光苑【介護老人福祉施設】西ノ島町大字宇賀６９７番地", "url": "https://www.kaigokensaku.mhlw.go.jp/32/index.php?action_kouhyou_detail_004_kani=true&JigyosyoCd=3272290044-00&ServiceCd=510&Type=search", "url2": "http://www.nishinoshima-fukushikai.com/" }, "geometry": { "type": "Point", "coordinates": [ 133.066246699999965, 36.1162322 ] } },
{ "type": "Feature", "properties": { "内容": "隠岐の島町立特別養護老人ホームなごみ苑【介護老人福祉施設】隠岐郡隠岐の島町郡425番5", "url": "https://www.kaigokensaku.mhlw.go.jp/32/index.php?action_kouhyou_detail_004_kani=true&JigyosyoCd=3272290069-00&ServiceCd=510&Type=search", "url2": "https://atagokai.jp/" }, "geometry": { "type": "Point", "coordinates": [ 133.2506416, 36.284327 ] } },
{ "type": "Feature", "properties": { "内容": "特別養護老人ホーム静和園【介護老人福祉施設】隠岐の島町栄町1088番地", "url": "https://www.kaigokensaku.mhlw.go.jp/32/index.php?action_kouhyou_detail_004_kani=true&JigyosyoCd=3272290010-00&ServiceCd=510&Type=search", "url2": "http://www.kyousei.gr.jp/" }, "geometry": { "type": "Point", "coordinates": [ 133.3267495, 36.2147242 ] } },
{ "type": "Feature", "properties": { "内容": "特別養護老人ホーム　鳴澤の里【介護老人福祉施設】隠岐の島町都万1791-1", "url": "https://www.kaigokensaku.mhlw.go.jp/32/index.php?action_kouhyou_detail_004_kani=true&JigyosyoCd=3272290028-00&ServiceCd=510&Type=search", "url2": "https://www.takatakai.com/" }, "geometry": { "type": "Point", "coordinates": [ 133.235854600000039, 36.1968524 ] } }
]
}
