{
"type": "FeatureCollection",
"name": "geo_32_訪問介護",
"crs": { "type": "name", "properties": { "name": "urn:ogc:def:crs:OGC:1.3:CRS84" } },
"features": [
{ "type": "Feature", "properties": { "内容": "リベラル訪問介護事業所【訪問介護】島根県松江市北田町70番地2", "url": "https://www.kaigokensaku.mhlw.go.jp/32/index.php?action_kouhyou_detail_004_kani=true&JigyosyoCd=3270104395-00&ServiceCd=110&Type=search", "url2": null }, "geometry": { "type": "Point", "coordinates": [ 133.0609009, 35.4776756 ] } },
{ "type": "Feature", "properties": { "内容": "訪問介護事業所わかば【訪問介護】島根県松江市雑賀町221番地", "url": "https://www.kaigokensaku.mhlw.go.jp/32/index.php?action_kouhyou_detail_004_kani=true&JigyosyoCd=3270104130-00&ServiceCd=110&Type=search", "url2": "http://s-ysupport.co.jp" }, "geometry": { "type": "Point", "coordinates": [ 133.062076599999955, 35.4587935 ] } },
{ "type": "Feature", "properties": { "内容": "介護派遣センターあくしゅ【訪問介護】島根県松江市大輪町392番地24", "url": "https://www.kaigokensaku.mhlw.go.jp/32/index.php?action_kouhyou_detail_004_kani=true&JigyosyoCd=3270103884-00&ServiceCd=110&Type=search", "url2": "http://fc24800220182801.web4.blks.jp/" }, "geometry": { "type": "Point", "coordinates": [ 133.059512499999983, 35.4801279 ] } },
{ "type": "Feature", "properties": { "内容": "株式会社訪問介護事業所よいとこ２４【訪問介護】島根県松江市砂子町205-6", "url": "https://www.kaigokensaku.mhlw.go.jp/32/index.php?action_kouhyou_detail_004_kani=true&JigyosyoCd=3270104155-00&ServiceCd=110&Type=search", "url2": "https://yoitoko24.com/" }, "geometry": { "type": "Point", "coordinates": [ 133.043245683466012, 35.473442213912634 ] } },
{ "type": "Feature", "properties": { "内容": "まつえ24【訪問介護】島根県松江市竪町40-1キャッスルコーポ1階", "url": "https://www.kaigokensaku.mhlw.go.jp/32/index.php?action_kouhyou_detail_004_kani=true&JigyosyoCd=3270103371-00&ServiceCd=110&Type=search", "url2": null }, "geometry": { "type": "Point", "coordinates": [ 133.0566627, 35.4583067 ] } },
{ "type": "Feature", "properties": { "内容": "ヘルパーステーションいちばた【訪問介護】松江市中原町38－4ホームいちばた", "url": "https://www.kaigokensaku.mhlw.go.jp/32/index.php?action_kouhyou_detail_004_kani=true&JigyosyoCd=3270104049-00&ServiceCd=110&Type=search", "url2": "http://www.ichibata.co.jp/home/" }, "geometry": { "type": "Point", "coordinates": [ 133.044017419573947, 35.467458679061231 ] } },
{ "type": "Feature", "properties": { "内容": "訪問介護ステーション蓮香【訪問介護】島根県松江市東津田町1357番地有料老人ホーム心の蓮", "url": "https://www.kaigokensaku.mhlw.go.jp/32/index.php?action_kouhyou_detail_004_kani=true&JigyosyoCd=3270104023-00&ServiceCd=110&Type=search", "url2": "https://lifeterrace.blogspot.com/" }, "geometry": { "type": "Point", "coordinates": [ 133.091669200000069, 35.4528678 ] } },
{ "type": "Feature", "properties": { "内容": "ヘルパーステーション八重の郷【訪問介護】上乃木二丁目21番10号", "url": "https://www.kaigokensaku.mhlw.go.jp/32/index.php?action_kouhyou_detail_004_kani=true&JigyosyoCd=3270103652-00&ServiceCd=110&Type=search", "url2": null }, "geometry": { "type": "Point", "coordinates": [ 133.059405199999986, 35.4493898 ] } },
{ "type": "Feature", "properties": { "内容": "ヘルパーステーションしるし【訪問介護】島根県松江市東出雲町意宇東１丁目６番地３", "url": "https://www.kaigokensaku.mhlw.go.jp/32/index.php?action_kouhyou_detail_004_kani=true&JigyosyoCd=3270103819-00&ServiceCd=110&Type=search", "url2": "https://signpost-llc.com/" }, "geometry": { "type": "Point", "coordinates": [ 133.135475614016741, 35.4358327815522 ] } },
{ "type": "Feature", "properties": { "内容": "マースィ介護センター【訪問介護】西川津町１２０６－５ロイヤルクレドール１０５", "url": "https://www.kaigokensaku.mhlw.go.jp/32/index.php?action_kouhyou_detail_004_kani=true&JigyosyoCd=3270104361-00&ServiceCd=110&Type=search", "url2": null }, "geometry": { "type": "Point", "coordinates": [ 133.073604, 35.4872051 ] } },
{ "type": "Feature", "properties": { "内容": "サンキウェルビィ　介護センター秋鹿【訪問介護】島根県松江市岡本町1041-1", "url": "https://www.kaigokensaku.mhlw.go.jp/32/index.php?action_kouhyou_detail_004_kani=true&JigyosyoCd=3270102696-00&ServiceCd=110&Type=search", "url2": null }, "geometry": { "type": "Point", "coordinates": [ 132.950946, 35.475844599999974 ] } },
{ "type": "Feature", "properties": { "内容": "サンキ・ウエルビィ介護センター松江【訪問介護】島根県松江市東津田町１７８７番地サンキ・ウエルビィ介護センター松江", "url": "https://www.kaigokensaku.mhlw.go.jp/32/index.php?action_kouhyou_detail_004_kani=true&JigyosyoCd=3270100633-00&ServiceCd=110&Type=search", "url2": null }, "geometry": { "type": "Point", "coordinates": [ 133.086875500000019, 35.4490624 ] } },
{ "type": "Feature", "properties": { "内容": "訪問看護・介護ステーションすずらん【訪問介護】島根県松江市上乃木七丁目6－1かもと整形外科クリニック2階", "url": "https://www.kaigokensaku.mhlw.go.jp/32/index.php?action_kouhyou_detail_004_kani=true&JigyosyoCd=3260190081-00&ServiceCd=110&Type=search", "url2": "http://fu-su-no.jp/" }, "geometry": { "type": "Point", "coordinates": [ 133.071303793917878, 35.44594161253103 ] } },
{ "type": "Feature", "properties": { "内容": "こころねヘルパーステーション【訪問介護】島根県松江市東朝日町３７番地１シニアコート東朝日町", "url": "https://www.kaigokensaku.mhlw.go.jp/32/index.php?action_kouhyou_detail_004_kani=true&JigyosyoCd=3270102449-00&ServiceCd=110&Type=search", "url2": "https://region-design.co.jp/content/company.html" }, "geometry": { "type": "Point", "coordinates": [ 133.073153700000034, 35.4618665 ] } },
{ "type": "Feature", "properties": { "内容": "持田ヘルパーステーション【訪問介護】松江市川原町２９２－２", "url": "https://www.kaigokensaku.mhlw.go.jp/32/index.php?action_kouhyou_detail_004_kani=true&JigyosyoCd=3270100476-00&ServiceCd=110&Type=search", "url2": null }, "geometry": { "type": "Point", "coordinates": [ 133.092874599999959, 35.5027013 ] } },
{ "type": "Feature", "properties": { "内容": "訪問介護ステーションアゼリア【訪問介護】島根県松江市黒田町１９９１ブランチアゼリア　2階", "url": "https://www.kaigokensaku.mhlw.go.jp/32/index.php?action_kouhyou_detail_004_kani=true&JigyosyoCd=3270102282-00&ServiceCd=110&Type=search", "url2": "https://mizusumikai.or.jp/" }, "geometry": { "type": "Point", "coordinates": [ 133.041761901713556, 35.479967060569344 ] } },
{ "type": "Feature", "properties": { "内容": "訪問介護ステーション花穏【訪問介護】島根県松江市東出雲町春日33-1有料老人ホーム花穏", "url": "https://www.kaigokensaku.mhlw.go.jp/32/index.php?action_kouhyou_detail_004_kani=true&JigyosyoCd=3270103108-00&ServiceCd=110&Type=search", "url2": null }, "geometry": { "type": "Point", "coordinates": [ 133.112955400000033, 35.4216695 ] } },
{ "type": "Feature", "properties": { "内容": "にこにこヘルパーさん【訪問介護】西津田２丁目９番９号", "url": "https://www.kaigokensaku.mhlw.go.jp/32/index.php?action_kouhyou_detail_004_kani=true&JigyosyoCd=3270102076-00&ServiceCd=110&Type=search", "url2": null }, "geometry": { "type": "Point", "coordinates": [ 133.077220606745868, 35.460917391862779 ] } },
{ "type": "Feature", "properties": { "内容": "株式会社　まつえ福祉会　もみの木苑【訪問介護】島根県松江市東出雲町出雲郷771-4", "url": "https://www.kaigokensaku.mhlw.go.jp/32/index.php?action_kouhyou_detail_004_kani=true&JigyosyoCd=3270103298-00&ServiceCd=110&Type=search", "url2": "https://lit.link/mominokien" }, "geometry": { "type": "Point", "coordinates": [ 133.136877, 35.4264619 ] } },
{ "type": "Feature", "properties": { "内容": "松江24時間介護センター【訪問介護】島根県松江市西持田町341番地1フェリーチェ持田", "url": "https://www.kaigokensaku.mhlw.go.jp/32/index.php?action_kouhyou_detail_004_kani=true&JigyosyoCd=3270102332-00&ServiceCd=110&Type=search", "url2": "http://www.orangeroad.co.jp/" }, "geometry": { "type": "Point", "coordinates": [ 133.073885755880724, 35.497417754306042 ] } },
{ "type": "Feature", "properties": { "内容": "訪問介護ステーションまちびと【訪問介護】島根県松江市馬潟町98番1", "url": "https://www.kaigokensaku.mhlw.go.jp/32/index.php?action_kouhyou_detail_004_kani=true&JigyosyoCd=3270103207-00&ServiceCd=110&Type=search", "url2": null }, "geometry": { "type": "Point", "coordinates": [ 133.114454900000055, 35.4452726 ] } },
{ "type": "Feature", "properties": { "内容": "ヘルパーステーション優樹【訪問介護】島根県松江市宍道町伊志見４１０番地", "url": "https://www.kaigokensaku.mhlw.go.jp/32/index.php?action_kouhyou_detail_004_kani=true&JigyosyoCd=3270401866-00&ServiceCd=110&Type=search", "url2": null }, "geometry": { "type": "Point", "coordinates": [ 132.727300600000035, 35.3669037 ] } },
{ "type": "Feature", "properties": { "内容": "ニチイケアセンタ－松江北【訪問介護】島根県松江市春日町161", "url": "https://www.kaigokensaku.mhlw.go.jp/32/index.php?action_kouhyou_detail_004_kani=true&JigyosyoCd=3270104122-00&ServiceCd=110&Type=search", "url2": "http://www.nichiigakkan.co.jp" }, "geometry": { "type": "Point", "coordinates": [ 133.044867599999975, 35.485709 ] } },
{ "type": "Feature", "properties": { "内容": "ニチイケアセンター浜乃木【訪問介護】松江市浜乃木六丁目６番２３号", "url": "https://www.kaigokensaku.mhlw.go.jp/32/index.php?action_kouhyou_detail_004_kani=true&JigyosyoCd=3270100096-00&ServiceCd=110&Type=search", "url2": "http://www.nichiigakkan.co.jp" }, "geometry": { "type": "Point", "coordinates": [ 133.056461200000086, 35.4440765 ] } },
{ "type": "Feature", "properties": { "内容": "ヘルパーステーション心暖【訪問介護】島根県松江市玉湯町湯町190番地1", "url": "https://www.kaigokensaku.mhlw.go.jp/32/index.php?action_kouhyou_detail_004_kani=true&JigyosyoCd=3270102563-00&ServiceCd=110&Type=search", "url2": "http://koharu-unity.com/" }, "geometry": { "type": "Point", "coordinates": [ 133.014949500000057, 35.433821 ] } },
{ "type": "Feature", "properties": { "内容": "訪問介護事業所花きりん【訪問介護】島根県松江市古志原2丁目18-23-202", "url": "https://www.kaigokensaku.mhlw.go.jp/32/index.php?action_kouhyou_detail_004_kani=true&JigyosyoCd=3270101912-00&ServiceCd=110&Type=search", "url2": "http://hanakirin.net" }, "geometry": { "type": "Point", "coordinates": [ 133.080717029499823, 35.449040559027715 ] } },
{ "type": "Feature", "properties": { "内容": "訪問介護のコクア【訪問介護】島根県松江市国屋町字池代り３７８番地２４", "url": "https://www.kaigokensaku.mhlw.go.jp/32/index.php?action_kouhyou_detail_004_kani=true&JigyosyoCd=3270102746-00&ServiceCd=110&Type=search", "url2": null }, "geometry": { "type": "Point", "coordinates": [ 133.031504950063209, 35.474417207382437 ] } },
{ "type": "Feature", "properties": { "内容": "訪問介護事業所　玉湯すずかけの樹【訪問介護】島根県松江市玉湯町湯町1186番地1", "url": "https://www.kaigokensaku.mhlw.go.jp/32/index.php?action_kouhyou_detail_004_kani=true&JigyosyoCd=3270104429-00&ServiceCd=110&Type=search", "url2": null }, "geometry": { "type": "Point", "coordinates": [ 133.0121638, 35.4358628 ] } },
{ "type": "Feature", "properties": { "内容": "訪問介護事業所すずかけの樹【訪問介護】島根県松江市上乃木10丁目2-14", "url": "https://www.kaigokensaku.mhlw.go.jp/32/index.php?action_kouhyou_detail_004_kani=true&JigyosyoCd=3270104411-00&ServiceCd=110&Type=search", "url2": "http://www.matsuets.com/company" }, "geometry": { "type": "Point", "coordinates": [ 133.0687696, 35.4379789 ] } },
{ "type": "Feature", "properties": { "内容": "訪問介護事業所　千本すずかけの樹【訪問介護】松江市東忌部町183番地7", "url": "https://www.kaigokensaku.mhlw.go.jp/32/index.php?action_kouhyou_detail_004_kani=true&JigyosyoCd=3270104403-00&ServiceCd=110&Type=search", "url2": "http://www.matsuets.com/_" }, "geometry": { "type": "Point", "coordinates": [ 133.038938, 35.41389 ] } },
{ "type": "Feature", "properties": { "内容": "訪問介護事業所　はくいし【訪問介護】島根県松江市宍道町白石184番地3住宅型有料老人ホームはくいしの里", "url": "https://www.kaigokensaku.mhlw.go.jp/32/index.php?action_kouhyou_detail_004_kani=true&JigyosyoCd=3270103926-00&ServiceCd=110&Type=search", "url2": "https://m-care.themedia.jp/" }, "geometry": { "type": "Point", "coordinates": [ 132.924436, 35.413419 ] } },
{ "type": "Feature", "properties": { "内容": "ヘルパーステーションすみれ【訪問介護】松江市中原町３１３－１", "url": "https://www.kaigokensaku.mhlw.go.jp/32/index.php?action_kouhyou_detail_004_kani=true&JigyosyoCd=3270100369-00&ServiceCd=110&Type=search", "url2": null }, "geometry": { "type": "Point", "coordinates": [ 133.044554160191666, 35.468462100902471 ] } },
{ "type": "Feature", "properties": { "内容": "こころねヘルパーステーション西津田【訪問介護】松江市西津田３丁目１３－３", "url": "https://www.kaigokensaku.mhlw.go.jp/32/index.php?action_kouhyou_detail_004_kani=true&JigyosyoCd=3270102670-00&ServiceCd=110&Type=search", "url2": "http://www.medicalcare-westjapan.jp/" }, "geometry": { "type": "Point", "coordinates": [ 133.080536599999959, 35.4571282 ] } },
{ "type": "Feature", "properties": { "内容": "こころねヘルパーステーション上乃木【訪問介護】上乃木七丁目2番22号シニアコート上乃木七丁目", "url": "https://www.kaigokensaku.mhlw.go.jp/32/index.php?action_kouhyou_detail_004_kani=true&JigyosyoCd=3270104320-00&ServiceCd=110&Type=search", "url2": "https://region-design.co.jp/" }, "geometry": { "type": "Point", "coordinates": [ 133.069186699999989, 35.4462959 ] } },
{ "type": "Feature", "properties": { "内容": "こころねヘルパーステーション北田町【訪問介護】島根県松江市北田町71番地１シニアコート北田町", "url": "https://www.kaigokensaku.mhlw.go.jp/32/index.php?action_kouhyou_detail_004_kani=true&JigyosyoCd=3270104239-00&ServiceCd=110&Type=search", "url2": "https://region-design.co.jp/" }, "geometry": { "type": "Point", "coordinates": [ 133.0605027, 35.4774492 ] } },
{ "type": "Feature", "properties": { "内容": "こころねヘルパーステーション春日町【訪問介護】島根県松江市春日町157番地4シニアコート春日町", "url": "https://www.kaigokensaku.mhlw.go.jp/32/index.php?action_kouhyou_detail_004_kani=true&JigyosyoCd=3270104015-00&ServiceCd=110&Type=search", "url2": "http://www.medicalcare-westjapan.jp/" }, "geometry": { "type": "Point", "coordinates": [ 133.046676061500534, 35.486218350311546 ] } },
{ "type": "Feature", "properties": { "内容": "こころねヘルパーステーション津田【訪問介護】島根県松江市東津田町1080シニアステージ東津田", "url": "https://www.kaigokensaku.mhlw.go.jp/32/index.php?action_kouhyou_detail_004_kani=true&JigyosyoCd=3270104346-00&ServiceCd=110&Type=search", "url2": "http://www.medicalcare-westjapan.jp/" }, "geometry": { "type": "Point", "coordinates": [ 133.0872704, 35.4564598 ] } },
{ "type": "Feature", "properties": { "内容": "こころねヘルパーステーション嫁島町【訪問介護】松江市嫁島町11番5号シニアコート嫁島町", "url": "https://www.kaigokensaku.mhlw.go.jp/32/index.php?action_kouhyou_detail_004_kani=true&JigyosyoCd=3270103082-00&ServiceCd=110&Type=search", "url2": "https://region-design.co.jp" }, "geometry": { "type": "Point", "coordinates": [ 133.048600699999952, 35.4502061 ] } },
{ "type": "Feature", "properties": { "内容": "こころねヘルパーステーション石橋町【訪問介護】島根県松江市石橋町３１－１シニアコート石橋町", "url": "https://www.kaigokensaku.mhlw.go.jp/32/index.php?action_kouhyou_detail_004_kani=true&JigyosyoCd=3270103165-00&ServiceCd=110&Type=search", "url2": "https://region-design.co.jp/search/contents/matsue-area/index.html" }, "geometry": { "type": "Point", "coordinates": [ 133.055967555819734, 35.479556810207306 ] } },
{ "type": "Feature", "properties": { "内容": "こころねヘルパーステーション内中原【訪問介護】島根県松江市内中原町200-2", "url": "https://www.kaigokensaku.mhlw.go.jp/32/index.php?action_kouhyou_detail_004_kani=true&JigyosyoCd=3270103793-00&ServiceCd=110&Type=search", "url2": "http：//region-desige.co.jp/" }, "geometry": { "type": "Point", "coordinates": [ 133.04769085952455, 35.475268433978975 ] } },
{ "type": "Feature", "properties": { "内容": "こころねヘルパーステーション東津田【訪問介護】島根県松江市東津田1136番地1", "url": "https://www.kaigokensaku.mhlw.go.jp/32/index.php?action_kouhyou_detail_004_kani=true&JigyosyoCd=3270104296-00&ServiceCd=110&Type=search", "url2": "http://www.medicalcare-westjapan.jp/" }, "geometry": { "type": "Point", "coordinates": [ 133.083090199999987, 35.4582836 ] } },
{ "type": "Feature", "properties": { "内容": "老人ホームヘルプサービス事業ねぎらい【訪問介護】松江市山代町９３４－５", "url": "https://www.kaigokensaku.mhlw.go.jp/32/index.php?action_kouhyou_detail_004_kani=true&JigyosyoCd=3270100468-00&ServiceCd=110&Type=search", "url2": "http://www.sirayurikai.or.jp/" }, "geometry": { "type": "Point", "coordinates": [ 133.09536090000006, 35.4399581 ] } },
{ "type": "Feature", "properties": { "内容": "ヘルパーステーションふれあい【訪問介護】島根県松江市野原町585番地", "url": "https://www.kaigokensaku.mhlw.go.jp/32/index.php?action_kouhyou_detail_004_kani=true&JigyosyoCd=3270100831-00&ServiceCd=110&Type=search", "url2": null }, "geometry": { "type": "Point", "coordinates": [ 133.136461599999961, 35.5188022 ] } },
{ "type": "Feature", "properties": { "内容": "湖北ふれあい　しんじ湖温泉ヘルパーステーション【訪問介護】松江市国屋町498-6", "url": "https://www.kaigokensaku.mhlw.go.jp/32/index.php?action_kouhyou_detail_004_kani=true&JigyosyoCd=3270101029-00&ServiceCd=110&Type=search", "url2": "http://kohoku-aikanosato.jp" }, "geometry": { "type": "Point", "coordinates": [ 133.03760863450168, 35.469171980146179 ] } },
{ "type": "Feature", "properties": { "内容": "法吉ヘルパーステーション【訪問介護】松江市法吉町629-2", "url": "https://www.kaigokensaku.mhlw.go.jp/32/index.php?action_kouhyou_detail_004_kani=true&JigyosyoCd=3270100518-00&ServiceCd=110&Type=search", "url2": "http://www.mizuumi.jp" }, "geometry": { "type": "Point", "coordinates": [ 133.046262936663339, 35.491600238148045 ] } },
{ "type": "Feature", "properties": { "内容": "社会福祉法人敬仁会　　訪問介護ステーションあんしん【訪問介護】島根県松江市佐草町2－2社会福祉法人敬仁会", "url": "https://www.kaigokensaku.mhlw.go.jp/32/index.php?action_kouhyou_detail_004_kani=true&JigyosyoCd=3270104536-00&ServiceCd=110&Type=search", "url2": null }, "geometry": { "type": "Point", "coordinates": [ 133.0766181, 35.4320988 ] } },
{ "type": "Feature", "properties": { "内容": "ほうもんかいごじぎょうしょ　わこう【訪問介護】島根県松江市東出雲町下意東3145-2", "url": "https://www.kaigokensaku.mhlw.go.jp/32/index.php?action_kouhyou_detail_004_kani=true&JigyosyoCd=3270104544-00&ServiceCd=110&Type=search", "url2": "http://wakou-kai.or.jp" }, "geometry": { "type": "Point", "coordinates": [ 133.1812706, 35.4266458 ] } },
{ "type": "Feature", "properties": { "内容": "訪問介護事業所たまゆの杜【訪問介護】松江市玉湯町湯町１９２４－１", "url": "https://www.kaigokensaku.mhlw.go.jp/32/index.php?action_kouhyou_detail_004_kani=true&JigyosyoCd=3270102043-00&ServiceCd=110&Type=search", "url2": "https://www.tamayunomori.com" }, "geometry": { "type": "Point", "coordinates": [ 133.006569799999966, 35.4267631 ] } },
{ "type": "Feature", "properties": { "内容": "社会福祉法人山陰家庭学院ゆうなぎ訪問介護事業所【訪問介護】松江市島根町野波２３１８番地３", "url": "https://www.kaigokensaku.mhlw.go.jp/32/index.php?action_kouhyou_detail_004_kani=true&JigyosyoCd=3271100145-00&ServiceCd=110&Type=search", "url2": "http://www.sanin-kateigakuin.jp/establishment/sener-yunagi.html" }, "geometry": { "type": "Point", "coordinates": [ 133.100610010786454, 35.586152751376197 ] } },
{ "type": "Feature", "properties": { "内容": "社会福祉法人　松江市社会福祉協議会　松江社協介護センター【訪問介護】松江市鹿島町佐陀本郷640番地1松江市役所鹿島支所３階", "url": "https://www.kaigokensaku.mhlw.go.jp/32/index.php?action_kouhyou_detail_004_kani=true&JigyosyoCd=3270100013-00&ServiceCd=110&Type=search", "url2": null }, "geometry": { "type": "Point", "coordinates": [ 132.995779299999981, 35.5221098 ] } },
{ "type": "Feature", "properties": { "内容": "社会福祉法人松江市社会福祉協議会宍道介護センター【訪問介護】松江市宍道町上来待213-1", "url": "https://www.kaigokensaku.mhlw.go.jp/32/index.php?action_kouhyou_detail_004_kani=true&JigyosyoCd=3271100244-00&ServiceCd=110&Type=search", "url2": null }, "geometry": { "type": "Point", "coordinates": [ 132.9607876, 35.4029323 ] } },
{ "type": "Feature", "properties": { "内容": "社会福祉法人松江市社会福祉協議会美保関介護センター【訪問介護】松江市美保関町片江２２６８番８", "url": "https://www.kaigokensaku.mhlw.go.jp/32/index.php?action_kouhyou_detail_004_kani=true&JigyosyoCd=3271100343-00&ServiceCd=110&Type=search", "url2": null }, "geometry": { "type": "Point", "coordinates": [ 133.184426799999983, 35.5592852 ] } },
{ "type": "Feature", "properties": { "内容": "津田訪問介護センター【訪問介護】松江市西津田十丁目１９－５０", "url": "https://www.kaigokensaku.mhlw.go.jp/32/index.php?action_kouhyou_detail_004_kani=true&JigyosyoCd=3270100161-00&ServiceCd=110&Type=search", "url2": "http://www.tsudanosato.jp" }, "geometry": { "type": "Point", "coordinates": [ 133.079714700000068, 35.4528508 ] } },
{ "type": "Feature", "properties": { "内容": "東寿苑ホームヘルパーステーション【訪問介護】島根県松江市東出雲町出雲郷４９３", "url": "https://www.kaigokensaku.mhlw.go.jp/32/index.php?action_kouhyou_detail_004_kani=true&JigyosyoCd=3271100236-00&ServiceCd=110&Type=search", "url2": "http://www.so‐unkai.jp/" }, "geometry": { "type": "Point", "coordinates": [ 133.127614, 35.432296900000011 ] } },
{ "type": "Feature", "properties": { "内容": "学園ヘルパーステーション【訪問介護】島根県松江市学園２丁目７－１６", "url": "https://www.kaigokensaku.mhlw.go.jp/32/index.php?action_kouhyou_detail_004_kani=true&JigyosyoCd=3270102001-00&ServiceCd=110&Type=search", "url2": null }, "geometry": { "type": "Point", "coordinates": [ 133.065342399999963, 35.4829444 ] } },
{ "type": "Feature", "properties": { "内容": "生協ヘルパーステーション【訪問介護】松江市佐草町456-1", "url": "https://www.kaigokensaku.mhlw.go.jp/32/index.php?action_kouhyou_detail_004_kani=true&JigyosyoCd=3270100401-00&ServiceCd=110&Type=search", "url2": "http://roken-niji.jp" }, "geometry": { "type": "Point", "coordinates": [ 133.072057800000039, 35.4316252 ] } },
{ "type": "Feature", "properties": { "内容": "ふれあいヘルパーステーション【訪問介護】松江市西津田7-14-21", "url": "https://www.kaigokensaku.mhlw.go.jp/32/index.php?action_kouhyou_detail_004_kani=true&JigyosyoCd=3270100773-00&ServiceCd=110&Type=search", "url2": "http://www.min-iren.com" }, "geometry": { "type": "Point", "coordinates": [ 133.067504399999962, 35.4551365 ] } },
{ "type": "Feature", "properties": { "内容": "全労済在宅介護サービスセンターほほえみ【訪問介護】松江市東出雲町錦新町８丁目１番１号", "url": "https://www.kaigokensaku.mhlw.go.jp/32/index.php?action_kouhyou_detail_004_kani=true&JigyosyoCd=3270102845-00&ServiceCd=110&Type=search", "url2": "http://www.zenrosai-wic.co.jp/" }, "geometry": { "type": "Point", "coordinates": [ 133.142806699999937, 35.4320478 ] } },
{ "type": "Feature", "properties": { "内容": "北陽マイズホームヘルパー【訪問介護】松江市袖師町9-35", "url": "https://www.kaigokensaku.mhlw.go.jp/32/index.php?action_kouhyou_detail_004_kani=true&JigyosyoCd=3270102167-00&ServiceCd=110&Type=search", "url2": null }, "geometry": { "type": "Point", "coordinates": [ 133.050930900000026, 35.4535697 ] } },
{ "type": "Feature", "properties": { "内容": "ヘルパーステーションしんじ【訪問介護】松江市宍道町佐々布２１４５－１７２", "url": "https://www.kaigokensaku.mhlw.go.jp/32/index.php?action_kouhyou_detail_004_kani=true&JigyosyoCd=3270101359-00&ServiceCd=110&Type=search", "url2": null }, "geometry": { "type": "Point", "coordinates": [ 132.887489800000026, 35.3989082 ] } },
{ "type": "Feature", "properties": { "内容": "訪問介護事業所　ケアサービス松江【訪問介護】島根県松江市北堀町211番地", "url": "https://www.kaigokensaku.mhlw.go.jp/32/index.php?action_kouhyou_detail_004_kani=true&JigyosyoCd=3270100211-00&ServiceCd=110&Type=search", "url2": "http://www.web-sanin.co.jp/co/cs-matue/" }, "geometry": { "type": "Point", "coordinates": [ 133.053621499999963, 35.4763698 ] } },
{ "type": "Feature", "properties": { "内容": "ライブアシスト松江訪問介護事業所【訪問介護】東出雲町錦新町6丁目4-1", "url": "https://www.kaigokensaku.mhlw.go.jp/32/index.php?action_kouhyou_detail_004_kani=true&JigyosyoCd=3270102993-00&ServiceCd=110&Type=search", "url2": "http://y-liveassist.com/" }, "geometry": { "type": "Point", "coordinates": [ 133.140287599999965, 35.430950500000016 ] } },
{ "type": "Feature", "properties": { "内容": "いつつぼし【訪問介護】松江市法吉町５０番地１２", "url": "https://www.kaigokensaku.mhlw.go.jp/32/index.php?action_kouhyou_detail_004_kani=true&JigyosyoCd=3270102266-00&ServiceCd=110&Type=search", "url2": null }, "geometry": { "type": "Point", "coordinates": [ 133.059479, 35.4868382 ] } },
{ "type": "Feature", "properties": { "内容": "ヘルパーステーションらいふ嫁島【訪問介護】島根県松江市西嫁島1丁目3-3", "url": "https://www.kaigokensaku.mhlw.go.jp/32/index.php?action_kouhyou_detail_004_kani=true&JigyosyoCd=3270103934-00&ServiceCd=110&Type=search", "url2": "https：//www.matsue-newyork.com/" }, "geometry": { "type": "Point", "coordinates": [ 133.048473, 35.4484758 ] } },
{ "type": "Feature", "properties": { "内容": "ヘルパーステーション　彩りテラス～東朝日町～【訪問介護】東朝日町２７８－１０", "url": "https://www.kaigokensaku.mhlw.go.jp/32/index.php?action_kouhyou_detail_004_kani=true&JigyosyoCd=3270103033-00&ServiceCd=110&Type=search", "url2": null }, "geometry": { "type": "Point", "coordinates": [ 133.076278300000013, 35.4639413 ] } },
{ "type": "Feature", "properties": { "内容": "特定非営利活動法人　はっぴいライフ【訪問介護】島根県松江市灘町１－３５白潟トーケンレジデンス５０２", "url": "https://www.kaigokensaku.mhlw.go.jp/32/index.php?action_kouhyou_detail_004_kani=true&JigyosyoCd=3270100922-00&ServiceCd=110&Type=search", "url2": null }, "geometry": { "type": "Point", "coordinates": [ 133.054435044197021, 35.462766146695124 ] } },
{ "type": "Feature", "properties": { "内容": "嵩の杜訪問介護事業所【訪問介護】島根県松江市西川津町533-1", "url": "https://www.kaigokensaku.mhlw.go.jp/32/index.php?action_kouhyou_detail_004_kani=true&JigyosyoCd=3270102910-00&ServiceCd=110&Type=search", "url2": "https://www.hokuyo-iryo.com/" }, "geometry": { "type": "Point", "coordinates": [ 133.075284415230954, 35.486328007423445 ] } },
{ "type": "Feature", "properties": { "内容": "訪問介護事業所かがやき【訪問介護】島根県松江市大庭町１８１２－２住宅型有料老人ホームかがやき", "url": "https://www.kaigokensaku.mhlw.go.jp/32/index.php?action_kouhyou_detail_004_kani=true&JigyosyoCd=3270103579-00&ServiceCd=110&Type=search", "url2": "https://lush-care.jp" }, "geometry": { "type": "Point", "coordinates": [ 133.085211985358427, 35.43708592408661 ] } },
{ "type": "Feature", "properties": { "内容": "カラフルヘルパーステーション【訪問介護】島根県松江市大輪町420番地40", "url": "https://www.kaigokensaku.mhlw.go.jp/32/index.php?action_kouhyou_detail_004_kani=true&JigyosyoCd=3270104452-00&ServiceCd=110&Type=search", "url2": "http://www.houshinkai-s.or.jp/" }, "geometry": { "type": "Point", "coordinates": [ 133.059877, 35.4793519 ] } },
{ "type": "Feature", "properties": { "内容": "訪問介護ステーションあやめ【訪問介護】島根県松江市西尾町936番地21", "url": "https://www.kaigokensaku.mhlw.go.jp/32/index.php?action_kouhyou_detail_004_kani=true&JigyosyoCd=3270103959-00&ServiceCd=110&Type=search", "url2": "http://www.toukou-g.com/" }, "geometry": { "type": "Point", "coordinates": [ 133.09342846632876, 35.466214707641385 ] } },
{ "type": "Feature", "properties": { "内容": "ヘルパーステーション　なかよし【訪問介護】島根県松江市古志原4-19-43ケアハウス古志原ヒルズ内", "url": "https://www.kaigokensaku.mhlw.go.jp/32/index.php?action_kouhyou_detail_004_kani=true&JigyosyoCd=3270103470-00&ServiceCd=110&Type=search", "url2": "http://kamiguchifukushikai.jp/" }, "geometry": { "type": "Point", "coordinates": [ 133.078589500000021, 35.4421427 ] } },
{ "type": "Feature", "properties": { "内容": "ヘルパーステーションなずな【訪問介護】島根県松江市黒田町60", "url": "https://www.kaigokensaku.mhlw.go.jp/32/index.php?action_kouhyou_detail_004_kani=true&JigyosyoCd=3270103637-00&ServiceCd=110&Type=search", "url2": null }, "geometry": { "type": "Point", "coordinates": [ 133.043886199999946, 35.4791386 ] } },
{ "type": "Feature", "properties": { "内容": "ケアセンター　ポプリ【訪問介護】西川津町3080番地14", "url": "https://www.kaigokensaku.mhlw.go.jp/32/index.php?action_kouhyou_detail_004_kani=true&JigyosyoCd=3270104445-00&ServiceCd=110&Type=search", "url2": "https://carepopuri.com" }, "geometry": { "type": "Point", "coordinates": [ 133.078925199999986, 35.4835122 ] } },
{ "type": "Feature", "properties": { "内容": "ケアセンター大空【訪問介護】島根県松江市下東川津町63-5リービングケアセンターひまわり", "url": "https://www.kaigokensaku.mhlw.go.jp/32/index.php?action_kouhyou_detail_004_kani=true&JigyosyoCd=3270104353-00&ServiceCd=110&Type=search", "url2": "http://www.tidori.org/" }, "geometry": { "type": "Point", "coordinates": [ 133.0823107, 35.4974516 ] } },
{ "type": "Feature", "properties": { "内容": "ひなた訪問介護事業所【訪問介護】島根県松江市古志原5丁目13－27", "url": "https://www.kaigokensaku.mhlw.go.jp/32/index.php?action_kouhyou_detail_004_kani=true&JigyosyoCd=3270104486-00&ServiceCd=110&Type=search", "url2": null }, "geometry": { "type": "Point", "coordinates": [ 133.082448699999986, 35.4430366 ] } },
{ "type": "Feature", "properties": { "内容": "さんさんヘルパーステーション【訪問介護】島根県松江市東出雲町揖屋1196", "url": "https://www.kaigokensaku.mhlw.go.jp/32/index.php?action_kouhyou_detail_004_kani=true&JigyosyoCd=3270104569-00&ServiceCd=110&Type=search", "url2": "https://cs.sansancare.com/wp-login.php" }, "geometry": { "type": "Point", "coordinates": [ 133.153082, 35.4266954 ] } },
{ "type": "Feature", "properties": { "内容": "訪問介護事業所あおぞら【訪問介護】島根県松江市大庭町1811-3サービス付き高齢者向け住宅あかつき　1階事務所内", "url": "https://www.kaigokensaku.mhlw.go.jp/32/index.php?action_kouhyou_detail_004_kani=true&JigyosyoCd=3270104262-00&ServiceCd=110&Type=search", "url2": "https://lush-care.jp/" }, "geometry": { "type": "Point", "coordinates": [ 133.085841944236677, 35.435236499653115 ] } },
{ "type": "Feature", "properties": { "内容": "あいの会【訪問介護】浜田市三隅町三隅370-3", "url": "https://www.kaigokensaku.mhlw.go.jp/32/index.php?action_kouhyou_detail_004_kani=true&JigyosyoCd=3271900262-00&ServiceCd=110&Type=search", "url2": null }, "geometry": { "type": "Point", "coordinates": [ 131.958244267459122, 34.794895394724712 ] } },
{ "type": "Feature", "properties": { "内容": "ヘルパーステーション花笑み【訪問介護】島根県浜田市長沢町455-4", "url": "https://www.kaigokensaku.mhlw.go.jp/32/index.php?action_kouhyou_detail_004_kani=true&JigyosyoCd=3270701372-00&ServiceCd=110&Type=search", "url2": null }, "geometry": { "type": "Point", "coordinates": [ 132.0971326, 34.907374 ] } },
{ "type": "Feature", "properties": { "内容": "はちどり介護【訪問介護】殿町62-5", "url": "https://www.kaigokensaku.mhlw.go.jp/32/index.php?action_kouhyou_detail_004_kani=true&JigyosyoCd=3270701406-00&ServiceCd=110&Type=search", "url2": "http://kotonoha.infomation.jp/" }, "geometry": { "type": "Point", "coordinates": [ 139.7537082, 35.5397391 ] } },
{ "type": "Feature", "properties": { "内容": "ヘルパーステーション　心の里　はるにれ【訪問介護】島根県浜田市三隅町三隅382番地1", "url": "https://www.kaigokensaku.mhlw.go.jp/32/index.php?action_kouhyou_detail_004_kani=true&JigyosyoCd=3270701125-00&ServiceCd=110&Type=search", "url2": "http://www.harunire-tms.jp/" }, "geometry": { "type": "Point", "coordinates": [ 131.956550482217381, 34.794750639175824 ] } },
{ "type": "Feature", "properties": { "内容": "サンキ・ウエルビィ介護センター浜田【訪問介護】島根県浜田市下府町821番地7", "url": "https://www.kaigokensaku.mhlw.go.jp/32/index.php?action_kouhyou_detail_004_kani=true&JigyosyoCd=3270700739-00&ServiceCd=110&Type=search", "url2": null }, "geometry": { "type": "Point", "coordinates": [ 132.11045198876036, 34.92681669456482 ] } },
{ "type": "Feature", "properties": { "内容": "ヘルパーステーションそうえん【訪問介護】島根県浜田市相生町4219-1", "url": "https://www.kaigokensaku.mhlw.go.jp/32/index.php?action_kouhyou_detail_004_kani=true&JigyosyoCd=3270701323-00&ServiceCd=110&Type=search", "url2": null }, "geometry": { "type": "Point", "coordinates": [ 132.097662300000025, 34.8962142 ] } },
{ "type": "Feature", "properties": { "内容": "ハート介護センター【訪問介護】浜田市田町1466-1", "url": "https://www.kaigokensaku.mhlw.go.jp/32/index.php?action_kouhyou_detail_004_kani=true&JigyosyoCd=3270700937-00&ServiceCd=110&Type=search", "url2": null }, "geometry": { "type": "Point", "coordinates": [ 132.084642332293669, 34.901306097759502 ] } },
{ "type": "Feature", "properties": { "内容": "スマイルヘルパーステーション【訪問介護】浜田市港町294-11番地", "url": "https://www.kaigokensaku.mhlw.go.jp/32/index.php?action_kouhyou_detail_004_kani=true&JigyosyoCd=3270700309-00&ServiceCd=110&Type=search", "url2": null }, "geometry": { "type": "Point", "coordinates": [ 132.070255195245409, 34.904334181091272 ] } },
{ "type": "Feature", "properties": { "内容": "ヘルパーステーション　真【訪問介護】島根県浜田市殿町79番地44", "url": "https://www.kaigokensaku.mhlw.go.jp/32/index.php?action_kouhyou_detail_004_kani=true&JigyosyoCd=3270701356-00&ServiceCd=110&Type=search", "url2": "http://hp.kaipoke.biz/6ae/" }, "geometry": { "type": "Point", "coordinates": [ 132.078443, 34.9008042 ] } },
{ "type": "Feature", "properties": { "内容": "ヘルパーあさひ【訪問介護】浜田市旭町今市616番地", "url": "https://www.kaigokensaku.mhlw.go.jp/32/index.php?action_kouhyou_detail_004_kani=true&JigyosyoCd=3271900403-00&ServiceCd=110&Type=search", "url2": null }, "geometry": { "type": "Point", "coordinates": [ 132.256721299999981, 34.862388699999983 ] } },
{ "type": "Feature", "properties": { "内容": "株式会社　輪【訪問介護】島根県浜田市竹迫町2901番地", "url": "https://www.kaigokensaku.mhlw.go.jp/32/index.php?action_kouhyou_detail_004_kani=true&JigyosyoCd=3270701257-00&ServiceCd=110&Type=search", "url2": "http://rinhoumon.wix.com/rinhoumon" }, "geometry": { "type": "Point", "coordinates": [ 132.085568165641462, 34.897344499724881 ] } },
{ "type": "Feature", "properties": { "内容": "浜田市社会福祉協議会　指定訪問介護事業所【訪問介護】浜田市野原町859－1", "url": "https://www.kaigokensaku.mhlw.go.jp/32/index.php?action_kouhyou_detail_004_kani=true&JigyosyoCd=3270700101-00&ServiceCd=110&Type=search", "url2": "http://www.hamada-shakyo.com/" }, "geometry": { "type": "Point", "coordinates": [ 132.07687, 34.8862536 ] } },
{ "type": "Feature", "properties": { "内容": "指定訪問介護事業所・美川【訪問介護】浜田市内村町567番地（ケアハウス美川内）ケアハウス美川", "url": "https://www.kaigokensaku.mhlw.go.jp/32/index.php?action_kouhyou_detail_004_kani=true&JigyosyoCd=3270700135-00&ServiceCd=110&Type=search", "url2": "https://mikawaen.com" }, "geometry": { "type": "Point", "coordinates": [ 132.079783300000031, 34.8993025 ] } },
{ "type": "Feature", "properties": { "内容": "弥栄ヘルパーひだまり【訪問介護】浜田市弥栄町木都賀イ５３９－１", "url": "https://www.kaigokensaku.mhlw.go.jp/32/index.php?action_kouhyou_detail_004_kani=true&JigyosyoCd=3270700580-00&ServiceCd=110&Type=search", "url2": "http://www.yasaka-fukushi.com/" }, "geometry": { "type": "Point", "coordinates": [ 132.072175799999968, 34.7664513 ] } },
{ "type": "Feature", "properties": { "内容": "介護屋さん　ほっと【訪問介護】島根県浜田市熱田町705番地1", "url": "https://www.kaigokensaku.mhlw.go.jp/32/index.php?action_kouhyou_detail_004_kani=true&JigyosyoCd=3270700556-00&ServiceCd=110&Type=search", "url2": "https://hotcare.jp" }, "geometry": { "type": "Point", "coordinates": [ 132.058357866720598, 34.871310925785643 ] } },
{ "type": "Feature", "properties": { "内容": "輝らら☆タクシー【訪問介護】三隅町三隅387-5", "url": "https://www.kaigokensaku.mhlw.go.jp/32/index.php?action_kouhyou_detail_004_kani=true&JigyosyoCd=3240740823-00&ServiceCd=110&Type=search", "url2": "takamura-sunsun.jp" }, "geometry": { "type": "Point", "coordinates": [ 131.957026700000029, 34.7942274 ] } },
{ "type": "Feature", "properties": { "内容": "有限会社　三晃【訪問介護】浜田市下府町1579-2", "url": "https://www.kaigokensaku.mhlw.go.jp/32/index.php?action_kouhyou_detail_004_kani=true&JigyosyoCd=3270700390-00&ServiceCd=110&Type=search", "url2": null }, "geometry": { "type": "Point", "coordinates": [ 132.108732499999974, 34.9321328 ] } },
{ "type": "Feature", "properties": { "内容": "ヘルパーステーション絆【訪問介護】黒川町108番地49", "url": "https://www.kaigokensaku.mhlw.go.jp/32/index.php?action_kouhyou_detail_004_kani=true&JigyosyoCd=3270701083-00&ServiceCd=110&Type=search", "url2": null }, "geometry": { "type": "Point", "coordinates": [ 132.091673799999967, 34.9019748 ] } },
{ "type": "Feature", "properties": { "内容": "有限会社　谷本ハイヤー【訪問介護】出雲市矢野町１２３－１", "url": "https://www.kaigokensaku.mhlw.go.jp/32/index.php?action_kouhyou_detail_004_kani=true&JigyosyoCd=3270400462-00&ServiceCd=110&Type=search", "url2": "http://www2.crosstalk.orjp/tanimoto/" }, "geometry": { "type": "Point", "coordinates": [ 132.743538042991645, 35.378934910303954 ] } },
{ "type": "Feature", "properties": { "内容": "訪問介護事業所バディ【訪問介護】島根県出雲市斐川町鳥井691", "url": "https://www.kaigokensaku.mhlw.go.jp/32/index.php?action_kouhyou_detail_004_kani=true&JigyosyoCd=3270403409-00&ServiceCd=110&Type=search", "url2": null }, "geometry": { "type": "Point", "coordinates": [ 132.792583, 35.395386499999979 ] } },
{ "type": "Feature", "properties": { "内容": "クレド訪問介護ステーション【訪問介護】島根県出雲市今市町北本町１丁目１番地セントラルビル２階", "url": "https://www.kaigokensaku.mhlw.go.jp/32/index.php?action_kouhyou_detail_004_kani=true&JigyosyoCd=3270403318-00&ServiceCd=110&Type=search", "url2": "http://hp.kaipoke.biz/hr1/169499/base_0003.html" }, "geometry": { "type": "Point", "coordinates": [ 132.755669018910254, 35.368212609145566 ] } },
{ "type": "Feature", "properties": { "内容": "こころねヘルパーステーション今市町【訪問介護】島根県出雲市今市町330-5シニアコート今市町・１階", "url": "https://www.kaigokensaku.mhlw.go.jp/32/index.php?action_kouhyou_detail_004_kani=true&JigyosyoCd=32A0400028-00&ServiceCd=110&Type=search", "url2": null }, "geometry": { "type": "Point", "coordinates": [ 132.7609223, 35.367504 ] } },
{ "type": "Feature", "properties": { "内容": "ＪＡしまね斐川介護センター【訪問介護】島根県出雲市斐川町荘原2172番地3", "url": "https://www.kaigokensaku.mhlw.go.jp/32/index.php?action_kouhyou_detail_004_kani=true&JigyosyoCd=3270402591-00&ServiceCd=110&Type=search", "url2": "http://ja-shimane.jp/" }, "geometry": { "type": "Point", "coordinates": [ 132.844318598811356, 35.393368130114247 ] } },
{ "type": "Feature", "properties": { "内容": "ひかわ生協ヘルパーステーション　あおぞら【訪問介護】島根県出雲市斐川町美南1505番地1", "url": "https://www.kaigokensaku.mhlw.go.jp/32/index.php?action_kouhyou_detail_004_kani=true&JigyosyoCd=3271600375-00&ServiceCd=110&Type=search", "url2": "http://www.hikawa-hp.com" }, "geometry": { "type": "Point", "coordinates": [ 132.823500996958956, 35.393632599508074 ] } },
{ "type": "Feature", "properties": { "内容": "訪問介護ステーション　和ごころ　しまね【訪問介護】島根県出雲市塩冶原町1丁目33", "url": "https://www.kaigokensaku.mhlw.go.jp/32/index.php?action_kouhyou_detail_004_kani=true&JigyosyoCd=3270403201-00&ServiceCd=110&Type=search", "url2": null }, "geometry": { "type": "Point", "coordinates": [ 132.744235559323783, 35.362244116398742 ] } },
{ "type": "Feature", "properties": { "内容": "ナカヤ寿楽訪問介護事業所【訪問介護】島根県出雲市松寄下町212-3サンフラワー101号室", "url": "https://www.kaigokensaku.mhlw.go.jp/32/index.php?action_kouhyou_detail_004_kani=true&JigyosyoCd=3270402872-00&ServiceCd=110&Type=search", "url2": "http://nakaya-juraku.jp" }, "geometry": { "type": "Point", "coordinates": [ 132.726531801704965, 35.369089149645681 ] } },
{ "type": "Feature", "properties": { "内容": "こころねヘルパーステーション大津新崎【訪問介護】島根県出雲市大津新崎町3丁目18番地サービス付き高齢者住宅シニアステージ大津新崎内に併設", "url": "https://www.kaigokensaku.mhlw.go.jp/32/index.php?action_kouhyou_detail_004_kani=true&JigyosyoCd=3270402849-00&ServiceCd=110&Type=search", "url2": null }, "geometry": { "type": "Point", "coordinates": [ 132.770235100000036, 35.3700352 ] } },
{ "type": "Feature", "properties": { "内容": "訪問介護事業所　たんぽぽ【訪問介護】荒茅町２７８０－２８", "url": "https://www.kaigokensaku.mhlw.go.jp/32/index.php?action_kouhyou_detail_004_kani=true&JigyosyoCd=3270402922-00&ServiceCd=110&Type=search", "url2": null }, "geometry": { "type": "Point", "coordinates": [ 132.699942299999975, 35.361129449587615 ] } },
{ "type": "Feature", "properties": { "内容": "こうじや訪問介護事業所【訪問介護】島根県出雲市平田町7429", "url": "https://www.kaigokensaku.mhlw.go.jp/32/index.php?action_kouhyou_detail_004_kani=true&JigyosyoCd=3270402831-00&ServiceCd=110&Type=search", "url2": null }, "geometry": { "type": "Point", "coordinates": [ 132.825103, 35.438269 ] } },
{ "type": "Feature", "properties": { "内容": "ヘルパーステーションパーパス【訪問介護】出雲市姫原2-3-13かねつきマンション102", "url": "https://www.kaigokensaku.mhlw.go.jp/32/index.php?action_kouhyou_detail_004_kani=true&JigyosyoCd=3270403268-00&ServiceCd=110&Type=search", "url2": "https://pur-pose.jp/" }, "geometry": { "type": "Point", "coordinates": [ 132.7569819, 35.3722604 ] } },
{ "type": "Feature", "properties": { "内容": "訪問介護事業所みずほの里【訪問介護】島根県出雲市灘分町239番地2", "url": "https://www.kaigokensaku.mhlw.go.jp/32/index.php?action_kouhyou_detail_004_kani=true&JigyosyoCd=3270402328-00&ServiceCd=110&Type=search", "url2": "https://mizuhonoie.com" }, "geometry": { "type": "Point", "coordinates": [ 132.829828148410002, 35.42916962212027 ] } },
{ "type": "Feature", "properties": { "内容": "CSいずも訪問介護事業所【訪問介護】出雲市大津朝倉3-10-3", "url": "https://www.kaigokensaku.mhlw.go.jp/32/index.php?action_kouhyou_detail_004_kani=true&JigyosyoCd=3270400496-00&ServiceCd=110&Type=search", "url2": "cs-izumo.jp" }, "geometry": { "type": "Point", "coordinates": [ 132.761004928182643, 35.375966802870536 ] } },
{ "type": "Feature", "properties": { "内容": "CSいずも訪問介護事業所碧【訪問介護】島根県出雲市大社町入南80-1", "url": "https://www.kaigokensaku.mhlw.go.jp/32/index.php?action_kouhyou_detail_004_kani=true&JigyosyoCd=3270403136-00&ServiceCd=110&Type=search", "url2": "http://cs-izumo.jp/" }, "geometry": { "type": "Point", "coordinates": [ 132.718793247477549, 35.391140870885835 ] } },
{ "type": "Feature", "properties": { "内容": "サンキ・ウエルビィ介護センター出雲【訪問介護】島根県出雲市浜町96-1", "url": "https://www.kaigokensaku.mhlw.go.jp/32/index.php?action_kouhyou_detail_004_kani=true&JigyosyoCd=3270400454-00&ServiceCd=110&Type=search", "url2": null }, "geometry": { "type": "Point", "coordinates": [ 132.726901027934986, 35.376752937268442 ] } },
{ "type": "Feature", "properties": { "内容": "デイサービス金太郎の家（訪問介護）【訪問介護】島根県出雲市斐川町学頭1510番地2", "url": "https://www.kaigokensaku.mhlw.go.jp/32/index.php?action_kouhyou_detail_004_kani=true&JigyosyoCd=3270402401-00&ServiceCd=110&Type=search", "url2": "http://www.kintarounoie.jp/" }, "geometry": { "type": "Point", "coordinates": [ 132.87223326076284, 35.390086563279688 ] } },
{ "type": "Feature", "properties": { "内容": "介護ステーション　さくら【訪問介護】矢尾町２７３番地プライム有限会社内", "url": "https://www.kaigokensaku.mhlw.go.jp/32/index.php?action_kouhyou_detail_004_kani=true&JigyosyoCd=3270401593-00&ServiceCd=110&Type=search", "url2": "http://prime-company.jp" }, "geometry": { "type": "Point", "coordinates": [ 132.740964399999939, 35.3955927 ] } },
{ "type": "Feature", "properties": { "内容": "あおぞら介護センター出雲【訪問介護】出雲市下古志町627-2", "url": "https://www.kaigokensaku.mhlw.go.jp/32/index.php?action_kouhyou_detail_004_kani=true&JigyosyoCd=3270401486-00&ServiceCd=110&Type=search", "url2": null }, "geometry": { "type": "Point", "coordinates": [ 132.73731250978696, 35.343484730598753 ] } },
{ "type": "Feature", "properties": { "内容": "訪問介護　グッドライフ【訪問介護】塩冶善行町14-3", "url": "https://www.kaigokensaku.mhlw.go.jp/32/index.php?action_kouhyou_detail_004_kani=true&JigyosyoCd=3270402161-00&ServiceCd=110&Type=search", "url2": "http://www.cosmos-izumo.jp" }, "geometry": { "type": "Point", "coordinates": [ 132.7539041, 35.3582639 ] } },
{ "type": "Feature", "properties": { "内容": "ﾆﾁｲｹｱｾﾝﾀｰ出雲みなみ【訪問介護】島根県出雲市天神町869番地天神ﾋﾞﾙ3Ｆ　303号室", "url": "https://www.kaigokensaku.mhlw.go.jp/32/index.php?action_kouhyou_detail_004_kani=true&JigyosyoCd=3270402070-00&ServiceCd=110&Type=search", "url2": "http://www.nichiigakkan.co.jp" }, "geometry": { "type": "Point", "coordinates": [ 132.744846700000039, 35.3528115 ] } },
{ "type": "Feature", "properties": { "内容": "ニチイケアセンター出雲【訪問介護】出雲市大津朝倉3丁目4-5", "url": "https://www.kaigokensaku.mhlw.go.jp/32/index.php?action_kouhyou_detail_004_kani=true&JigyosyoCd=3270400199-00&ServiceCd=110&Type=search", "url2": "http://www.nichiigakkan.co.jp" }, "geometry": { "type": "Point", "coordinates": [ 132.759188799999947, 35.3766563 ] } },
{ "type": "Feature", "properties": { "内容": "ニチイケアセンター斐川【訪問介護】島根県出雲市斐川町直江4914-7小澤ビル2Ｆ東", "url": "https://www.kaigokensaku.mhlw.go.jp/32/index.php?action_kouhyou_detail_004_kani=true&JigyosyoCd=3270403128-00&ServiceCd=110&Type=search", "url2": "http://www.nichiigakkan.co,jp" }, "geometry": { "type": "Point", "coordinates": [ 132.823549500000013, 35.3907407 ] } },
{ "type": "Feature", "properties": { "内容": "あんのんの里川跡【訪問介護】島根県出雲市荻杼町666-1", "url": "https://www.kaigokensaku.mhlw.go.jp/32/index.php?action_kouhyou_detail_004_kani=true&JigyosyoCd=3270402112-00&ServiceCd=110&Type=search", "url2": null }, "geometry": { "type": "Point", "coordinates": [ 132.763283444180246, 35.382358762092196 ] } },
{ "type": "Feature", "properties": { "内容": "ライラック訪問介護事業所【訪問介護】島根県出雲市中野町757-3", "url": "https://www.kaigokensaku.mhlw.go.jp/32/index.php?action_kouhyou_detail_004_kani=true&JigyosyoCd=3270402153-00&ServiceCd=110&Type=search", "url2": null }, "geometry": { "type": "Point", "coordinates": [ 132.769646100000074, 35.3752123 ] } },
{ "type": "Feature", "properties": { "内容": "訪問介護ステーションはる【訪問介護】島根県出雲市大津町455-14", "url": "https://www.kaigokensaku.mhlw.go.jp/32/index.php?action_kouhyou_detail_004_kani=true&JigyosyoCd=3270402187-00&ServiceCd=110&Type=search", "url2": "http://hp.kaipoke.biz/lushlifeharu/" }, "geometry": { "type": "Point", "coordinates": [ 132.779117400000018, 35.3700688 ] } },
{ "type": "Feature", "properties": { "内容": "ケア・ステーション　ピース【訪問介護】出雲市塩冶町2078-1A102号ララポート", "url": "https://www.kaigokensaku.mhlw.go.jp/32/index.php?action_kouhyou_detail_004_kani=true&JigyosyoCd=3270402054-00&ServiceCd=110&Type=search", "url2": "http://www13.plala.or.jp/hidamarisou/" }, "geometry": { "type": "Point", "coordinates": [ 132.745993343763729, 35.354663966144685 ] } },
{ "type": "Feature", "properties": { "内容": "訪問介護事業所　わごころ【訪問介護】島根県出雲市灘分町1064-8住宅型有料老人ホ－ム　一休庵", "url": "https://www.kaigokensaku.mhlw.go.jp/32/index.php?action_kouhyou_detail_004_kani=true&JigyosyoCd=3270402625-00&ServiceCd=110&Type=search", "url2": null }, "geometry": { "type": "Point", "coordinates": [ 132.829573500000038, 35.4352261 ] } },
{ "type": "Feature", "properties": { "内容": "こころねヘルパーステーション渡橋町【訪問介護】島根県出雲市渡橋町346番地シニアコート渡橋町", "url": "https://www.kaigokensaku.mhlw.go.jp/32/index.php?action_kouhyou_detail_004_kani=true&JigyosyoCd=3270402211-00&ServiceCd=110&Type=search", "url2": "http://medicalcare-westjapan.jp/elderly/seniorwatarihashi.html" }, "geometry": { "type": "Point", "coordinates": [ 132.746705757633237, 35.368802205144846 ] } },
{ "type": "Feature", "properties": { "内容": "こころねヘルパーステーション塩冶有原町【訪問介護】島根県出雲市塩冶有原町5丁目61番地シニアコート塩冶有原町", "url": "https://www.kaigokensaku.mhlw.go.jp/32/index.php?action_kouhyou_detail_004_kani=true&JigyosyoCd=3270403219-00&ServiceCd=110&Type=search", "url2": null }, "geometry": { "type": "Point", "coordinates": [ 132.7460888, 35.358062 ] } },
{ "type": "Feature", "properties": { "内容": "こころねヘルパーステーション小山町【訪問介護】出雲市小山町503-1", "url": "https://www.kaigokensaku.mhlw.go.jp/32/index.php?action_kouhyou_detail_004_kani=true&JigyosyoCd=3270403391-00&ServiceCd=110&Type=search", "url2": "https://region-design.co.jp/search/contents/oyama-ss/index.html#pic" }, "geometry": { "type": "Point", "coordinates": [ 132.743868135375294, 35.375972147820086 ] } },
{ "type": "Feature", "properties": { "内容": "みどりの郷湖陵【訪問介護】出雲市湖陵町三部1231-1", "url": "https://www.kaigokensaku.mhlw.go.jp/32/index.php?action_kouhyou_detail_004_kani=true&JigyosyoCd=3271600045-00&ServiceCd=110&Type=search", "url2": null }, "geometry": { "type": "Point", "coordinates": [ 132.674052599999982, 35.3166586 ] } },
{ "type": "Feature", "properties": { "内容": "みどりの郷出雲【訪問介護】出雲市所原町2715-1", "url": "https://www.kaigokensaku.mhlw.go.jp/32/index.php?action_kouhyou_detail_004_kani=true&JigyosyoCd=3270400157-00&ServiceCd=110&Type=search", "url2": null }, "geometry": { "type": "Point", "coordinates": [ 132.761801500000047, 35.2988943 ] } },
{ "type": "Feature", "properties": { "内容": "みどりの郷大社【訪問介護】出雲市大社町北荒木483", "url": "https://www.kaigokensaku.mhlw.go.jp/32/index.php?action_kouhyou_detail_004_kani=true&JigyosyoCd=3270400991-00&ServiceCd=110&Type=search", "url2": "http://jaizumo-fukushikai.jp" }, "geometry": { "type": "Point", "coordinates": [ 132.68904240059436, 35.387720267180441 ] } },
{ "type": "Feature", "properties": { "内容": "みどりの郷平田【訪問介護】出雲市平田町２３０８番地９", "url": "https://www.kaigokensaku.mhlw.go.jp/32/index.php?action_kouhyou_detail_004_kani=true&JigyosyoCd=3270300126-00&ServiceCd=110&Type=search", "url2": "http://www.jaizumo.or.jp/welfare" }, "geometry": { "type": "Point", "coordinates": [ 132.824837900000034, 35.434715 ] } },
{ "type": "Feature", "properties": { "内容": "第二ことぶき園訪問介護事業所【訪問介護】出雲市古志町2105－1", "url": "https://www.kaigokensaku.mhlw.go.jp/32/index.php?action_kouhyou_detail_004_kani=true&JigyosyoCd=3270400116-00&ServiceCd=110&Type=search", "url2": "https://kotobuki1071.jimdofree.com" }, "geometry": { "type": "Point", "coordinates": [ 132.743613993104987, 35.335883497241142 ] } },
{ "type": "Feature", "properties": { "内容": "花水木【訪問介護】島根県出雲市灘分町７８６番地１", "url": "https://www.kaigokensaku.mhlw.go.jp/32/index.php?action_kouhyou_detail_004_kani=true&JigyosyoCd=3270401569-00&ServiceCd=110&Type=search", "url2": "https://hirahuku.com" }, "geometry": { "type": "Point", "coordinates": [ 132.825219235612508, 35.430875873094912 ] } },
{ "type": "Feature", "properties": { "内容": "ヘルパーステーション　ふるさと苑【訪問介護】出雲市大社町中荒木1745-2", "url": "https://www.kaigokensaku.mhlw.go.jp/32/index.php?action_kouhyou_detail_004_kani=true&JigyosyoCd=3271600276-00&ServiceCd=110&Type=search", "url2": "https://www.sunlight.or.jp" }, "geometry": { "type": "Point", "coordinates": [ 132.687342700000045, 35.3792909 ] } },
{ "type": "Feature", "properties": { "内容": "やまゆり訪問介護事業所【訪問介護】島根県出雲市佐田町一窪田1961-5", "url": "https://www.kaigokensaku.mhlw.go.jp/32/index.php?action_kouhyou_detail_004_kani=true&JigyosyoCd=3270401346-00&ServiceCd=110&Type=search", "url2": "http://www.izumo-yamayuri.or.jp" }, "geometry": { "type": "Point", "coordinates": [ 132.671508787272643, 35.233998306828646 ] } },
{ "type": "Feature", "properties": { "内容": "ヘルパーステーションすずらん【訪問介護】島根県出雲市塩冶神前６丁目１番８号Ａ－１０２", "url": "https://www.kaigokensaku.mhlw.go.jp/32/index.php?action_kouhyou_detail_004_kani=true&JigyosyoCd=3270401726-00&ServiceCd=110&Type=search", "url2": null }, "geometry": { "type": "Point", "coordinates": [ 132.758328900000038, 35.3483096 ] } },
{ "type": "Feature", "properties": { "内容": "ひまわり園ホームヘルプステーション【訪問介護】出雲市神西沖町2513-8", "url": "https://www.kaigokensaku.mhlw.go.jp/32/index.php?action_kouhyou_detail_004_kani=true&JigyosyoCd=3270400272-00&ServiceCd=110&Type=search", "url2": null }, "geometry": { "type": "Point", "coordinates": [ 132.681392800000026, 35.3368256 ] } },
{ "type": "Feature", "properties": { "内容": "清流園訪問介護事業所【訪問介護】出雲市大津町3529番地", "url": "https://www.kaigokensaku.mhlw.go.jp/32/index.php?action_kouhyou_detail_004_kani=true&JigyosyoCd=3270400066-00&ServiceCd=110&Type=search", "url2": null }, "geometry": { "type": "Point", "coordinates": [ 132.783739400000059, 35.3592841 ] } },
{ "type": "Feature", "properties": { "内容": "ＮＰＯ法人たすけあい平田【訪問介護】島根県出雲市西代町１０３２-４", "url": "https://www.kaigokensaku.mhlw.go.jp/32/index.php?action_kouhyou_detail_004_kani=true&JigyosyoCd=3270300118-00&ServiceCd=110&Type=search", "url2": "https://tasukeai-hirata.jp" }, "geometry": { "type": "Point", "coordinates": [ 132.817986567150939, 35.422256928604035 ] } },
{ "type": "Feature", "properties": { "内容": "ふれあいサービスごうばら訪問介護事業所【訪問介護】出雲市平田町1816-15", "url": "https://www.kaigokensaku.mhlw.go.jp/32/index.php?action_kouhyou_detail_004_kani=true&JigyosyoCd=3270400918-00&ServiceCd=110&Type=search", "url2": null }, "geometry": { "type": "Point", "coordinates": [ 132.817085058784755, 35.428130261360323 ] } },
{ "type": "Feature", "properties": { "内容": "有限会社　ケアサービス出雲【訪問介護】出雲市塩冶町980-3", "url": "https://www.kaigokensaku.mhlw.go.jp/32/index.php?action_kouhyou_detail_004_kani=true&JigyosyoCd=3270400165-00&ServiceCd=110&Type=search", "url2": "https://care-service-izumo.biz" }, "geometry": { "type": "Point", "coordinates": [ 132.755879895088697, 35.354916924134805 ] } },
{ "type": "Feature", "properties": { "内容": "ケアサポートやわらぎ【訪問介護】島根県出雲市知井宮町1192-9", "url": "https://www.kaigokensaku.mhlw.go.jp/32/index.php?action_kouhyou_detail_004_kani=true&JigyosyoCd=3270400652-00&ServiceCd=110&Type=search", "url2": null }, "geometry": { "type": "Point", "coordinates": [ 132.716886616567677, 35.336350535797166 ] } },
{ "type": "Feature", "properties": { "内容": "ヘルパーステーション　ひまり【訪問介護】島根県出雲市馬木町２２４－１", "url": "https://www.kaigokensaku.mhlw.go.jp/32/index.php?action_kouhyou_detail_004_kani=true&JigyosyoCd=3270402930-00&ServiceCd=110&Type=search", "url2": null }, "geometry": { "type": "Point", "coordinates": [ 132.765814500000033, 35.3331756 ] } },
{ "type": "Feature", "properties": { "内容": "有限会社　えるだー【訪問介護】出雲市駅南町3丁目12番地１", "url": "https://www.kaigokensaku.mhlw.go.jp/32/index.php?action_kouhyou_detail_004_kani=true&JigyosyoCd=3270400769-00&ServiceCd=110&Type=search", "url2": "elder-fa@icv.ne.jp" }, "geometry": { "type": "Point", "coordinates": [ 132.757848100000047, 35.3586695 ] } },
{ "type": "Feature", "properties": { "内容": "西出雲ヘルパーステーション【訪問介護】島根県　出雲市　東園町725-3サービス付き高齢者向け住宅ふりーぷらす東園内", "url": "https://www.kaigokensaku.mhlw.go.jp/32/index.php?action_kouhyou_detail_004_kani=true&JigyosyoCd=3270402724-00&ServiceCd=110&Type=search", "url2": null }, "geometry": { "type": "Point", "coordinates": [ 132.705032590923906, 35.353200438127459 ] } },
{ "type": "Feature", "properties": { "内容": "ヘルパステーション花鈴【訪問介護】島根県出雲市美野町504", "url": "https://www.kaigokensaku.mhlw.go.jp/32/index.php?action_kouhyou_detail_004_kani=true&JigyosyoCd=3270403151-00&ServiceCd=110&Type=search", "url2": "http://inohonjin.jp/" }, "geometry": { "type": "Point", "coordinates": [ 132.9003841, 35.4625903 ] } },
{ "type": "Feature", "properties": { "内容": "寿生訪問介護【訪問介護】島根県出雲市大津町3627番地22", "url": "https://www.kaigokensaku.mhlw.go.jp/32/index.php?action_kouhyou_detail_004_kani=true&JigyosyoCd=3270402799-00&ServiceCd=110&Type=search", "url2": "https://www.izumo-minami.jp/" }, "geometry": { "type": "Point", "coordinates": [ 132.777182952917428, 35.355665111634899 ] } },
{ "type": "Feature", "properties": { "内容": "みどりの郷斐川訪問介護事業所【訪問介護】斐川町直江885番地", "url": "https://www.kaigokensaku.mhlw.go.jp/32/index.php?action_kouhyou_detail_004_kani=true&JigyosyoCd=3270403532-00&ServiceCd=110&Type=search", "url2": "https://jaizumo-fukushikai.jp" }, "geometry": { "type": "Point", "coordinates": [ 132.8163669, 35.3893385 ] } },
{ "type": "Feature", "properties": { "内容": "ケアステーションにこる【訪問介護】島根県出雲市渡橋町100", "url": "https://www.kaigokensaku.mhlw.go.jp/32/index.php?action_kouhyou_detail_004_kani=true&JigyosyoCd=3270403276-00&ServiceCd=110&Type=search", "url2": null }, "geometry": { "type": "Point", "coordinates": [ 132.7530808, 35.3698445 ] } },
{ "type": "Feature", "properties": { "内容": "ヘルパーステーションいわみ【訪問介護】島根県益田市染羽町１番２７号", "url": "https://www.kaigokensaku.mhlw.go.jp/32/index.php?action_kouhyou_detail_004_kani=true&JigyosyoCd=3270800968-00&ServiceCd=110&Type=search", "url2": null }, "geometry": { "type": "Point", "coordinates": [ 131.862585299999978, 34.6807502 ] } },
{ "type": "Feature", "properties": { "内容": "あすかヘルパーステーション【訪問介護】中島町イ1454番地1あすか福祉センター中ノ島", "url": "https://www.kaigokensaku.mhlw.go.jp/32/index.php?action_kouhyou_detail_004_kani=true&JigyosyoCd=3270800794-00&ServiceCd=110&Type=search", "url2": "http://www.asukaec.com" }, "geometry": { "type": "Point", "coordinates": [ 131.825087899999971, 34.696134 ] } },
{ "type": "Feature", "properties": { "内容": "益田ヘルパーステーションさくらんぼ【訪問介護】島根県益田市駅前町3-19", "url": "https://www.kaigokensaku.mhlw.go.jp/32/index.php?action_kouhyou_detail_004_kani=true&JigyosyoCd=3270800893-00&ServiceCd=110&Type=search", "url2": "http://r.goope.jp/sakuranbo" }, "geometry": { "type": "Point", "coordinates": [ 131.842833826291667, 34.675494451800724 ] } },
{ "type": "Feature", "properties": { "内容": "益田市社会福祉協議会指定訪問介護事業所【訪問介護】益田市須子町3番1号", "url": "https://www.kaigokensaku.mhlw.go.jp/32/index.php?action_kouhyou_detail_004_kani=true&JigyosyoCd=3270800166-00&ServiceCd=110&Type=search", "url2": "http://masuda-shakyou.or.jp/" }, "geometry": { "type": "Point", "coordinates": [ 131.831187295770263, 34.679697076163706 ] } },
{ "type": "Feature", "properties": { "内容": "美都町ホームヘルパーステーション【訪問介護】益田市美都町都茂1871番地9美寿苑内", "url": "https://www.kaigokensaku.mhlw.go.jp/32/index.php?action_kouhyou_detail_004_kani=true&JigyosyoCd=3272000088-00&ServiceCd=110&Type=search", "url2": "http://masuda-shakyou.or.jp" }, "geometry": { "type": "Point", "coordinates": [ 131.983599599999934, 34.6666874 ] } },
{ "type": "Feature", "properties": { "内容": "社会福祉法人西益田福祉会清流苑訪問介護事業所【訪問介護】島根県益田市神田町イ197-6", "url": "https://www.kaigokensaku.mhlw.go.jp/32/index.php?action_kouhyou_detail_004_kani=true&JigyosyoCd=3270800216-00&ServiceCd=110&Type=search", "url2": "http://www.seiryuen-care.jp/" }, "geometry": { "type": "Point", "coordinates": [ 131.798976099999976, 34.611184900000019 ] } },
{ "type": "Feature", "properties": { "内容": "ホームヘルプセンター万葉苑【訪問介護】益田市高津四丁目６番４０号", "url": "https://www.kaigokensaku.mhlw.go.jp/32/index.php?action_kouhyou_detail_004_kani=true&JigyosyoCd=3270800075-00&ServiceCd=110&Type=search", "url2": "https://www.baijukai.jp/" }, "geometry": { "type": "Point", "coordinates": [ 131.812150699999961, 34.6867599 ] } },
{ "type": "Feature", "properties": { "内容": "ヘルパーステーションにじヶ丘【訪問介護】島根県益田市乙吉町イ758-4", "url": "https://www.kaigokensaku.mhlw.go.jp/32/index.php?action_kouhyou_detail_004_kani=true&JigyosyoCd=3270801131-00&ServiceCd=110&Type=search", "url2": "http://www.iwaumi.jp/" }, "geometry": { "type": "Point", "coordinates": [ 131.859769757250945, 34.687573835287296 ] } },
{ "type": "Feature", "properties": { "内容": "むすび【訪問介護】乙吉町イ342-1第１ビル107", "url": "https://www.kaigokensaku.mhlw.go.jp/32/index.php?action_kouhyou_detail_004_kani=true&JigyosyoCd=3270801198-00&ServiceCd=110&Type=search", "url2": null }, "geometry": { "type": "Point", "coordinates": [ 131.846440777909891, 34.678695394846208 ] } },
{ "type": "Feature", "properties": { "内容": "しろがねの里訪問介護事業所【訪問介護】島根県大田市大田町大田ロ９８５－４", "url": "https://www.kaigokensaku.mhlw.go.jp/32/index.php?action_kouhyou_detail_004_kani=true&JigyosyoCd=3270500477-00&ServiceCd=110&Type=search", "url2": "https://ｓｈｉｒｏｇａｎｅ．ｉｎ/" }, "geometry": { "type": "Point", "coordinates": [ 132.500923599999965, 35.1895066 ] } },
{ "type": "Feature", "properties": { "内容": "ヘルパーステーション　きれんげ【訪問介護】島根県大田市鳥井町鳥井1204番地", "url": "https://www.kaigokensaku.mhlw.go.jp/32/index.php?action_kouhyou_detail_004_kani=true&JigyosyoCd=3270500584-00&ServiceCd=110&Type=search", "url2": "http://kirenge.jp/" }, "geometry": { "type": "Point", "coordinates": [ 132.479325499999959, 35.2127317 ] } },
{ "type": "Feature", "properties": { "内容": "訪問介護事業所しおさい【訪問介護】大田市仁摩町仁万843", "url": "https://www.kaigokensaku.mhlw.go.jp/32/index.php?action_kouhyou_detail_004_kani=true&JigyosyoCd=3271700068-00&ServiceCd=110&Type=search", "url2": "http://www.shiosai.or.jp" }, "geometry": { "type": "Point", "coordinates": [ 132.403219799999988, 35.1537329 ] } },
{ "type": "Feature", "properties": { "内容": "福寿園ヘルパーステーション【訪問介護】大田市川合町川合1085-1養護老人ホーム　福寿園", "url": "https://www.kaigokensaku.mhlw.go.jp/32/index.php?action_kouhyou_detail_004_kani=true&JigyosyoCd=3270500022-00&ServiceCd=110&Type=search", "url2": "http://www.ooda-sj.jp/" }, "geometry": { "type": "Point", "coordinates": [ 132.506845500000054, 35.1520364 ] } },
{ "type": "Feature", "properties": { "内容": "幸久の家ヘルパーステーション【訪問介護】大田市久利町久利691", "url": "https://www.kaigokensaku.mhlw.go.jp/32/index.php?action_kouhyou_detail_004_kani=true&JigyosyoCd=3270500360-00&ServiceCd=110&Type=search", "url2": "http://www.koukyunoie@co.jp" }, "geometry": { "type": "Point", "coordinates": [ 132.474884800000041, 35.1509838 ] } },
{ "type": "Feature", "properties": { "内容": "訪問介護ステーション　さつか【訪問介護】久手町刺鹿1902番地2サンライズさつか", "url": "https://www.kaigokensaku.mhlw.go.jp/32/index.php?action_kouhyou_detail_004_kani=true&JigyosyoCd=3270500675-00&ServiceCd=110&Type=search", "url2": "http://www.sunrise-satsuka.com" }, "geometry": { "type": "Point", "coordinates": [ 132.516585848362723, 35.223818745396734 ] } },
{ "type": "Feature", "properties": { "内容": "とも・らいふ訪問介護【訪問介護】島根県安来市飯島町293‐25", "url": "https://www.kaigokensaku.mhlw.go.jp/32/index.php?action_kouhyou_detail_004_kani=true&JigyosyoCd=3270200458-00&ServiceCd=110&Type=search", "url2": "http://hp.kaipoke.biz/a40/" }, "geometry": { "type": "Point", "coordinates": [ 133.239037578327583, 35.434368312739139 ] } },
{ "type": "Feature", "properties": { "内容": "ヘルパーステーションくるみ【訪問介護】島根県安来市飯島町1205-1", "url": "https://www.kaigokensaku.mhlw.go.jp/32/index.php?action_kouhyou_detail_004_kani=true&JigyosyoCd=3270200441-00&ServiceCd=110&Type=search", "url2": "https://signpost-llc.com/" }, "geometry": { "type": "Point", "coordinates": [ 133.2480325, 35.4323278 ] } },
{ "type": "Feature", "properties": { "内容": "社会医療法人昌林会　ヘルパーステーションやすぎ【訪問介護】安来市安来町８９９－１", "url": "https://www.kaigokensaku.mhlw.go.jp/32/index.php?action_kouhyou_detail_004_kani=true&JigyosyoCd=3270200029-00&ServiceCd=110&Type=search", "url2": "http://www.syourinkai.or.ip" }, "geometry": { "type": "Point", "coordinates": [ 133.252153899999939, 35.4318422 ] } },
{ "type": "Feature", "properties": { "内容": "ヘルパーステーションひだまり【訪問介護】安来市広瀬町町帳80-3", "url": "https://www.kaigokensaku.mhlw.go.jp/32/index.php?action_kouhyou_detail_004_kani=true&JigyosyoCd=3270200144-00&ServiceCd=110&Type=search", "url2": "http//www.sirasagi-yasugi.or.jp" }, "geometry": { "type": "Point", "coordinates": [ 133.182648703172731, 35.374294606636354 ] } },
{ "type": "Feature", "properties": { "内容": "社会福祉法人安来市社会福祉協議会指定訪問介護事業所【訪問介護】島根県安来市伯太町安田1687", "url": "https://www.kaigokensaku.mhlw.go.jp/32/index.php?action_kouhyou_detail_004_kani=true&JigyosyoCd=3270200086-00&ServiceCd=110&Type=search", "url2": "http//www.yasugisｈakyou.com" }, "geometry": { "type": "Point", "coordinates": [ 133.246657, 35.433519799999985 ] } },
{ "type": "Feature", "properties": { "内容": "太陽ヘルパーステーション【訪問介護】島根県安来市広瀬町広瀬1911-1", "url": "https://www.kaigokensaku.mhlw.go.jp/32/index.php?action_kouhyou_detail_004_kani=true&JigyosyoCd=3271200051-00&ServiceCd=110&Type=search", "url2": "http://amago-taiyo.jp/" }, "geometry": { "type": "Point", "coordinates": [ 133.177536300000043, 35.3688437 ] } },
{ "type": "Feature", "properties": { "内容": "ながれぼし江津【訪問介護】都野津町2363-7", "url": "https://www.kaigokensaku.mhlw.go.jp/32/index.php?action_kouhyou_detail_004_kani=true&JigyosyoCd=3270600590-00&ServiceCd=110&Type=search", "url2": "https://choraku.co.jp" }, "geometry": { "type": "Point", "coordinates": [ 132.1884224, 34.986423 ] } },
{ "type": "Feature", "properties": { "内容": "訪問介護事業所　むりょうじゅ【訪問介護】島根県江津市敬川町２９６番地６グランエスポワールむりょうじゅ", "url": "https://www.kaigokensaku.mhlw.go.jp/32/index.php?action_kouhyou_detail_004_kani=true&JigyosyoCd=3210610857-00&ServiceCd=110&Type=search", "url2": "https://www.muryoujyu.jp" }, "geometry": { "type": "Point", "coordinates": [ 132.171092, 34.9706768 ] } },
{ "type": "Feature", "properties": { "内容": "ケアパートナー　楽生【訪問介護】江津市都野津町2393-4", "url": "https://www.kaigokensaku.mhlw.go.jp/32/index.php?action_kouhyou_detail_004_kani=true&JigyosyoCd=3270600384-00&ServiceCd=110&Type=search", "url2": null }, "geometry": { "type": "Point", "coordinates": [ 132.185123100000027, 34.986931 ] } },
{ "type": "Feature", "properties": { "内容": "有福ホームヘルパーステーション【訪問介護】島根県江津市有福温泉町546", "url": "https://www.kaigokensaku.mhlw.go.jp/32/index.php?action_kouhyou_detail_004_kani=true&JigyosyoCd=3270600327-00&ServiceCd=110&Type=search", "url2": "http://www.arifuku-home.jp/" }, "geometry": { "type": "Point", "coordinates": [ 132.198428, 34.9450495 ] } },
{ "type": "Feature", "properties": { "内容": "青山ヘルパーステーション【訪問介護】江津市二宮町神主1964番地31", "url": "https://www.kaigokensaku.mhlw.go.jp/32/index.php?action_kouhyou_detail_004_kani=true&JigyosyoCd=3270600137-00&ServiceCd=110&Type=search", "url2": "http://www.iwamifukushikai.or.jp/" }, "geometry": { "type": "Point", "coordinates": [ 132.185426469311551, 34.976474259843421 ] } },
{ "type": "Feature", "properties": { "内容": "訪問介護事業所すだれ【訪問介護】島根県江津市波子町イ1255-230シーサイド波子3号室", "url": "https://www.kaigokensaku.mhlw.go.jp/32/index.php?action_kouhyou_detail_004_kani=true&JigyosyoCd=3270600624-00&ServiceCd=110&Type=search", "url2": null }, "geometry": { "type": "Point", "coordinates": [ 132.148709700000012, 34.9634086 ] } },
{ "type": "Feature", "properties": { "内容": "ヘルパーステーション　合歓の郷【訪問介護】江津市後地町821番地", "url": "https://www.kaigokensaku.mhlw.go.jp/32/index.php?action_kouhyou_detail_004_kani=true&JigyosyoCd=3270600095-00&ServiceCd=110&Type=search", "url2": "http://www.hana-mura.net" }, "geometry": { "type": "Point", "coordinates": [ 132.301073299999985, 35.0376203 ] } },
{ "type": "Feature", "properties": { "内容": "訪問介護センターさくらえ【訪問介護】江津市桜江町小田138番地1社会福祉法人桜江福祉会　　桜寿園", "url": "https://www.kaigokensaku.mhlw.go.jp/32/index.php?action_kouhyou_detail_004_kani=true&JigyosyoCd=3271800330-00&ServiceCd=110&Type=search", "url2": null }, "geometry": { "type": "Point", "coordinates": [ 132.329735699999986, 34.9503748 ] } },
{ "type": "Feature", "properties": { "内容": "白寿園【訪問介護】江津市江津町1110", "url": "https://www.kaigokensaku.mhlw.go.jp/32/index.php?action_kouhyou_detail_004_kani=true&JigyosyoCd=3270690013-00&ServiceCd=110&Type=search", "url2": "http://hakujyuen.jp" }, "geometry": { "type": "Point", "coordinates": [ 132.217727800000034, 35.0132312 ] } },
{ "type": "Feature", "properties": { "内容": "よろこぼう屋ヘルパーズ【訪問介護】江津市和木町1173-3", "url": "https://www.kaigokensaku.mhlw.go.jp/32/index.php?action_kouhyou_detail_004_kani=true&JigyosyoCd=3270600277-00&ServiceCd=110&Type=search", "url2": "http://www.yorokobouya.jp/" }, "geometry": { "type": "Point", "coordinates": [ 132.203089461515759, 35.004465315492283 ] } },
{ "type": "Feature", "properties": { "内容": "訪問介護ステーション　よさみ【訪問介護】島根県江津市嘉久志町2426-10新川ビル2階", "url": "https://www.kaigokensaku.mhlw.go.jp/32/index.php?action_kouhyou_detail_004_kani=true&JigyosyoCd=3270600632-00&ServiceCd=110&Type=search", "url2": "https://www.toukou-g.com/" }, "geometry": { "type": "Point", "coordinates": [ 132.209258, 35.0050052 ] } },
{ "type": "Feature", "properties": { "内容": "チャット・ケアすずらん訪問介護事業所【訪問介護】里方616-2", "url": "https://www.kaigokensaku.mhlw.go.jp/32/index.php?action_kouhyou_detail_004_kani=true&JigyosyoCd=3271400693-00&ServiceCd=110&Type=search", "url2": null }, "geometry": { "type": "Point", "coordinates": [ 132.901842736325079, 35.3068657994178 ] } },
{ "type": "Feature", "properties": { "内容": "ニチイケアセンターあかがわ【訪問介護】雲南市大東町仁和寺1918-7", "url": "https://www.kaigokensaku.mhlw.go.jp/32/index.php?action_kouhyou_detail_004_kani=true&JigyosyoCd=3271400255-00&ServiceCd=110&Type=search", "url2": null }, "geometry": { "type": "Point", "coordinates": [ 132.937134, 35.334698 ] } },
{ "type": "Feature", "properties": { "内容": "なごみヘルパーステーション【訪問介護】島根県雲南市大東町飯田92-1", "url": "https://www.kaigokensaku.mhlw.go.jp/32/index.php?action_kouhyou_detail_004_kani=true&JigyosyoCd=3271400578-00&ServiceCd=110&Type=search", "url2": "http://nagomi-daitou.jp" }, "geometry": { "type": "Point", "coordinates": [ 132.960764899999958, 35.3249276 ] } },
{ "type": "Feature", "properties": { "内容": "ヘルパーステーションかも【訪問介護】島根県雲南市加茂町宇治328番地雲南市加茂健康福祉センターかもてらす", "url": "https://www.kaigokensaku.mhlw.go.jp/32/index.php?action_kouhyou_detail_004_kani=true&JigyosyoCd=3271400339-00&ServiceCd=110&Type=search", "url2": "http://kamofukushikai.jp/publics/index/19/&anchor_link=page19#page19" }, "geometry": { "type": "Point", "coordinates": [ 132.905906499999986, 35.341807299999978 ] } },
{ "type": "Feature", "properties": { "内容": "訪問介護事業所かけや【訪問介護】島根県雲南市掛合町掛合853-1特別養護老人ホームえがおの里", "url": "https://www.kaigokensaku.mhlw.go.jp/32/index.php?action_kouhyou_detail_004_kani=true&JigyosyoCd=3271500179-00&ServiceCd=110&Type=search", "url2": "http://unnanshakyo.jp/" }, "geometry": { "type": "Point", "coordinates": [ 132.817266300000028, 35.1946115 ] } },
{ "type": "Feature", "properties": { "内容": "訪問介護事業所みとや【訪問介護】雲南市三刀屋町三刀屋1212-3", "url": "https://www.kaigokensaku.mhlw.go.jp/32/index.php?action_kouhyou_detail_004_kani=true&JigyosyoCd=3271500161-00&ServiceCd=110&Type=search", "url2": "http://unnanshakyo.jp/" }, "geometry": { "type": "Point", "coordinates": [ 132.885029300000042, 35.2941468 ] } },
{ "type": "Feature", "properties": { "内容": "訪問介護事業所おおぎ【訪問介護】雲南市大東町大東1038", "url": "https://www.kaigokensaku.mhlw.go.jp/32/index.php?action_kouhyou_detail_004_kani=true&JigyosyoCd=3271400149-00&ServiceCd=110&Type=search", "url2": null }, "geometry": { "type": "Point", "coordinates": [ 132.964192499999967, 35.3207671 ] } },
{ "type": "Feature", "properties": { "内容": "訪問介護事業所えん【訪問介護】掛合町入間２８０番地３", "url": "https://www.kaigokensaku.mhlw.go.jp/32/index.php?action_kouhyou_detail_004_kani=true&JigyosyoCd=3271400511-00&ServiceCd=110&Type=search", "url2": null }, "geometry": { "type": "Point", "coordinates": [ 132.784083199999941, 35.1498723 ] } },
{ "type": "Feature", "properties": { "内容": "仁多ヘルパーステーション【訪問介護】奥出雲町三成226番地", "url": "https://www.kaigokensaku.mhlw.go.jp/32/index.php?action_kouhyou_detail_004_kani=true&JigyosyoCd=3271300109-00&ServiceCd=110&Type=search", "url2": "http://www.nitafukushikai.or.jp" }, "geometry": { "type": "Point", "coordinates": [ 133.000357, 35.1990182 ] } },
{ "type": "Feature", "properties": { "内容": "ヘルパーステーション　たんぽぽ【訪問介護】奥出雲町稲原57番地6", "url": "https://www.kaigokensaku.mhlw.go.jp/32/index.php?action_kouhyou_detail_004_kani=true&JigyosyoCd=3271300059-00&ServiceCd=110&Type=search", "url2": "http://www.yokota.or.jp" }, "geometry": { "type": "Point", "coordinates": [ 133.097852200000034, 35.1758698 ] } },
{ "type": "Feature", "properties": { "内容": "飯南町社会福祉協議会　訪問介護事業所【訪問介護】飯石郡飯南町野萱１８２６－２", "url": "https://www.kaigokensaku.mhlw.go.jp/32/index.php?action_kouhyou_detail_004_kani=true&JigyosyoCd=3271500104-00&ServiceCd=110&Type=search", "url2": "syakyo-h@iinansyakyo.com" }, "geometry": { "type": "Point", "coordinates": [ 132.742807299999981, 35.029532 ] } },
{ "type": "Feature", "properties": { "内容": "訪問介護支援事業所琴引の里【訪問介護】島根県飯石郡飯南町頓原2001番地養護老人ホーム琴引の里", "url": "https://www.kaigokensaku.mhlw.go.jp/32/index.php?action_kouhyou_detail_004_kani=true&JigyosyoCd=3271500377-00&ServiceCd=110&Type=search", "url2": "http://uaikai.jp/" }, "geometry": { "type": "Point", "coordinates": [ 132.7791451, 35.0768635 ] } },
{ "type": "Feature", "properties": { "内容": "ホームヘルパーステーション　かわもと【訪問介護】邑智郡川本町川本383-1", "url": "https://www.kaigokensaku.mhlw.go.jp/32/index.php?action_kouhyou_detail_004_kani=true&JigyosyoCd=3271800249-00&ServiceCd=110&Type=search", "url2": "http://www.k-jinju.or.jp" }, "geometry": { "type": "Point", "coordinates": [ 132.496037399999977, 34.9916423 ] } },
{ "type": "Feature", "properties": { "内容": "川本福祉会訪問介護事業所【訪問介護】島根県邑智郡川本町大字因原５１８－１", "url": "https://www.kaigokensaku.mhlw.go.jp/32/index.php?action_kouhyou_detail_004_kani=true&JigyosyoCd=3271800306-00&ServiceCd=110&Type=search", "url2": "https://www.kawamotofukushikai.jp" }, "geometry": { "type": "Point", "coordinates": [ 132.473034876057483, 34.965130855810976 ] } },
{ "type": "Feature", "properties": { "内容": "美郷町社会福祉協議会　訪問介護事業所【訪問介護】島根県邑智郡美郷町粕渕195番地1美郷町保健福祉センター", "url": "https://www.kaigokensaku.mhlw.go.jp/32/index.php?action_kouhyou_detail_004_kani=true&JigyosyoCd=3271800199-00&ServiceCd=110&Type=search", "url2": null }, "geometry": { "type": "Point", "coordinates": [ 132.590914699999985, 35.0758794 ] } },
{ "type": "Feature", "properties": { "内容": "ヘルパーステーションすみれ【訪問介護】邑智郡邑南町山田33番地６", "url": "https://www.kaigokensaku.mhlw.go.jp/32/index.php?action_kouhyou_detail_004_kani=true&JigyosyoCd=3271800264-00&ServiceCd=110&Type=search", "url2": null }, "geometry": { "type": "Point", "coordinates": [ 132.539971400000013, 34.8607047 ] } },
{ "type": "Feature", "properties": { "内容": "瑞穂西訪問介護事業所【訪問介護】邑智郡邑南町上亀谷２１８１-１", "url": "https://www.kaigokensaku.mhlw.go.jp/32/index.php?action_kouhyou_detail_004_kani=true&JigyosyoCd=3271800280-00&ServiceCd=110&Type=search", "url2": "http://oonanfukushikai.jp/" }, "geometry": { "type": "Point", "coordinates": [ 132.515926400000012, 34.8458531 ] } },
{ "type": "Feature", "properties": { "内容": "邑南社協西部訪問介護事業所【訪問介護】島根県邑智郡邑南町中野3848番地2", "url": "https://www.kaigokensaku.mhlw.go.jp/32/index.php?action_kouhyou_detail_004_kani=true&JigyosyoCd=3271800421-00&ServiceCd=110&Type=search", "url2": "ohnan-shakyo.or.jp" }, "geometry": { "type": "Point", "coordinates": [ 132.452832400000034, 34.8960358 ] } },
{ "type": "Feature", "properties": { "内容": "邑南社協東部事業所（訪問介護）【訪問介護】島根県邑智郡邑南町下口羽384番地", "url": "https://www.kaigokensaku.mhlw.go.jp/32/index.php?action_kouhyou_detail_004_kani=true&JigyosyoCd=3271800405-00&ServiceCd=110&Type=search", "url2": null }, "geometry": { "type": "Point", "coordinates": [ 132.664865, 34.8808262 ] } },
{ "type": "Feature", "properties": { "内容": "津和野訪問介護事業所【訪問介護】津和野町森村イ1025番地", "url": "https://www.kaigokensaku.mhlw.go.jp/32/index.php?action_kouhyou_detail_004_kani=true&JigyosyoCd=3272100136-00&ServiceCd=110&Type=search", "url2": "http:/www.sun-net.jp/~syakyo/" }, "geometry": { "type": "Point", "coordinates": [ 131.775996399999912, 34.4666076 ] } },
{ "type": "Feature", "properties": { "内容": "日原訪問介護事業所【訪問介護】鹿足郡津和野町日原14番地", "url": "https://www.kaigokensaku.mhlw.go.jp/32/index.php?action_kouhyou_detail_004_kani=true&JigyosyoCd=3272100052-00&ServiceCd=110&Type=search", "url2": "http://www.sun-net.jp/~syakyo/" }, "geometry": { "type": "Point", "coordinates": [ 131.839130100000034, 34.54144 ] } },
{ "type": "Feature", "properties": { "内容": "吉賀町ホームヘルパーステーション【訪問介護】島根県鹿足郡吉賀町六日市580-4福祉センター", "url": "https://www.kaigokensaku.mhlw.go.jp/32/index.php?action_kouhyou_detail_004_kani=true&JigyosyoCd=3272100128-00&ServiceCd=110&Type=search", "url2": "help0995@yoshika-shakyo.jp" }, "geometry": { "type": "Point", "coordinates": [ 131.9374783, 34.35492230000002 ] } },
{ "type": "Feature", "properties": { "内容": "社会福祉法人海士町社会福祉協議会【訪問介護】海士町大字海士3969-1海士町保健福祉センターひまわり内", "url": "https://www.kaigokensaku.mhlw.go.jp/32/index.php?action_kouhyou_detail_004_kani=true&JigyosyoCd=3272200076-00&ServiceCd=110&Type=search", "url2": "http://www.amasyakyo.com" }, "geometry": { "type": "Point", "coordinates": [ 133.094759100000033, 36.0986543 ] } },
{ "type": "Feature", "properties": { "内容": "社会福祉法人西ノ島町社会福祉協議会【訪問介護】島根県隠岐郡西ノ島町大字美田２４８５", "url": "https://www.kaigokensaku.mhlw.go.jp/32/index.php?action_kouhyou_detail_004_kani=true&JigyosyoCd=3272200159-00&ServiceCd=110&Type=search", "url2": "http://nishi-shakyo.sakura.ne.jp/" }, "geometry": { "type": "Point", "coordinates": [ 133.013101600000027, 36.0971325 ] } },
{ "type": "Feature", "properties": { "内容": "しゃかいふくしほうじん　にしのしまちょうしゃかいふくしきょうぎかい【訪問介護】島根県隠岐郡西ノ島町美田2485", "url": "https://www.kaigokensaku.mhlw.go.jp/32/index.php?action_kouhyou_detail_004_kani=true&JigyosyoCd=3282200033-00&ServiceCd=110&Type=search", "url2": "http://nishi-shakyo.sakura.ne.jp/" }, "geometry": { "type": "Point", "coordinates": [ 133.013230426342091, 36.101769955003618 ] } },
{ "type": "Feature", "properties": { "内容": "知夫村社協指定訪問介護事業所【訪問介護】知夫村６６４番地", "url": "https://www.kaigokensaku.mhlw.go.jp/32/index.php?action_kouhyou_detail_004_kani=true&JigyosyoCd=3272200241-00&ServiceCd=110&Type=search", "url2": null }, "geometry": { "type": "Point", "coordinates": [ 133.0385774, 36.0128982 ] } },
{ "type": "Feature", "properties": { "内容": "知夫村社協指定訪問介護事業所【訪問介護】島根県隠岐郡知夫村664番地", "url": "https://www.kaigokensaku.mhlw.go.jp/32/index.php?action_kouhyou_detail_004_kani=true&JigyosyoCd=3282200041-00&ServiceCd=110&Type=search", "url2": "http://chibu-shakyo.sakura.ne.jp" }, "geometry": { "type": "Point", "coordinates": [ 133.039530899999988, 36.0139223 ] } },
{ "type": "Feature", "properties": { "内容": "ふれあい五箇訪問介護事業所【訪問介護】隠岐の島町北方２７８番２", "url": "https://www.kaigokensaku.mhlw.go.jp/32/index.php?action_kouhyou_detail_004_kani=true&JigyosyoCd=3272200498-00&ServiceCd=110&Type=search", "url2": "https://fureaigoka.web.fc2.com/" }, "geometry": { "type": "Point", "coordinates": [ 133.227180399999952, 36.2887062 ] } },
{ "type": "Feature", "properties": { "内容": "静和園訪問介護事業所【訪問介護】隠岐郡隠岐の島町栄町1088番地", "url": "https://www.kaigokensaku.mhlw.go.jp/32/index.php?action_kouhyou_detail_004_kani=true&JigyosyoCd=3272200357-00&ServiceCd=110&Type=search", "url2": "http://www.kyousei.gr.jp" }, "geometry": { "type": "Point", "coordinates": [ 133.3267495, 36.2147242 ] } },
{ "type": "Feature", "properties": { "内容": "リベラル訪問介護事業所【訪問介護】島根県隠岐郡隠岐の島町上西蓮花畑11番地2番地", "url": "https://www.kaigokensaku.mhlw.go.jp/32/index.php?action_kouhyou_detail_004_kani=true&JigyosyoCd=3272200852-00&ServiceCd=110&Type=search", "url2": null }, "geometry": { "type": "Point", "coordinates": [ 133.272047, 36.238761 ] } }
]
}
