{
"type": "FeatureCollection",
"name": "geo_32_認知症対応型共同生活介護",
"crs": { "type": "name", "properties": { "name": "urn:ogc:def:crs:OGC:1.3:CRS84" } },
"features": [
{ "type": "Feature", "properties": { "内容": "グループホームまごころの家【認知症対応型共同生活介護】松江市古志原一丁目14-1", "url": "https://www.kaigokensaku.mhlw.go.jp/32/index.php?action_kouhyou_detail_004_kani=true&JigyosyoCd=3270100724-00&ServiceCd=320&Type=search", "url2": "care-net.biz/32/magokoro-kaigo/" }, "geometry": { "type": "Point", "coordinates": [ 133.075054200000068, 35.4465542 ] } },
{ "type": "Feature", "properties": { "内容": "グループホームまごころの家・こしばら【認知症対応型共同生活介護】松江市古志原５丁目１３－６９", "url": "https://www.kaigokensaku.mhlw.go.jp/32/index.php?action_kouhyou_detail_004_kani=true&JigyosyoCd=3270101003-00&ServiceCd=320&Type=search", "url2": null }, "geometry": { "type": "Point", "coordinates": [ 133.081887300000062, 35.4426657 ] } },
{ "type": "Feature", "properties": { "内容": "グループホームまごころの家・いんべ【認知症対応型共同生活介護】島根県松江市東忌部町９００－２", "url": "https://www.kaigokensaku.mhlw.go.jp/32/index.php?action_kouhyou_detail_004_kani=true&JigyosyoCd=3290100589-00&ServiceCd=320&Type=search", "url2": "http://care-net.biz/32/magokoro-kaigo/" }, "geometry": { "type": "Point", "coordinates": [ 133.075054200000068, 35.4465542 ] } },
{ "type": "Feature", "properties": { "内容": "サンキ・ウエルビィグループホーム秋鹿【認知症対応型共同生活介護】島根県松江市岡本町1041-1サンキ・ウエルビィグループホーム秋鹿", "url": "https://www.kaigokensaku.mhlw.go.jp/32/index.php?action_kouhyou_detail_004_kani=true&JigyosyoCd=3290100365-00&ServiceCd=320&Type=search", "url2": null }, "geometry": { "type": "Point", "coordinates": [ 132.950946, 35.4758446 ] } },
{ "type": "Feature", "properties": { "内容": "サンキ・ウエルビィ　グループホーム玉湯【認知症対応型共同生活介護】島根県松江市玉湯町湯町1989番地1", "url": "https://www.kaigokensaku.mhlw.go.jp/32/index.php?action_kouhyou_detail_004_kani=true&JigyosyoCd=3290100407-00&ServiceCd=320&Type=search", "url2": null }, "geometry": { "type": "Point", "coordinates": [ 133.009266860574371, 35.428416792012371 ] } },
{ "type": "Feature", "properties": { "内容": "認知症対応型共同生活介護悠々の家【認知症対応型共同生活介護】松江市川原町３０８", "url": "https://www.kaigokensaku.mhlw.go.jp/32/index.php?action_kouhyou_detail_004_kani=true&JigyosyoCd=3270100617-00&ServiceCd=320&Type=search", "url2": null }, "geometry": { "type": "Point", "coordinates": [ 133.093560600000046, 35.5026458 ] } },
{ "type": "Feature", "properties": { "内容": "グループホームブランチアゼリア【認知症対応型共同生活介護】松江市黒田町199番地1ブランチアゼリア", "url": "https://www.kaigokensaku.mhlw.go.jp/32/index.php?action_kouhyou_detail_004_kani=true&JigyosyoCd=3290100381-00&ServiceCd=320&Type=search", "url2": "http:/mizusumikai.or.jp/" }, "geometry": { "type": "Point", "coordinates": [ 133.041819700000019, 35.4797829 ] } },
{ "type": "Feature", "properties": { "内容": "グループホームアゼリア【認知症対応型共同生活介護】島根県松江市黒田町４７５－７", "url": "https://www.kaigokensaku.mhlw.go.jp/32/index.php?action_kouhyou_detail_004_kani=true&JigyosyoCd=3290100225-00&ServiceCd=320&Type=search", "url2": "http://mizusumikai.or.jp/" }, "geometry": { "type": "Point", "coordinates": [ 133.04302789999997, 35.4817938 ] } },
{ "type": "Feature", "properties": { "内容": "グループホーム　こころ【認知症対応型共同生活介護】松江市馬潟町108-1", "url": "https://www.kaigokensaku.mhlw.go.jp/32/index.php?action_kouhyou_detail_004_kani=true&JigyosyoCd=3290100282-00&ServiceCd=320&Type=search", "url2": "cocoro2gh@gmail.com" }, "geometry": { "type": "Point", "coordinates": [ 133.111227699999972, 35.4422755 ] } },
{ "type": "Feature", "properties": { "内容": "ニチイケアセンター松江玉造【認知症対応型共同生活介護】松江市玉湯町湯町189-1", "url": "https://www.kaigokensaku.mhlw.go.jp/32/index.php?action_kouhyou_detail_004_kani=true&JigyosyoCd=3290100241-00&ServiceCd=320&Type=search", "url2": "http://www.nichiigakkan.co.jp" }, "geometry": { "type": "Point", "coordinates": [ 133.0149467, 35.4335043 ] } },
{ "type": "Feature", "properties": { "内容": "ニチイケアセンター東津田【認知症対応型共同生活介護】松江市東津田町２１０７－１", "url": "https://www.kaigokensaku.mhlw.go.jp/32/index.php?action_kouhyou_detail_004_kani=true&JigyosyoCd=3290100316-00&ServiceCd=320&Type=search", "url2": "http://www.nichiigakkan.co.jp" }, "geometry": { "type": "Point", "coordinates": [ 133.088153199999965, 35.4488624 ] } },
{ "type": "Feature", "properties": { "内容": "グループホーム雫音【認知症対応型共同生活介護】島根県松江市津田町313番地", "url": "https://www.kaigokensaku.mhlw.go.jp/32/index.php?action_kouhyou_detail_004_kani=true&JigyosyoCd=3290100860-00&ServiceCd=320&Type=search", "url2": null }, "geometry": { "type": "Point", "coordinates": [ 133.065585361376918, 35.460354205907514 ] } },
{ "type": "Feature", "properties": { "内容": "社会福祉法人　かしま福祉会　グループホームあとむ苑【認知症対応型共同生活介護】島根県松江市鹿島町北講武885-6", "url": "https://www.kaigokensaku.mhlw.go.jp/32/index.php?action_kouhyou_detail_004_kani=true&JigyosyoCd=3271100434-00&ServiceCd=320&Type=search", "url2": "http//www.kashima-fukushikai.jp" }, "geometry": { "type": "Point", "coordinates": [ 133.0275474, 35.5230079 ] } },
{ "type": "Feature", "properties": { "内容": "グループホーム　万福の家【認知症対応型共同生活介護】島根県松江市下東川津町146", "url": "https://www.kaigokensaku.mhlw.go.jp/32/index.php?action_kouhyou_detail_004_kani=true&JigyosyoCd=3290100936-00&ServiceCd=320&Type=search", "url2": "seishinkaiplus.com/ghm/" }, "geometry": { "type": "Point", "coordinates": [ 133.0877174, 35.5003673 ] } },
{ "type": "Feature", "properties": { "内容": "グループホーム太陽の里【認知症対応型共同生活介護】島根県松江市佐草町７２－１", "url": "https://www.kaigokensaku.mhlw.go.jp/32/index.php?action_kouhyou_detail_004_kani=true&JigyosyoCd=3270101151-00&ServiceCd=320&Type=search", "url2": "https://www.sf-keijinkai.or.jp/" }, "geometry": { "type": "Point", "coordinates": [ 133.076806800000014, 35.4316299 ] } },
{ "type": "Feature", "properties": { "内容": "グループホーム東出雲【認知症対応型共同生活介護】松江市東出雲町意宇南２－５－５", "url": "https://www.kaigokensaku.mhlw.go.jp/32/index.php?action_kouhyou_detail_004_kani=true&JigyosyoCd=3290100449-00&ServiceCd=320&Type=search", "url2": "http://www.sf-keijinkai.or.jp" }, "geometry": { "type": "Point", "coordinates": [ 133.134110706884712, 35.427400018329195 ] } },
{ "type": "Feature", "properties": { "内容": "グループホーム本郷【認知症対応型共同生活介護】松江市本郷町2-20", "url": "https://www.kaigokensaku.mhlw.go.jp/32/index.php?action_kouhyou_detail_004_kani=true&JigyosyoCd=3290100423-00&ServiceCd=320&Type=search", "url2": "http://www.sf-keijinkai.or.jp" }, "geometry": { "type": "Point", "coordinates": [ 133.061175347221393, 35.460629832762727 ] } },
{ "type": "Feature", "properties": { "内容": "グループホームあしたか【認知症対応型共同生活介護】松江市東出雲町出雲郷490", "url": "https://www.kaigokensaku.mhlw.go.jp/32/index.php?action_kouhyou_detail_004_kani=true&JigyosyoCd=3271100582-00&ServiceCd=320&Type=search", "url2": "https://www.so-unkai.com/" }, "geometry": { "type": "Point", "coordinates": [ 133.128186, 35.432466 ] } },
{ "type": "Feature", "properties": { "内容": "グループホーム　ひなたぼっこ・西川津【認知症対応型共同生活介護】松江市西川津町２６６３番地２", "url": "https://www.kaigokensaku.mhlw.go.jp/32/index.php?action_kouhyou_detail_004_kani=true&JigyosyoCd=3290100266-00&ServiceCd=320&Type=search", "url2": "https://www.hinata-hyoma.com/" }, "geometry": { "type": "Point", "coordinates": [ 133.076344100000028, 35.4820254 ] } },
{ "type": "Feature", "properties": { "内容": "グループホームしんわ【認知症対応型共同生活介護】島根県松江市東出雲町下意東761番地1", "url": "https://www.kaigokensaku.mhlw.go.jp/32/index.php?action_kouhyou_detail_004_kani=true&JigyosyoCd=3271100541-00&ServiceCd=320&Type=search", "url2": null }, "geometry": { "type": "Point", "coordinates": [ 133.167354299999943, 35.4369817 ] } },
{ "type": "Feature", "properties": { "内容": "グループホーム生馬の郷【認知症対応型共同生活介護】島根県松江市東生馬町386番地", "url": "https://www.kaigokensaku.mhlw.go.jp/32/index.php?action_kouhyou_detail_004_kani=true&JigyosyoCd=3290100373-00&ServiceCd=320&Type=search", "url2": "http://www.shinwa04.com" }, "geometry": { "type": "Point", "coordinates": [ 133.037614, 35.4973196 ] } },
{ "type": "Feature", "properties": { "内容": "グループホームゆりさわ【認知症対応型共同生活介護】松江市宍道町佐々布2130－1", "url": "https://www.kaigokensaku.mhlw.go.jp/32/index.php?action_kouhyou_detail_004_kani=true&JigyosyoCd=3271100442-00&ServiceCd=320&Type=search", "url2": "https://amigo-shimane.jp/" }, "geometry": { "type": "Point", "coordinates": [ 132.8813404, 35.3972333 ] } },
{ "type": "Feature", "properties": { "内容": "グループホーム花にしかわつ【認知症対応型共同生活介護】松江市西川津町699－3", "url": "https://www.kaigokensaku.mhlw.go.jp/32/index.php?action_kouhyou_detail_004_kani=true&JigyosyoCd=3290100696-00&ServiceCd=320&Type=search", "url2": "http://siawase-s.net" }, "geometry": { "type": "Point", "coordinates": [ 133.071027599999979, 35.4894215 ] } },
{ "type": "Feature", "properties": { "内容": "グループホームゆめの丘【認知症対応型共同生活介護】松江市美保関町北浦６２４－１", "url": "https://www.kaigokensaku.mhlw.go.jp/32/index.php?action_kouhyou_detail_004_kani=true&JigyosyoCd=3290100324-00&ServiceCd=320&Type=search", "url2": "http://siawase-s.net" }, "geometry": { "type": "Point", "coordinates": [ 133.158983822090107, 35.55676605047806 ] } },
{ "type": "Feature", "properties": { "内容": "グループホーム陽恵苑【認知症対応型共同生活介護】馬潟町104番地1", "url": "https://www.kaigokensaku.mhlw.go.jp/32/index.php?action_kouhyou_detail_004_kani=true&JigyosyoCd=3290100415-00&ServiceCd=320&Type=search", "url2": "http://www.youkeien.or.jp/" }, "geometry": { "type": "Point", "coordinates": [ 133.11154149999993, 35.4428727 ] } },
{ "type": "Feature", "properties": { "内容": "グループホーム敬愛苑【認知症対応型共同生活介護】松江市寺町１９８－５７ボートピア松江ビル４Ｆ", "url": "https://www.kaigokensaku.mhlw.go.jp/32/index.php?action_kouhyou_detail_004_kani=true&JigyosyoCd=3270101169-00&ServiceCd=320&Type=search", "url2": null }, "geometry": { "type": "Point", "coordinates": [ 133.058390899999949, 35.464388 ] } },
{ "type": "Feature", "properties": { "内容": "認知症対応型共同生活介護　グループホーム意宇の燈【認知症対応型共同生活介護】島根県松江市八雲町東岩坂77-3", "url": "https://www.kaigokensaku.mhlw.go.jp/32/index.php?action_kouhyou_detail_004_kani=true&JigyosyoCd=3290100795-00&ServiceCd=320&Type=search", "url2": "https://www.toukou-g.com" }, "geometry": { "type": "Point", "coordinates": [ 133.0963926, 35.4079475 ] } },
{ "type": "Feature", "properties": { "内容": "医療法人仁風会　雲陽の里【認知症対応型共同生活介護】松江市大庭町１４５９－１", "url": "https://www.kaigokensaku.mhlw.go.jp/32/index.php?action_kouhyou_detail_004_kani=true&JigyosyoCd=3270100732-00&ServiceCd=320&Type=search", "url2": "www.yakumohp.net/" }, "geometry": { "type": "Point", "coordinates": [ 133.082890300000031, 35.4378801 ] } },
{ "type": "Feature", "properties": { "内容": "ウェル・アイ　ジュジュ【認知症対応型共同生活介護】島根県松江市山代町401-1", "url": "https://www.kaigokensaku.mhlw.go.jp/32/index.php?action_kouhyou_detail_004_kani=true&JigyosyoCd=3290100217-00&ServiceCd=320&Type=search", "url2": null }, "geometry": { "type": "Point", "coordinates": [ 133.089278799999988, 35.4361442 ] } },
{ "type": "Feature", "properties": { "内容": "特定非営利活動法人　久米の家【認知症対応型共同生活介護】島根県松江市法吉町久米803番地2", "url": "https://www.kaigokensaku.mhlw.go.jp/32/index.php?action_kouhyou_detail_004_kani=true&JigyosyoCd=3270100864-00&ServiceCd=320&Type=search", "url2": "https://kumainoie.com/" }, "geometry": { "type": "Point", "coordinates": [ 133.043596996329825, 35.49136770146896 ] } },
{ "type": "Feature", "properties": { "内容": "グループホームやつかの郷新館【認知症対応型共同生活介護】島根県松江市八束町二子１０２５－９", "url": "https://www.kaigokensaku.mhlw.go.jp/32/index.php?action_kouhyou_detail_004_kani=true&JigyosyoCd=3290100209-00&ServiceCd=320&Type=search", "url2": null }, "geometry": { "type": "Point", "coordinates": [ 133.161348699999962, 35.506801899999985 ] } },
{ "type": "Feature", "properties": { "内容": "グループホームやつかの郷【認知症対応型共同生活介護】松江市八束町二子1025-9", "url": "https://www.kaigokensaku.mhlw.go.jp/32/index.php?action_kouhyou_detail_004_kani=true&JigyosyoCd=3270101581-00&ServiceCd=320&Type=search", "url2": null }, "geometry": { "type": "Point", "coordinates": [ 133.161348699999962, 35.5068019 ] } },
{ "type": "Feature", "properties": { "内容": "グループホーム　ひさご苑【認知症対応型共同生活介護】島根県松江市浜佐田町１２５", "url": "https://www.kaigokensaku.mhlw.go.jp/32/index.php?action_kouhyou_detail_004_kani=true&JigyosyoCd=3290100514-00&ServiceCd=320&Type=search", "url2": null }, "geometry": { "type": "Point", "coordinates": [ 133.031609399999979, 35.4831822 ] } },
{ "type": "Feature", "properties": { "内容": "グループホーム大森の家【認知症対応型共同生活介護】松江市宍道町上来待204－4", "url": "https://www.kaigokensaku.mhlw.go.jp/32/index.php?action_kouhyou_detail_004_kani=true&JigyosyoCd=3270101383-00&ServiceCd=320&Type=search", "url2": null }, "geometry": { "type": "Point", "coordinates": [ 132.963215200000036, 35.4041296 ] } },
{ "type": "Feature", "properties": { "内容": "グループホーム遊空間【認知症対応型共同生活介護】島根県松江市南平台11番１号", "url": "https://www.kaigokensaku.mhlw.go.jp/32/index.php?action_kouhyou_detail_004_kani=true&JigyosyoCd=3270100740-00&ServiceCd=320&Type=search", "url2": null }, "geometry": { "type": "Point", "coordinates": [ 133.033131899999944, 35.470781 ] } },
{ "type": "Feature", "properties": { "内容": "グループホームあした葉【認知症対応型共同生活介護】島根県松江市雑賀町２９９番地", "url": "https://www.kaigokensaku.mhlw.go.jp/32/index.php?action_kouhyou_detail_004_kani=true&JigyosyoCd=3270101458-00&ServiceCd=320&Type=search", "url2": null }, "geometry": { "type": "Point", "coordinates": [ 133.058882700000026, 35.4584582 ] } },
{ "type": "Feature", "properties": { "内容": "グループホーム　野の花【認知症対応型共同生活介護】松江市大庭町1311-1", "url": "https://www.kaigokensaku.mhlw.go.jp/32/index.php?action_kouhyou_detail_004_kani=true&JigyosyoCd=3270101391-00&ServiceCd=320&Type=search", "url2": "http://fu-su-no.jp/" }, "geometry": { "type": "Point", "coordinates": [ 133.067174799999947, 35.4327445 ] } },
{ "type": "Feature", "properties": { "内容": "グループホーム　アンジュ【認知症対応型共同生活介護】松江市西津田4-7-18", "url": "https://www.kaigokensaku.mhlw.go.jp/32/index.php?action_kouhyou_detail_004_kani=true&JigyosyoCd=3270101532-00&ServiceCd=320&Type=search", "url2": null }, "geometry": { "type": "Point", "coordinates": [ 133.074814899999978, 35.455706 ] } },
{ "type": "Feature", "properties": { "内容": "グループホーム　はまぼうふう【認知症対応型共同生活介護】島根県浜田市久代町１－７", "url": "https://www.kaigokensaku.mhlw.go.jp/32/index.php?action_kouhyou_detail_004_kani=true&JigyosyoCd=3270700507-00&ServiceCd=320&Type=search", "url2": "http://mizusumikai.or.jp/" }, "geometry": { "type": "Point", "coordinates": [ 132.134674300000029, 34.9546034 ] } },
{ "type": "Feature", "properties": { "内容": "グループホームゆうな【認知症対応型共同生活介護】島根県浜田市三隅町河内465番地3", "url": "https://www.kaigokensaku.mhlw.go.jp/32/index.php?action_kouhyou_detail_004_kani=true&JigyosyoCd=3290700115-00&ServiceCd=320&Type=search", "url2": "https://www.mizusumikai.jp" }, "geometry": { "type": "Point", "coordinates": [ 131.981285101188632, 34.759822943141977 ] } },
{ "type": "Feature", "properties": { "内容": "グループホーム　みかわ【認知症対応型共同生活介護】島根県浜田市内村町３６５番地４", "url": "https://www.kaigokensaku.mhlw.go.jp/32/index.php?action_kouhyou_detail_004_kani=true&JigyosyoCd=3270700382-00&ServiceCd=320&Type=search", "url2": "https://mikawaen.com" }, "geometry": { "type": "Point", "coordinates": [ 132.049756600000023, 34.853087 ] } },
{ "type": "Feature", "properties": { "内容": "グループホーム　美川の郷【認知症対応型共同生活介護】島根県浜田市内村町８４３番地", "url": "https://www.kaigokensaku.mhlw.go.jp/32/index.php?action_kouhyou_detail_004_kani=true&JigyosyoCd=3290700164-00&ServiceCd=320&Type=search", "url2": "https://mikawaen.com" }, "geometry": { "type": "Point", "coordinates": [ 132.055873, 34.852451 ] } },
{ "type": "Feature", "properties": { "内容": "グループホーム　ひなたぼっこ・相生【認知症対応型共同生活介護】浜田市相生町１４４５－２", "url": "https://www.kaigokensaku.mhlw.go.jp/32/index.php?action_kouhyou_detail_004_kani=true&JigyosyoCd=3290700057-00&ServiceCd=320&Type=search", "url2": "https://www.hinata-hyoma.com/" }, "geometry": { "type": "Point", "coordinates": [ 132.095632, 34.8958309 ] } },
{ "type": "Feature", "properties": { "内容": "グループホームさくら【認知症対応型共同生活介護】島根県浜田市金城町七条ハ564-1", "url": "https://www.kaigokensaku.mhlw.go.jp/32/index.php?action_kouhyou_detail_004_kani=true&JigyosyoCd=3271900254-00&ServiceCd=320&Type=search", "url2": "http//sakura.okita-naika.jp/" }, "geometry": { "type": "Point", "coordinates": [ 132.1501204, 34.8689202 ] } },
{ "type": "Feature", "properties": { "内容": "グループホーム　ふじいさんち【認知症対応型共同生活介護】島根県浜田市弥栄町木都賀ロ２９１番地", "url": "https://www.kaigokensaku.mhlw.go.jp/32/index.php?action_kouhyou_detail_004_kani=true&JigyosyoCd=3271900239-00&ServiceCd=320&Type=search", "url2": null }, "geometry": { "type": "Point", "coordinates": [ 132.064512499999978, 34.772645 ] } },
{ "type": "Feature", "properties": { "内容": "グループホームみんなの家【認知症対応型共同生活介護】島根県浜田市熱田町1227番地", "url": "https://www.kaigokensaku.mhlw.go.jp/32/index.php?action_kouhyou_detail_004_kani=true&JigyosyoCd=3290700131-00&ServiceCd=320&Type=search", "url2": "http://www.iwaumi.jp" }, "geometry": { "type": "Point", "coordinates": [ 132.052881764287577, 34.867873410867823 ] } },
{ "type": "Feature", "properties": { "内容": "グループホーム風の丘【認知症対応型共同生活介護】小津町23-1", "url": "https://www.kaigokensaku.mhlw.go.jp/32/index.php?action_kouhyou_detail_004_kani=true&JigyosyoCd=3290400427-00&ServiceCd=320&Type=search", "url2": "http://www.minatonooka.co.jp/" }, "geometry": { "type": "Point", "coordinates": [ 132.767595482307456, 35.456847044608686 ] } },
{ "type": "Feature", "properties": { "内容": "けあビジョンホーム出雲【認知症対応型共同生活介護】斐川町荘原2320-1", "url": "https://www.kaigokensaku.mhlw.go.jp/32/index.php?action_kouhyou_detail_004_kani=true&JigyosyoCd=3290400633-00&ServiceCd=320&Type=search", "url2": null }, "geometry": { "type": "Point", "coordinates": [ 132.8613458, 35.4007703 ] } },
{ "type": "Feature", "properties": { "内容": "サンキ・ウエルビィ　グループホーム出雲【認知症対応型共同生活介護】島根県出雲市大社町北荒木１３１３-2", "url": "https://www.kaigokensaku.mhlw.go.jp/32/index.php?action_kouhyou_detail_004_kani=true&JigyosyoCd=3290400245-00&ServiceCd=320&Type=search", "url2": null }, "geometry": { "type": "Point", "coordinates": [ 132.698949699999957, 35.3861486 ] } },
{ "type": "Feature", "properties": { "内容": "認知症対応型グループホームすいせん渡橋【認知症対応型共同生活介護】出雲市渡橋町３０４番地１ハピネケアセンター出雲", "url": "https://www.kaigokensaku.mhlw.go.jp/32/index.php?action_kouhyou_detail_004_kani=true&JigyosyoCd=3290400211-00&ServiceCd=320&Type=search", "url2": "http://www.hapine.com" }, "geometry": { "type": "Point", "coordinates": [ 132.745049, 35.3683374 ] } },
{ "type": "Feature", "properties": { "内容": "グループホーム水の元【認知症対応型共同生活介護】島根県出雲市東園町529番地1", "url": "https://www.kaigokensaku.mhlw.go.jp/32/index.php?action_kouhyou_detail_004_kani=true&JigyosyoCd=3290400666-00&ServiceCd=320&Type=search", "url2": "https://www.wixyou-me-only.com/" }, "geometry": { "type": "Point", "coordinates": [ 132.702319181336946, 35.351414242971103 ] } },
{ "type": "Feature", "properties": { "内容": "グループホームきづきの家【認知症対応型共同生活介護】大社町杵築西２６２９", "url": "https://www.kaigokensaku.mhlw.go.jp/32/index.php?action_kouhyou_detail_004_kani=true&JigyosyoCd=3290400401-00&ServiceCd=320&Type=search", "url2": "http://www.kidukikai.or.jp" }, "geometry": { "type": "Point", "coordinates": [ 132.681883971472161, 35.388263985522208 ] } },
{ "type": "Feature", "properties": { "内容": "グループホーム　せせらぎの家【認知症対応型共同生活介護】出雲市佐田町一窪田118番地19", "url": "https://www.kaigokensaku.mhlw.go.jp/32/index.php?action_kouhyou_detail_004_kani=true&JigyosyoCd=3290400187-00&ServiceCd=320&Type=search", "url2": "http://www.izumo-yamayuri.or.jp" }, "geometry": { "type": "Point", "coordinates": [ 132.689541700000063, 35.2550091 ] } },
{ "type": "Feature", "properties": { "内容": "グループホームさらさの家【認知症対応型共同生活介護】出雲市東福町190－2", "url": "https://www.kaigokensaku.mhlw.go.jp/32/index.php?action_kouhyou_detail_004_kani=true&JigyosyoCd=3290400294-00&ServiceCd=320&Type=search", "url2": null }, "geometry": { "type": "Point", "coordinates": [ 132.820107300000018, 35.4488828 ] } },
{ "type": "Feature", "properties": { "内容": "ひだまり【認知症対応型共同生活介護】出雲市神西沖町2452-1", "url": "https://www.kaigokensaku.mhlw.go.jp/32/index.php?action_kouhyou_detail_004_kani=true&JigyosyoCd=3270400710-00&ServiceCd=320&Type=search", "url2": "https://www.w-himawari.jp/himawari-en" }, "geometry": { "type": "Point", "coordinates": [ 132.681109500000048, 35.3362396 ] } },
{ "type": "Feature", "properties": { "内容": "グループホームはなんばの里【認知症対応型共同生活介護】島根県出雲市多伎町口田儀750番地", "url": "https://www.kaigokensaku.mhlw.go.jp/32/index.php?action_kouhyou_detail_004_kani=true&JigyosyoCd=3290400112-00&ServiceCd=320&Type=search", "url2": "http:www.takinosato.jp" }, "geometry": { "type": "Point", "coordinates": [ 132.579439500000035, 35.269762 ] } },
{ "type": "Feature", "properties": { "内容": "ハートフルおやま【認知症対応型共同生活介護】出雲市小山町456-1", "url": "https://www.kaigokensaku.mhlw.go.jp/32/index.php?action_kouhyou_detail_004_kani=true&JigyosyoCd=3270400694-00&ServiceCd=320&Type=search", "url2": "https://www.ssw.or.jp/facilities/seniors/tenjin/394" }, "geometry": { "type": "Point", "coordinates": [ 132.737470482139514, 35.372921244930815 ] } },
{ "type": "Feature", "properties": { "内容": "グループホーム湖水苑【認知症対応型共同生活介護】島根県出雲市湖陵町差海318-1", "url": "https://www.kaigokensaku.mhlw.go.jp/32/index.php?action_kouhyou_detail_004_kani=true&JigyosyoCd=3290400690-00&ServiceCd=320&Type=search", "url2": "http://jukokai.jp/" }, "geometry": { "type": "Point", "coordinates": [ 132.6751606, 35.3277068 ] } },
{ "type": "Feature", "properties": { "内容": "グループホーム寿生の家【認知症対応型共同生活介護】出雲市上塩冶町2854-3", "url": "https://www.kaigokensaku.mhlw.go.jp/32/index.php?action_kouhyou_detail_004_kani=true&JigyosyoCd=3270400314-00&ServiceCd=320&Type=search", "url2": "http://www.juseikai.jp/" }, "geometry": { "type": "Point", "coordinates": [ 132.776962599999933, 35.3543373 ] } },
{ "type": "Feature", "properties": { "内容": "グループホーム稗原【認知症対応型共同生活介護】島根県出雲市稗原町1724グループホーム稗原", "url": "https://www.kaigokensaku.mhlw.go.jp/32/index.php?action_kouhyou_detail_004_kani=true&JigyosyoCd=3290400146-00&ServiceCd=320&Type=search", "url2": "http://www.hiebara.com" }, "geometry": { "type": "Point", "coordinates": [ 132.802744699999948, 35.3056911 ] } },
{ "type": "Feature", "properties": { "内容": "グループホームもくれん【認知症対応型共同生活介護】島根県出雲市湖陵町三部964-1", "url": "https://www.kaigokensaku.mhlw.go.jp/32/index.php?action_kouhyou_detail_004_kani=true&JigyosyoCd=3290400450-00&ServiceCd=320&Type=search", "url2": "izumo-mokuren.com" }, "geometry": { "type": "Point", "coordinates": [ 132.677865511856112, 35.310617892170384 ] } },
{ "type": "Feature", "properties": { "内容": "グループホーム　くらすところ御はつ【認知症対応型共同生活介護】島根県出雲市下古志町751番地6", "url": "https://www.kaigokensaku.mhlw.go.jp/32/index.php?action_kouhyou_detail_004_kani=true&JigyosyoCd=3290400682-00&ServiceCd=320&Type=search", "url2": "Ohatsu.jp" }, "geometry": { "type": "Point", "coordinates": [ 132.7346781, 35.3412877 ] } },
{ "type": "Feature", "properties": { "内容": "グループホーム暖談【認知症対応型共同生活介護】島根県出雲市大社町遙堪666", "url": "https://www.kaigokensaku.mhlw.go.jp/32/index.php?action_kouhyou_detail_004_kani=true&JigyosyoCd=3271600524-00&ServiceCd=320&Type=search", "url2": "https://purelife-shimane.com/dandan/index" }, "geometry": { "type": "Point", "coordinates": [ 132.724349699999948, 35.3879738 ] } },
{ "type": "Feature", "properties": { "内容": "グループホーム縁【認知症対応型共同生活介護】島根県出雲市大社町遙堪666", "url": "https://www.kaigokensaku.mhlw.go.jp/32/index.php?action_kouhyou_detail_004_kani=true&JigyosyoCd=3290400617-00&ServiceCd=320&Type=search", "url2": "https://purelife-shimane.com" }, "geometry": { "type": "Point", "coordinates": [ 132.724473699999976, 35.3880227 ] } },
{ "type": "Feature", "properties": { "内容": "出雲ケアセンターそよ風【認知症対応型共同生活介護】出雲市今市町876－9", "url": "https://www.kaigokensaku.mhlw.go.jp/32/index.php?action_kouhyou_detail_004_kani=true&JigyosyoCd=3290400138-00&ServiceCd=320&Type=search", "url2": null }, "geometry": { "type": "Point", "coordinates": [ 132.754537199999959, 35.3620773 ] } },
{ "type": "Feature", "properties": { "内容": "グループホーム柳緑の里【認知症対応型共同生活介護】島根県出雲市斐川町学頭1815-6グループホーム柳緑の里", "url": "https://www.kaigokensaku.mhlw.go.jp/32/index.php?action_kouhyou_detail_004_kani=true&JigyosyoCd=3290400641-00&ServiceCd=320&Type=search", "url2": "https://lush-care.jp/" }, "geometry": { "type": "Point", "coordinates": [ 132.874894707965097, 35.397440022519561 ] } },
{ "type": "Feature", "properties": { "内容": "あかねの里認知症対応型共同生活介護事業所【認知症対応型共同生活介護】島根県出雲市平田町7169", "url": "https://www.kaigokensaku.mhlw.go.jp/32/index.php?action_kouhyou_detail_004_kani=true&JigyosyoCd=3270300092-00&ServiceCd=320&Type=search", "url2": "http://mandanosato.jp/" }, "geometry": { "type": "Point", "coordinates": [ 132.8222184, 35.4408866 ] } },
{ "type": "Feature", "properties": { "内容": "グループホームしあわせの里【認知症対応型共同生活介護】島根県出雲市上岡田町1031-1", "url": "https://www.kaigokensaku.mhlw.go.jp/32/index.php?action_kouhyou_detail_004_kani=true&JigyosyoCd=3290400419-00&ServiceCd=320&Type=search", "url2": "http://mandanosato.jp/" }, "geometry": { "type": "Point", "coordinates": [ 132.824508899999955, 35.4752186 ] } },
{ "type": "Feature", "properties": { "内容": "グループホーム大社【認知症対応型共同生活介護】島根県出雲市大社町中荒木２６１７－８５", "url": "https://www.kaigokensaku.mhlw.go.jp/32/index.php?action_kouhyou_detail_004_kani=true&JigyosyoCd=3290400476-00&ServiceCd=320&Type=search", "url2": "http://www.shinjirakuen.jp/" }, "geometry": { "type": "Point", "coordinates": [ 132.681184700000017, 35.3855595 ] } },
{ "type": "Feature", "properties": { "内容": "グループホーム出東ララ【認知症対応型共同生活介護】島根県出雲市斐川町三分市1072番地1", "url": "https://www.kaigokensaku.mhlw.go.jp/32/index.php?action_kouhyou_detail_004_kani=true&JigyosyoCd=3290400385-00&ServiceCd=320&Type=search", "url2": "http://syuttou-fukushikai.net/rara/pg21.html" }, "geometry": { "type": "Point", "coordinates": [ 132.845664899999946, 35.4157417 ] } },
{ "type": "Feature", "properties": { "内容": "グループホーム　ハートキュアひらた【認知症対応型共同生活介護】出雲市国富町832-2", "url": "https://www.kaigokensaku.mhlw.go.jp/32/index.php?action_kouhyou_detail_004_kani=true&JigyosyoCd=3270300191-00&ServiceCd=320&Type=search", "url2": null }, "geometry": { "type": "Point", "coordinates": [ 132.808634500000039, 35.4268349 ] } },
{ "type": "Feature", "properties": { "内容": "グループホームさくらんぼ【認知症対応型共同生活介護】島根県出雲市斐川町今在家４０３番地１", "url": "https://www.kaigokensaku.mhlw.go.jp/32/index.php?action_kouhyou_detail_004_kani=true&JigyosyoCd=3271600607-00&ServiceCd=320&Type=search", "url2": null }, "geometry": { "type": "Point", "coordinates": [ 132.802800100000013, 35.4028179 ] } },
{ "type": "Feature", "properties": { "内容": "グループホームやまもも【認知症対応型共同生活介護】島根県出雲市美野町504", "url": "https://www.kaigokensaku.mhlw.go.jp/32/index.php?action_kouhyou_detail_004_kani=true&JigyosyoCd=3290400088-00&ServiceCd=320&Type=search", "url2": "http://inohonjin.jp/" }, "geometry": { "type": "Point", "coordinates": [ 132.900114799999983, 35.4628055 ] } },
{ "type": "Feature", "properties": { "内容": "グループホーム　寿生の丘【認知症対応型共同生活介護】島根県出雲市大津町３６２２－１５", "url": "https://www.kaigokensaku.mhlw.go.jp/32/index.php?action_kouhyou_detail_004_kani=true&JigyosyoCd=3270400595-00&ServiceCd=320&Type=search", "url2": "http://www.izumo-minami.jp" }, "geometry": { "type": "Point", "coordinates": [ 132.778567899999985, 35.3549233 ] } },
{ "type": "Feature", "properties": { "内容": "認知症高齢者グループホーム宇賀の里楽舎【認知症対応型共同生活介護】出雲市奥宇賀町23番地10", "url": "https://www.kaigokensaku.mhlw.go.jp/32/index.php?action_kouhyou_detail_004_kani=true&JigyosyoCd=3290400153-00&ServiceCd=320&Type=search", "url2": "http://www.rakuya-izumo.jp" }, "geometry": { "type": "Point", "coordinates": [ 132.781667500000026, 35.4410605 ] } },
{ "type": "Feature", "properties": { "内容": "認知症高齢者グループホーム　宇賀の杜　楽舎【認知症対応型共同生活介護】出雲市奥宇賀町23番地1", "url": "https://www.kaigokensaku.mhlw.go.jp/32/index.php?action_kouhyou_detail_004_kani=true&JigyosyoCd=3270400967-00&ServiceCd=320&Type=search", "url2": "http://www.rakuya-izumo.jp" }, "geometry": { "type": "Point", "coordinates": [ 132.781450899999982, 35.441255 ] } },
{ "type": "Feature", "properties": { "内容": "グループホーム　暖らん【認知症対応型共同生活介護】島根県出雲市塩冶町南町1-1-37", "url": "https://www.kaigokensaku.mhlw.go.jp/32/index.php?action_kouhyou_detail_004_kani=true&JigyosyoCd=3290400609-00&ServiceCd=320&Type=search", "url2": "www.kiichigo-danran.jp/danran" }, "geometry": { "type": "Point", "coordinates": [ 132.746241400000031, 35.347174 ] } },
{ "type": "Feature", "properties": { "内容": "グループホーム　なかだ浜山の里【認知症対応型共同生活介護】島根県出雲市浜町５００－１", "url": "https://www.kaigokensaku.mhlw.go.jp/32/index.php?action_kouhyou_detail_004_kani=true&JigyosyoCd=3290400179-00&ServiceCd=320&Type=search", "url2": null }, "geometry": { "type": "Point", "coordinates": [ 132.715706599999976, 35.3796967 ] } },
{ "type": "Feature", "properties": { "内容": "グループホームたくひの里【認知症対応型共同生活介護】島根県出雲市大津町3645", "url": "https://www.kaigokensaku.mhlw.go.jp/32/index.php?action_kouhyou_detail_004_kani=true&JigyosyoCd=3270400900-00&ServiceCd=320&Type=search", "url2": null }, "geometry": { "type": "Point", "coordinates": [ 132.775272889549257, 35.360558723776599 ] } },
{ "type": "Feature", "properties": { "内容": "グループホーム萌【認知症対応型共同生活介護】島根県出雲市斐川町学頭１３２２－１", "url": "https://www.kaigokensaku.mhlw.go.jp/32/index.php?action_kouhyou_detail_004_kani=true&JigyosyoCd=3271600458-00&ServiceCd=320&Type=search", "url2": "https://gh-moe.com/" }, "geometry": { "type": "Point", "coordinates": [ 132.871358300000054, 35.387626 ] } },
{ "type": "Feature", "properties": { "内容": "グループホーム四季彩【認知症対応型共同生活介護】島根県出雲市灘分町２０４－２", "url": "https://www.kaigokensaku.mhlw.go.jp/32/index.php?action_kouhyou_detail_004_kani=true&JigyosyoCd=3270300167-00&ServiceCd=320&Type=search", "url2": null }, "geometry": { "type": "Point", "coordinates": [ 132.826502199999965, 35.425953900000025 ] } },
{ "type": "Feature", "properties": { "内容": "グループホーム湊和【認知症対応型共同生活介護】島根県出雲市古志町３４４番地-", "url": "https://www.kaigokensaku.mhlw.go.jp/32/index.php?action_kouhyou_detail_004_kani=true&JigyosyoCd=3290400823-00&ServiceCd=320&Type=search", "url2": "-" }, "geometry": { "type": "Point", "coordinates": [ 132.7384596, 35.3533994 ] } },
{ "type": "Feature", "properties": { "内容": "株式会社　リ・コネクト　グループホーム北陽【認知症対応型共同生活介護】島根県出雲市武志町755-2", "url": "https://www.kaigokensaku.mhlw.go.jp/32/index.php?action_kouhyou_detail_004_kani=true&JigyosyoCd=3290400393-00&ServiceCd=320&Type=search", "url2": null }, "geometry": { "type": "Point", "coordinates": [ 132.7755197, 35.3948917 ] } },
{ "type": "Feature", "properties": { "内容": "認知症対応型共同生活介護グループホームかんどの里【認知症対応型共同生活介護】島根県出雲市神門町13番地5", "url": "https://www.kaigokensaku.mhlw.go.jp/32/index.php?action_kouhyou_detail_004_kani=true&JigyosyoCd=3290400161-00&ServiceCd=320&Type=search", "url2": "http://kando-h.sakura.ne.jp/" }, "geometry": { "type": "Point", "coordinates": [ 132.713155599999936, 35.3441866 ] } },
{ "type": "Feature", "properties": { "内容": "グループホーム　悠心彩中西【認知症対応型共同生活介護】島根県益田市市原町イ434-1", "url": "https://www.kaigokensaku.mhlw.go.jp/32/index.php?action_kouhyou_detail_004_kani=true&JigyosyoCd=3290800030-00&ServiceCd=320&Type=search", "url2": "www.hori-kk.co.jp" }, "geometry": { "type": "Point", "coordinates": [ 131.788148500000034, 34.6714276 ] } },
{ "type": "Feature", "properties": { "内容": "グループホームもやいの家うのはな【認知症対応型共同生活介護】島根県益田市遠田町179-2", "url": "https://www.kaigokensaku.mhlw.go.jp/32/index.php?action_kouhyou_detail_004_kani=true&JigyosyoCd=3290800071-00&ServiceCd=320&Type=search", "url2": "http://mizusumikai.or.jp/" }, "geometry": { "type": "Point", "coordinates": [ 131.856143699999961, 34.7207436 ] } },
{ "type": "Feature", "properties": { "内容": "輝ららのさんぽ道　グループホーム【認知症対応型共同生活介護】島根県益田市遠田町２２９１番地", "url": "https://www.kaigokensaku.mhlw.go.jp/32/index.php?action_kouhyou_detail_004_kani=true&JigyosyoCd=3290800170-00&ServiceCd=320&Type=search", "url2": null }, "geometry": { "type": "Point", "coordinates": [ 131.85221660000002, 34.70427 ] } },
{ "type": "Feature", "properties": { "内容": "グループホームひなたぼっこ・えびすヶ丘【認知症対応型共同生活介護】益田市下本郷町７０５－２９", "url": "https://www.kaigokensaku.mhlw.go.jp/32/index.php?action_kouhyou_detail_004_kani=true&JigyosyoCd=3270800315-00&ServiceCd=320&Type=search", "url2": "https://www.hinata-hyoma.com/" }, "geometry": { "type": "Point", "coordinates": [ 131.850458500000059, 34.6928766 ] } },
{ "type": "Feature", "properties": { "内容": "グループホームひなたぼっこ・向横田【認知症対応型共同生活介護】益田市向横田町イ８０５－１", "url": "https://www.kaigokensaku.mhlw.go.jp/32/index.php?action_kouhyou_detail_004_kani=true&JigyosyoCd=3270800349-00&ServiceCd=320&Type=search", "url2": "https://www.hinata-hyoma.com/" }, "geometry": { "type": "Point", "coordinates": [ 131.792945799999984, 34.6206671 ] } },
{ "type": "Feature", "properties": { "内容": "グループホーム　ひなたぼっこ・美都【認知症対応型共同生活介護】益田市美都町山本イ２－３", "url": "https://www.kaigokensaku.mhlw.go.jp/32/index.php?action_kouhyou_detail_004_kani=true&JigyosyoCd=3272000112-00&ServiceCd=320&Type=search", "url2": "https://www.hinata-hyoma.com/" }, "geometry": { "type": "Point", "coordinates": [ 131.980819500000052, 34.6624933 ] } },
{ "type": "Feature", "properties": { "内容": "グループホームあんず【認知症対応型共同生活介護】島根県益田市美都町仙道681-2", "url": "https://www.kaigokensaku.mhlw.go.jp/32/index.php?action_kouhyou_detail_004_kani=true&JigyosyoCd=3272000120-00&ServiceCd=320&Type=search", "url2": null }, "geometry": { "type": "Point", "coordinates": [ 131.937660300000061, 34.6766079 ] } },
{ "type": "Feature", "properties": { "内容": "グループホームあじさい【認知症対応型共同生活介護】島根県益田市幸町2番37号", "url": "https://www.kaigokensaku.mhlw.go.jp/32/index.php?action_kouhyou_detail_004_kani=true&JigyosyoCd=3270800364-00&ServiceCd=320&Type=search", "url2": "www.ajisaihome.jp" }, "geometry": { "type": "Point", "coordinates": [ 131.852708399999983, 34.6745144 ] } },
{ "type": "Feature", "properties": { "内容": "グループホームさくら【認知症対応型共同生活介護】島根県益田市高津四丁目26番29号", "url": "https://www.kaigokensaku.mhlw.go.jp/32/index.php?action_kouhyou_detail_004_kani=true&JigyosyoCd=3290800097-00&ServiceCd=320&Type=search", "url2": null }, "geometry": { "type": "Point", "coordinates": [ 131.8018853, 34.6849711 ] } },
{ "type": "Feature", "properties": { "内容": "グループホームさくら２号館【認知症対応型共同生活介護】島根県益田市高津四丁目26番29号", "url": "https://www.kaigokensaku.mhlw.go.jp/32/index.php?action_kouhyou_detail_004_kani=true&JigyosyoCd=3290800246-00&ServiceCd=320&Type=search", "url2": null }, "geometry": { "type": "Point", "coordinates": [ 131.8018706, 34.6849601 ] } },
{ "type": "Feature", "properties": { "内容": "すいせんの郷【認知症対応型共同生活介護】島根県益田市西平原５３４－６すいせんの郷", "url": "https://www.kaigokensaku.mhlw.go.jp/32/index.php?action_kouhyou_detail_004_kani=true&JigyosyoCd=3290800089-00&ServiceCd=320&Type=search", "url2": "info@suisennosato.com" }, "geometry": { "type": "Point", "coordinates": [ 131.87933836430966, 34.750577670061617 ] } },
{ "type": "Feature", "properties": { "内容": "グループホーム　こもれびの郷【認知症対応型共同生活介護】島根県益田市横田町710番地", "url": "https://www.kaigokensaku.mhlw.go.jp/32/index.php?action_kouhyou_detail_004_kani=true&JigyosyoCd=3290800014-00&ServiceCd=320&Type=search", "url2": "http://komorebi-fukushi.jp" }, "geometry": { "type": "Point", "coordinates": [ 131.812605, 34.6247392 ] } },
{ "type": "Feature", "properties": { "内容": "グループホームひなたぼっこ【認知症対応型共同生活介護】益田市高津四丁目１１番１６号", "url": "https://www.kaigokensaku.mhlw.go.jp/32/index.php?action_kouhyou_detail_004_kani=true&JigyosyoCd=3270800265-00&ServiceCd=320&Type=search", "url2": "https://www.hinata-hyoma.com/" }, "geometry": { "type": "Point", "coordinates": [ 131.80704019999996, 34.687057 ] } },
{ "type": "Feature", "properties": { "内容": "グループホーム　悠心彩中西【認知症対応型共同生活介護】市原町イ434-1", "url": "https://www.kaigokensaku.mhlw.go.jp/32/index.php?action_kouhyou_detail_004_kani=true&JigyosyoCd=3290800311-00&ServiceCd=320&Type=search", "url2": "https:/llc-grandlife.com/holiday_ichihara.html" }, "geometry": { "type": "Point", "coordinates": [ 131.787990799999989, 34.6715064 ] } },
{ "type": "Feature", "properties": { "内容": "株式会社ビジュアルビジョン　けあビジョンホーム大田【認知症対応型共同生活介護】大田町大田イ162番２", "url": "https://www.kaigokensaku.mhlw.go.jp/32/index.php?action_kouhyou_detail_004_kani=true&JigyosyoCd=3290500135-00&ServiceCd=320&Type=search", "url2": null }, "geometry": { "type": "Point", "coordinates": [ 132.526440900000011, 35.1914948 ] } },
{ "type": "Feature", "properties": { "内容": "グループホーム陽だまりの森【認知症対応型共同生活介護】大田市久利町久利６９１", "url": "https://www.kaigokensaku.mhlw.go.jp/32/index.php?action_kouhyou_detail_004_kani=true&JigyosyoCd=3270500329-00&ServiceCd=320&Type=search", "url2": "http://www.koukyunoie.co.jp" }, "geometry": { "type": "Point", "coordinates": [ 132.474884800000041, 35.1509838 ] } },
{ "type": "Feature", "properties": { "内容": "グループホームさわらび【認知症対応型共同生活介護】三瓶町池田1219", "url": "https://www.kaigokensaku.mhlw.go.jp/32/index.php?action_kouhyou_detail_004_kani=true&JigyosyoCd=3270500139-00&ServiceCd=320&Type=search", "url2": "http://sawarabi.info//" }, "geometry": { "type": "Point", "coordinates": [ 132.557660588420674, 35.144425372991194 ] } },
{ "type": "Feature", "properties": { "内容": "グループホーム　たてがみの郷【認知症対応型共同生活介護】大田市波根町１２９０番地１", "url": "https://www.kaigokensaku.mhlw.go.jp/32/index.php?action_kouhyou_detail_004_kani=true&JigyosyoCd=3270500279-00&ServiceCd=320&Type=search", "url2": "http://www.well-nc.or.jp/" }, "geometry": { "type": "Point", "coordinates": [ 132.527589499999976, 35.2404372 ] } },
{ "type": "Feature", "properties": { "内容": "(有)ケアステーション　神有　グループホーム木いちご【認知症対応型共同生活介護】島根県大田市久利町行恒３４６－１", "url": "https://www.kaigokensaku.mhlw.go.jp/32/index.php?action_kouhyou_detail_004_kani=true&JigyosyoCd=3270500402-00&ServiceCd=320&Type=search", "url2": "kiichigo@neosnet.com" }, "geometry": { "type": "Point", "coordinates": [ 132.497154499999965, 35.1750193 ] } },
{ "type": "Feature", "properties": { "内容": "グループホーム七色館【認知症対応型共同生活介護】島根県大田市大田町大田イ３７６－１", "url": "https://www.kaigokensaku.mhlw.go.jp/32/index.php?action_kouhyou_detail_004_kani=true&JigyosyoCd=3270500303-00&ServiceCd=320&Type=search", "url2": "http://www.nanairokan.jp/" }, "geometry": { "type": "Point", "coordinates": [ 132.505517599999962, 35.1949867 ] } },
{ "type": "Feature", "properties": { "内容": "グループホームやすらぎ【認知症対応型共同生活介護】島根県大田市仁摩町仁万１０２８－１", "url": "https://www.kaigokensaku.mhlw.go.jp/32/index.php?action_kouhyou_detail_004_kani=true&JigyosyoCd=3271700134-00&ServiceCd=320&Type=search", "url2": null }, "geometry": { "type": "Point", "coordinates": [ 132.41352710000001, 35.1493029 ] } },
{ "type": "Feature", "properties": { "内容": "認知症高齢者グループホーム昌寿の家【認知症対応型共同生活介護】島根県安来市安来町８９９－１", "url": "https://www.kaigokensaku.mhlw.go.jp/32/index.php?action_kouhyou_detail_004_kani=true&JigyosyoCd=3290200173-00&ServiceCd=320&Type=search", "url2": "http://www.syourinkai.or.jp/" }, "geometry": { "type": "Point", "coordinates": [ 133.251735199999985, 35.432289 ] } },
{ "type": "Feature", "properties": { "内容": "認知症高齢者グループホームきららの家【認知症対応型共同生活介護】島根県安来市安来町８９９－９", "url": "https://www.kaigokensaku.mhlw.go.jp/32/index.php?action_kouhyou_detail_004_kani=true&JigyosyoCd=3270200193-00&ServiceCd=320&Type=search", "url2": "http://www.syourinkai.or.jp" }, "geometry": { "type": "Point", "coordinates": [ 133.252148300000044, 35.4318533 ] } },
{ "type": "Feature", "properties": { "内容": "認知症高齢者グループホームやすらぎの家【認知症対応型共同生活介護】島根県安来市安来町899-1", "url": "https://www.kaigokensaku.mhlw.go.jp/32/index.php?action_kouhyou_detail_004_kani=true&JigyosyoCd=3290200199-00&ServiceCd=320&Type=search", "url2": "https://www.syourinkai.or.jp/kaigo-shogai/yasuragi" }, "geometry": { "type": "Point", "coordinates": [ 133.251735200000013, 35.432289 ] } },
{ "type": "Feature", "properties": { "内容": "社会福祉法人やすぎ福祉会　グループホームかも【認知症対応型共同生活介護】安来市安来町641-1", "url": "https://www.kaigokensaku.mhlw.go.jp/32/index.php?action_kouhyou_detail_004_kani=true&JigyosyoCd=3290200066-00&ServiceCd=320&Type=search", "url2": "http://www.sirasagi-yasugi.or.jp" }, "geometry": { "type": "Point", "coordinates": [ 133.244802997006218, 35.418076837407817 ] } },
{ "type": "Feature", "properties": { "内容": "ソレイユグループホームあらしま【認知症対応型共同生活介護】安来市荒島町１７３４", "url": "https://www.kaigokensaku.mhlw.go.jp/32/index.php?action_kouhyou_detail_004_kani=true&JigyosyoCd=3290200157-00&ServiceCd=320&Type=search", "url2": "http://www.sirasagi-yasugi.or.jp" }, "geometry": { "type": "Point", "coordinates": [ 133.277938400000039, 35.3561081 ] } },
{ "type": "Feature", "properties": { "内容": "ふるさと母里【認知症対応型共同生活介護】島根県安来市伯太町東母里482番地2", "url": "https://www.kaigokensaku.mhlw.go.jp/32/index.php?action_kouhyou_detail_004_kani=true&JigyosyoCd=3290200074-00&ServiceCd=320&Type=search", "url2": "www.hakuikai.jp/" }, "geometry": { "type": "Point", "coordinates": [ 133.277099301991257, 35.352873858321203 ] } },
{ "type": "Feature", "properties": { "内容": "グル－プホ－ムなごみ【認知症対応型共同生活介護】島根県安来市広瀬町広瀬117番地3", "url": "https://www.kaigokensaku.mhlw.go.jp/32/index.php?action_kouhyou_detail_004_kani=true&JigyosyoCd=3290200017-00&ServiceCd=320&Type=search", "url2": "http:amago-taiyo.jp/" }, "geometry": { "type": "Point", "coordinates": [ 133.17112230187854, 35.36005025016091 ] } },
{ "type": "Feature", "properties": { "内容": "社会福祉法人せんだん会　グループホームかがやきの園【認知症対応型共同生活介護】安来市安来町９６０－１", "url": "https://www.kaigokensaku.mhlw.go.jp/32/index.php?action_kouhyou_detail_004_kani=true&JigyosyoCd=3270200110-00&ServiceCd=320&Type=search", "url2": "http://www.sendankai.net" }, "geometry": { "type": "Point", "coordinates": [ 133.25298429999998, 35.4342197 ] } },
{ "type": "Feature", "properties": { "内容": "グループホーム絆【認知症対応型共同生活介護】安来町970-1", "url": "https://www.kaigokensaku.mhlw.go.jp/32/index.php?action_kouhyou_detail_004_kani=true&JigyosyoCd=3290200058-00&ServiceCd=320&Type=search", "url2": "http://www.sendankai.net/" }, "geometry": { "type": "Point", "coordinates": [ 133.253037100000029, 35.4337004 ] } },
{ "type": "Feature", "properties": { "内容": "グループホーム　バルツガーデン【認知症対応型共同生活介護】安来市荒島町２１７７－１４", "url": "https://www.kaigokensaku.mhlw.go.jp/32/index.php?action_kouhyou_detail_004_kani=true&JigyosyoCd=3290200033-00&ServiceCd=320&Type=search", "url2": "http://www.sendankai.nt" }, "geometry": { "type": "Point", "coordinates": [ 133.203860100000043, 35.4326388 ] } },
{ "type": "Feature", "properties": { "内容": "グループホーム久遠の響【認知症対応型共同生活介護】島根県安来市広瀬町西比田1497-1", "url": "https://www.kaigokensaku.mhlw.go.jp/32/index.php?action_kouhyou_detail_004_kani=true&JigyosyoCd=3290200165-00&ServiceCd=320&Type=search", "url2": "https://www.toukou-g.com/" }, "geometry": { "type": "Point", "coordinates": [ 133.13223114169466, 35.238697163552807 ] } },
{ "type": "Feature", "properties": { "内容": "グループホームモモ【認知症対応型共同生活介護】島根県江津市敬川町1230番地1", "url": "https://www.kaigokensaku.mhlw.go.jp/32/index.php?action_kouhyou_detail_004_kani=true&JigyosyoCd=3290600034-00&ServiceCd=320&Type=search", "url2": "http://www.iwamifukushikai.or.jp/" }, "geometry": { "type": "Point", "coordinates": [ 132.1744324, 34.9761375 ] } },
{ "type": "Feature", "properties": { "内容": "グループホーム　合歓の郷【認知症対応型共同生活介護】江津市後地町834-1", "url": "https://www.kaigokensaku.mhlw.go.jp/32/index.php?action_kouhyou_detail_004_kani=true&JigyosyoCd=3270600269-00&ServiceCd=320&Type=search", "url2": "http://www.hana-mura.net" }, "geometry": { "type": "Point", "coordinates": [ 132.301115, 35.0379591 ] } },
{ "type": "Feature", "properties": { "内容": "グループホーム　合歓の丘【認知症対応型共同生活介護】島根県江津市後地町2935番地4", "url": "https://www.kaigokensaku.mhlw.go.jp/32/index.php?action_kouhyou_detail_004_kani=true&JigyosyoCd=3290600091-00&ServiceCd=320&Type=search", "url2": "http://www.hana-mura.net" }, "geometry": { "type": "Point", "coordinates": [ 132.286532800000032, 35.0437418 ] } },
{ "type": "Feature", "properties": { "内容": "陽光苑グループホーム【認知症対応型共同生活介護】江津市桜江町長谷2723番地2", "url": "https://www.kaigokensaku.mhlw.go.jp/32/index.php?action_kouhyou_detail_004_kani=true&JigyosyoCd=3271800389-00&ServiceCd=320&Type=search", "url2": "https://www.sakuraefukushikai.jp/" }, "geometry": { "type": "Point", "coordinates": [ 132.270144800000025, 34.9219936 ] } },
{ "type": "Feature", "properties": { "内容": "グループホームひのき【認知症対応型共同生活介護】島根県江津市都野津町２３４０－５", "url": "https://www.kaigokensaku.mhlw.go.jp/32/index.php?action_kouhyou_detail_004_kani=true&JigyosyoCd=3270600228-00&ServiceCd=320&Type=search", "url2": "https://www.contia.net/" }, "geometry": { "type": "Point", "coordinates": [ 132.187109101852428, 34.984760801891525 ] } },
{ "type": "Feature", "properties": { "内容": "グループホームひのき嘉久志【認知症対応型共同生活介護】江津市嘉久志町2126番地1", "url": "https://www.kaigokensaku.mhlw.go.jp/32/index.php?action_kouhyou_detail_004_kani=true&JigyosyoCd=3270600517-00&ServiceCd=320&Type=search", "url2": null }, "geometry": { "type": "Point", "coordinates": [ 132.209745490096481, 34.999758335020367 ] } },
{ "type": "Feature", "properties": { "内容": "グループホーム　とぎしの家【認知症対応型共同生活介護】島根県雲南市大東町東阿用８３番地１", "url": "https://www.kaigokensaku.mhlw.go.jp/32/index.php?action_kouhyou_detail_004_kani=true&JigyosyoCd=3271400172-00&ServiceCd=320&Type=search", "url2": "http://www.aozora-fukushi.jp/" }, "geometry": { "type": "Point", "coordinates": [ 132.968439799999942, 35.3060774 ] } },
{ "type": "Feature", "properties": { "内容": "グループホーム雲南・ゆりさわ【認知症対応型共同生活介護】雲南市三刀屋町伊萱40-6", "url": "https://www.kaigokensaku.mhlw.go.jp/32/index.php?action_kouhyou_detail_004_kani=true&JigyosyoCd=3271500344-00&ServiceCd=320&Type=search", "url2": "http://amigo-shimane.jp" }, "geometry": { "type": "Point", "coordinates": [ 132.889403099999981, 35.3209237 ] } },
{ "type": "Feature", "properties": { "内容": "グループホームやわらぎ【認知症対応型共同生活介護】木次町里方８４－５３", "url": "https://www.kaigokensaku.mhlw.go.jp/32/index.php?action_kouhyou_detail_004_kani=true&JigyosyoCd=3291400137-00&ServiceCd=320&Type=search", "url2": "http://blog.canpan.info/ikiikiyawaragi/" }, "geometry": { "type": "Point", "coordinates": [ 132.90468809999993, 35.2970049 ] } },
{ "type": "Feature", "properties": { "内容": "グループホーム加茂の郷【認知症対応型共同生活介護】雲南市加茂町南加茂７０６－４", "url": "https://www.kaigokensaku.mhlw.go.jp/32/index.php?action_kouhyou_detail_004_kani=true&JigyosyoCd=3271400404-00&ServiceCd=320&Type=search", "url2": "ｓｙｓｔｅｍ＠ｕｎｎａｎｆｕｋｕｓｈｉ．ｊｐ" }, "geometry": { "type": "Point", "coordinates": [ 132.906515, 35.3334972 ] } },
{ "type": "Feature", "properties": { "内容": "グループホーム　加茂の杜【認知症対応型共同生活介護】雲南市加茂町南加茂706－12", "url": "https://www.kaigokensaku.mhlw.go.jp/32/index.php?action_kouhyou_detail_004_kani=true&JigyosyoCd=3291400095-00&ServiceCd=320&Type=search", "url2": "system＠unnanfukushi.jp" }, "geometry": { "type": "Point", "coordinates": [ 132.906515, 35.3334972 ] } },
{ "type": "Feature", "properties": { "内容": "グル－プホ－ム雲水屋【認知症対応型共同生活介護】島根県雲南市大東町養賀772-1", "url": "https://www.kaigokensaku.mhlw.go.jp/32/index.php?action_kouhyou_detail_004_kani=true&JigyosyoCd=3291400194-00&ServiceCd=320&Type=search", "url2": null }, "geometry": { "type": "Point", "coordinates": [ 132.949679899999978, 35.3299239 ] } },
{ "type": "Feature", "properties": { "内容": "グループホーム　亀嵩　蛍灯【認知症対応型共同生活介護】島根県仁多郡奥出雲町亀嵩443", "url": "https://www.kaigokensaku.mhlw.go.jp/32/index.php?action_kouhyou_detail_004_kani=true&JigyosyoCd=3291300063-00&ServiceCd=320&Type=search", "url2": "https://www.toukou-g.com/" }, "geometry": { "type": "Point", "coordinates": [ 133.0866355, 35.2253897 ] } },
{ "type": "Feature", "properties": { "内容": "グループホームよこたの郷【認知症対応型共同生活介護】島根県仁多郡奥出雲町下横田２７－１", "url": "https://www.kaigokensaku.mhlw.go.jp/32/index.php?action_kouhyou_detail_004_kani=true&JigyosyoCd=3271300133-00&ServiceCd=320&Type=search", "url2": "https://r.goope.jp/0896quality/" }, "geometry": { "type": "Point", "coordinates": [ 133.088697300000035, 35.177353 ] } },
{ "type": "Feature", "properties": { "内容": "グループホーム　あゆみの杜【認知症対応型共同生活介護】島根県飯石郡飯南町頓原1070番地", "url": "https://www.kaigokensaku.mhlw.go.jp/32/index.php?action_kouhyou_detail_004_kani=true&JigyosyoCd=3291500035-00&ServiceCd=320&Type=search", "url2": "ayumi@iinan‐net.jp" }, "geometry": { "type": "Point", "coordinates": [ 132.792841800000019, 35.0810092 ] } },
{ "type": "Feature", "properties": { "内容": "グループホームかわもと「あいあいの家」【認知症対応型共同生活介護】島根県邑智郡川本町川本376-4", "url": "https://www.kaigokensaku.mhlw.go.jp/32/index.php?action_kouhyou_detail_004_kani=true&JigyosyoCd=3271800454-00&ServiceCd=320&Type=search", "url2": "http://www.k-jinju.or.jp/" }, "geometry": { "type": "Point", "coordinates": [ 132.496037399999977, 34.9916423 ] } },
{ "type": "Feature", "properties": { "内容": "グループホームふくろうの森【認知症対応型共同生活介護】邑智郡川本町川下1319-15", "url": "https://www.kaigokensaku.mhlw.go.jp/32/index.php?action_kouhyou_detail_004_kani=true&JigyosyoCd=3291800013-00&ServiceCd=320&Type=search", "url2": null }, "geometry": { "type": "Point", "coordinates": [ 132.479733300000021, 34.9772826 ] } },
{ "type": "Feature", "properties": { "内容": "グループホーム　マホロバの里【認知症対応型共同生活介護】島根県邑智郡美郷町長藤745番地5", "url": "https://www.kaigokensaku.mhlw.go.jp/32/index.php?action_kouhyou_detail_004_kani=true&JigyosyoCd=3271800397-00&ServiceCd=320&Type=search", "url2": "http://www.kaigonet.net/agoukai/" }, "geometry": { "type": "Point", "coordinates": [ 132.6313146, 35.0120042 ] } },
{ "type": "Feature", "properties": { "内容": "グループホームあすなろ【認知症対応型共同生活介護】島根県邑智郡邑南町山田76-2", "url": "https://www.kaigokensaku.mhlw.go.jp/32/index.php?action_kouhyou_detail_004_kani=true&JigyosyoCd=3271800546-00&ServiceCd=320&Type=search", "url2": "http://tokuyu-kai.sakura.ne.jp" }, "geometry": { "type": "Point", "coordinates": [ 132.539956553967244, 34.860663972007103 ] } },
{ "type": "Feature", "properties": { "内容": "グループホーム　悠心彩【認知症対応型共同生活介護】島根県鹿足郡津和野町河村506-3", "url": "https://www.kaigokensaku.mhlw.go.jp/32/index.php?action_kouhyou_detail_004_kani=true&JigyosyoCd=3272100268-00&ServiceCd=320&Type=search", "url2": "http://www.hori-kk.co.jp/about-bk/kaigo/" }, "geometry": { "type": "Point", "coordinates": [ 131.821106699999973, 34.5454308 ] } },
{ "type": "Feature", "properties": { "内容": "はるひ苑津和野【認知症対応型共同生活介護】鹿足郡津和野町寺田67番2", "url": "https://www.kaigokensaku.mhlw.go.jp/32/index.php?action_kouhyou_detail_004_kani=true&JigyosyoCd=3272100284-00&ServiceCd=320&Type=search", "url2": "http://www.haruhi-fs.com/" }, "geometry": { "type": "Point", "coordinates": [ 131.7749933, 34.4812419 ] } },
{ "type": "Feature", "properties": { "内容": "グループホーム悠心彩【認知症対応型共同生活介護】島根県鹿足郡津和野町河村506-3", "url": "https://www.kaigokensaku.mhlw.go.jp/32/index.php?action_kouhyou_detail_004_kani=true&JigyosyoCd=3292100066-00&ServiceCd=320&Type=search", "url2": "https://llc-grandlife.com" }, "geometry": { "type": "Point", "coordinates": [ 131.821039399999989, 34.5454416 ] } },
{ "type": "Feature", "properties": { "内容": "グループホームあさくら【認知症対応型共同生活介護】島根県鹿足郡吉賀町朝倉７１２", "url": "https://www.kaigokensaku.mhlw.go.jp/32/index.php?action_kouhyou_detail_004_kani=true&JigyosyoCd=3272100243-00&ServiceCd=320&Type=search", "url2": "http://yoshika-shakyo.jp/" }, "geometry": { "type": "Point", "coordinates": [ 131.90079460000004, 34.3718412 ] } },
{ "type": "Feature", "properties": { "内容": "グループホーム諏訪苑【認知症対応型共同生活介護】隠岐郡海士町大字海士３９６４", "url": "https://www.kaigokensaku.mhlw.go.jp/32/index.php?action_kouhyou_detail_004_kani=true&JigyosyoCd=3272200472-00&ServiceCd=320&Type=search", "url2": "https://www.amasyakyo.com/" }, "geometry": { "type": "Point", "coordinates": [ 133.092951, 36.0981988 ] } },
{ "type": "Feature", "properties": { "内容": "グループホームさくら荘【認知症対応型共同生活介護】隠岐郡隠岐の島町郡５８２－１", "url": "https://www.kaigokensaku.mhlw.go.jp/32/index.php?action_kouhyou_detail_004_kani=true&JigyosyoCd=3292200023-00&ServiceCd=320&Type=search", "url2": "http://www.geocities.jp/oki_atagokai/sakurasou/sakura1.html" }, "geometry": { "type": "Point", "coordinates": [ 133.2495834, 36.2839603 ] } },
{ "type": "Feature", "properties": { "内容": "グループホームいこいの家【認知症対応型共同生活介護】隠岐郡隠岐の島町栄町１０７６－１", "url": "https://www.kaigokensaku.mhlw.go.jp/32/index.php?action_kouhyou_detail_004_kani=true&JigyosyoCd=3272200266-00&ServiceCd=320&Type=search", "url2": "http://www.kyousei.gr.jp/" }, "geometry": { "type": "Point", "coordinates": [ 133.325944, 36.215238 ] } },
{ "type": "Feature", "properties": { "内容": "グループホームやすらぎの家【認知症対応型共同生活介護】隠岐郡隠岐の島町城北町533－3", "url": "https://www.kaigokensaku.mhlw.go.jp/32/index.php?action_kouhyou_detail_004_kani=true&JigyosyoCd=3272200555-00&ServiceCd=320&Type=search", "url2": "http://www.kyousei.gr.jp/" }, "geometry": { "type": "Point", "coordinates": [ 133.313145399999939, 36.2172429 ] } },
{ "type": "Feature", "properties": { "内容": "隠岐の島町認知症高齢者グループホーム　みのりの家【認知症対応型共同生活介護】都万2472-3", "url": "https://www.kaigokensaku.mhlw.go.jp/32/index.php?action_kouhyou_detail_004_kani=true&JigyosyoCd=3292200049-00&ServiceCd=320&Type=search", "url2": "https://www.takatakai.com/" }, "geometry": { "type": "Point", "coordinates": [ 133.234490899999969, 36.1955025 ] } },
{ "type": "Feature", "properties": { "内容": "グループホームさち【認知症対応型共同生活介護】隠岐郡隠岐の島町栄町５７２", "url": "https://www.kaigokensaku.mhlw.go.jp/32/index.php?action_kouhyou_detail_004_kani=true&JigyosyoCd=3272200548-00&ServiceCd=320&Type=search", "url2": null }, "geometry": { "type": "Point", "coordinates": [ 133.330263100000025, 36.2138299 ] } },
{ "type": "Feature", "properties": { "内容": "特定非営利活動法人ふるさと工房グループホーム和水屋【認知症対応型共同生活介護】島根県隠岐郡隠岐の島町中村森四、1542番１", "url": "https://www.kaigokensaku.mhlw.go.jp/32/index.php?action_kouhyou_detail_004_kani=true&JigyosyoCd=3272200597-00&ServiceCd=320&Type=search", "url2": "https://furusatokoubou.web.fc2.com/" }, "geometry": { "type": "Point", "coordinates": [ 133.306101600000034, 36.3174314 ] } }
]
}
