{
"type": "FeatureCollection",
"name": "geo_32_短期入所生活介護",
"crs": { "type": "name", "properties": { "name": "urn:ogc:def:crs:OGC:1.3:CRS84" } },
"features": [
{ "type": "Feature", "properties": { "内容": "社会福祉法人かしま福祉会　特別養護老人ホームあとむ苑【短期入所生活介護】島根県松江市鹿島町北講武８８５番地６", "url": "https://www.kaigokensaku.mhlw.go.jp/32/index.php?action_kouhyou_detail_004_kani=true&JigyosyoCd=3271190062-00&ServiceCd=210&Type=search", "url2": "http//wwww.kashima-fukusihkai.jp" }, "geometry": { "type": "Point", "coordinates": [ 133.0275474, 35.5230079 ] } },
{ "type": "Feature", "properties": { "内容": "地域密着型特別養護老人ホームあさひ乃苑【短期入所生活介護】島根県松江市古志町191-10地域密着型特別養護老人ホームあさひ乃苑", "url": "https://www.kaigokensaku.mhlw.go.jp/32/index.php?action_kouhyou_detail_004_kani=true&JigyosyoCd=3290100498-00&ServiceCd=210&Type=search", "url2": "http//www.mizuumi.jp" }, "geometry": { "type": "Point", "coordinates": [ 133.007275899999968, 35.4999961 ] } },
{ "type": "Feature", "properties": { "内容": "老人短期入所生活介護事業　詔光の里【短期入所生活介護】松江市山代町９３４－５", "url": "https://www.kaigokensaku.mhlw.go.jp/32/index.php?action_kouhyou_detail_004_kani=true&JigyosyoCd=3270100492-00&ServiceCd=210&Type=search", "url2": "http://www.korei.sirayurikai.or.jp" }, "geometry": { "type": "Point", "coordinates": [ 133.09536090000006, 35.4399581 ] } },
{ "type": "Feature", "properties": { "内容": "特別養護老人ホーム松楽苑【短期入所生活介護】松江市野原町417番地2", "url": "https://www.kaigokensaku.mhlw.go.jp/32/index.php?action_kouhyou_detail_004_kani=true&JigyosyoCd=3270190055-00&ServiceCd=210&Type=search", "url2": null }, "geometry": { "type": "Point", "coordinates": [ 133.13595620000001, 35.5161858 ] } },
{ "type": "Feature", "properties": { "内容": "あいかの里介護福祉サービスセンター通所介護部【短期入所生活介護】松江市岡本町１１３８－１", "url": "https://www.kaigokensaku.mhlw.go.jp/32/index.php?action_kouhyou_detail_004_kani=true&JigyosyoCd=3270101045-00&ServiceCd=210&Type=search", "url2": "http://kohoku-aikanosato.jp" }, "geometry": { "type": "Point", "coordinates": [ 132.950962600000025, 35.4806301 ] } },
{ "type": "Feature", "properties": { "内容": "特別養護老人ホームうぐいす苑【短期入所生活介護】松江市西法吉町36-1", "url": "https://www.kaigokensaku.mhlw.go.jp/32/index.php?action_kouhyou_detail_004_kani=true&JigyosyoCd=3270190048-00&ServiceCd=210&Type=search", "url2": "http://www.mizuumi.jp" }, "geometry": { "type": "Point", "coordinates": [ 133.042727499999955, 35.4948228 ] } },
{ "type": "Feature", "properties": { "内容": "特別養護老人ホームすまいる苑【短期入所生活介護】松江市法吉町626-1", "url": "https://www.kaigokensaku.mhlw.go.jp/32/index.php?action_kouhyou_detail_004_kani=true&JigyosyoCd=3270190105-00&ServiceCd=210&Type=search", "url2": "http://www.mizuumi.jp" }, "geometry": { "type": "Point", "coordinates": [ 133.0463609, 35.492879099999989 ] } },
{ "type": "Feature", "properties": { "内容": "特別養護老人ホーム津田の里【短期入所生活介護】松江市西津田十丁目１９－５０", "url": "https://www.kaigokensaku.mhlw.go.jp/32/index.php?action_kouhyou_detail_004_kani=true&JigyosyoCd=3270190063-00&ServiceCd=210&Type=search", "url2": "https://www.tsudanosato.jp" }, "geometry": { "type": "Point", "coordinates": [ 133.079714700000068, 35.4528508 ] } },
{ "type": "Feature", "properties": { "内容": "特別養護老人ホーム東寿苑【短期入所生活介護】島根県松江市東出雲町出雲郷493", "url": "https://www.kaigokensaku.mhlw.go.jp/32/index.php?action_kouhyou_detail_004_kani=true&JigyosyoCd=3271190021-00&ServiceCd=210&Type=search", "url2": "http://www.so-unkai.com" }, "geometry": { "type": "Point", "coordinates": [ 133.127614, 35.432572268364389 ] } },
{ "type": "Feature", "properties": { "内容": "特別養護老人ホームゆめハウス【短期入所生活介護】松江市宍道町西来待2071-1", "url": "https://www.kaigokensaku.mhlw.go.jp/32/index.php?action_kouhyou_detail_004_kani=true&JigyosyoCd=3271190047-00&ServiceCd=210&Type=search", "url2": "http://www.s-lighthouse.jp" }, "geometry": { "type": "Point", "coordinates": [ 132.93597079999995, 35.4132222 ] } },
{ "type": "Feature", "properties": { "内容": "厚生センター八雲【短期入所生活介護】松江市上乃木7-1-28", "url": "https://www.kaigokensaku.mhlw.go.jp/32/index.php?action_kouhyou_detail_004_kani=true&JigyosyoCd=3270190014-00&ServiceCd=210&Type=search", "url2": "https://www.ssw.or.jp/kourei_yakumo_tankinyusyo/" }, "geometry": { "type": "Point", "coordinates": [ 133.0687408, 35.4453376 ] } },
{ "type": "Feature", "properties": { "内容": "ゆうなぎ短期入所生活介護事業所【短期入所生活介護】島根県松江市島根町大芦5707番地", "url": "https://www.kaigokensaku.mhlw.go.jp/32/index.php?action_kouhyou_detail_004_kani=true&JigyosyoCd=3271100160-00&ServiceCd=210&Type=search", "url2": "http://www.sanin-kateigakuin.jp/establishment/sener-yunagi_short.html" }, "geometry": { "type": "Point", "coordinates": [ 133.055865400000016, 35.5470808 ] } },
{ "type": "Feature", "properties": { "内容": "松江西津田ショートステイそよ風【短期入所生活介護】西津田2丁目8-10", "url": "https://www.kaigokensaku.mhlw.go.jp/32/index.php?action_kouhyou_detail_004_kani=true&JigyosyoCd=3270104338-00&ServiceCd=210&Type=search", "url2": "https://corp.sykz.co.jp/" }, "geometry": { "type": "Point", "coordinates": [ 133.076250704368562, 35.460709342838285 ] } },
{ "type": "Feature", "properties": { "内容": "短期入所生活介護事業所　大野の郷【短期入所生活介護】島根県松江市大野町167", "url": "https://www.kaigokensaku.mhlw.go.jp/32/index.php?action_kouhyou_detail_004_kani=true&JigyosyoCd=3270101631-00&ServiceCd=210&Type=search", "url2": "http://oono167.jp/" }, "geometry": { "type": "Point", "coordinates": [ 132.918988399999989, 35.4724857 ] } },
{ "type": "Feature", "properties": { "内容": "特別養護老人ホームやくも光陽の里【短期入所生活介護】島根県松江市八雲町東岩坂８０６番地", "url": "https://www.kaigokensaku.mhlw.go.jp/32/index.php?action_kouhyou_detail_004_kani=true&JigyosyoCd=3271190039-00&ServiceCd=210&Type=search", "url2": "http://www.yakumo-fukushikai.com/" }, "geometry": { "type": "Point", "coordinates": [ 133.09943, 35.414228 ] } },
{ "type": "Feature", "properties": { "内容": "特別養護老人ホーム明翔苑【短期入所生活介護】松江市西浜佐陀町1399-34", "url": "https://www.kaigokensaku.mhlw.go.jp/32/index.php?action_kouhyou_detail_004_kani=true&JigyosyoCd=3270190113-00&ServiceCd=210&Type=search", "url2": "http://www.houshinkai-s.or.jp" }, "geometry": { "type": "Point", "coordinates": [ 132.993447400000036, 35.4764013 ] } },
{ "type": "Feature", "properties": { "内容": "(介護予防)短期入所生活介護　陽溜の郷【短期入所生活介護】島根県松江市馬潟町81-1", "url": "https://www.kaigokensaku.mhlw.go.jp/32/index.php?action_kouhyou_detail_004_kani=true&JigyosyoCd=3270103413-00&ServiceCd=210&Type=search", "url2": "http://www.youkeien.or.jp" }, "geometry": { "type": "Point", "coordinates": [ 133.112394799999976, 35.443847800000043 ] } },
{ "type": "Feature", "properties": { "内容": "特別養護老人ホーム長命園【短期入所生活介護】松江市上乃木１０丁目５番２号", "url": "https://www.kaigokensaku.mhlw.go.jp/32/index.php?action_kouhyou_detail_004_kani=true&JigyosyoCd=3270190022-00&ServiceCd=210&Type=search", "url2": "https://tyoumeien.m-fukushi.org/" }, "geometry": { "type": "Point", "coordinates": [ 133.060172400000056, 35.4333389 ] } },
{ "type": "Feature", "properties": { "内容": "特別養護老人ホーム　コーポ上口【短期入所生活介護】松江市古志原６丁目８番１０号", "url": "https://www.kaigokensaku.mhlw.go.jp/32/index.php?action_kouhyou_detail_004_kani=true&JigyosyoCd=3270190030-00&ServiceCd=210&Type=search", "url2": "http://kamiguchifukushikai.jp/" }, "geometry": { "type": "Point", "coordinates": [ 133.078976499999953, 35.4409575 ] } },
{ "type": "Feature", "properties": { "内容": "特別養護老人ホーム　美保の里【短期入所生活介護】松江市美保関町片江79番地", "url": "https://www.kaigokensaku.mhlw.go.jp/32/index.php?action_kouhyou_detail_004_kani=true&JigyosyoCd=3271190054-00&ServiceCd=210&Type=search", "url2": "https://www.fujimikai.jp" }, "geometry": { "type": "Point", "coordinates": [ 133.183201899999972, 35.5587936 ] } },
{ "type": "Feature", "properties": { "内容": "特別養護老人ホーム福寿草【短期入所生活介護】浜田市治和町４０番地５", "url": "https://www.kaigokensaku.mhlw.go.jp/32/index.php?action_kouhyou_detail_004_kani=true&JigyosyoCd=3270700911-00&ServiceCd=210&Type=search", "url2": "http://fukujyusou-kaigo.sakura.ne.jp" }, "geometry": { "type": "Point", "coordinates": [ 132.021519399999988, 34.8557145 ] } },
{ "type": "Feature", "properties": { "内容": "岡見ショートステイ【短期入所生活介護】島根県浜田市三隅町岡見700", "url": "https://www.kaigokensaku.mhlw.go.jp/32/index.php?action_kouhyou_detail_004_kani=true&JigyosyoCd=3271900296-00&ServiceCd=210&Type=search", "url2": null }, "geometry": { "type": "Point", "coordinates": [ 131.923678, 34.7714726 ] } },
{ "type": "Feature", "properties": { "内容": "特別養護老人ホーム　ロング・レン【短期入所生活介護】長沢町1428番地6特別養護老人ホーム　ロング・レン", "url": "https://www.kaigokensaku.mhlw.go.jp/32/index.php?action_kouhyou_detail_004_kani=true&JigyosyoCd=3270701232-00&ServiceCd=210&Type=search", "url2": "http://mizusumikai.jp/" }, "geometry": { "type": "Point", "coordinates": [ 132.096275800000058, 34.9138679 ] } },
{ "type": "Feature", "properties": { "内容": "短期入所生活介護事業所かなぎ園【短期入所生活介護】島根県浜田市金城町七条イ１０４６番地５", "url": "https://www.kaigokensaku.mhlw.go.jp/32/index.php?action_kouhyou_detail_004_kani=true&JigyosyoCd=3270700762-00&ServiceCd=210&Type=search", "url2": "http://kanagi-fukushikai.com/" }, "geometry": { "type": "Point", "coordinates": [ 132.153003300000023, 34.8725617 ] } },
{ "type": "Feature", "properties": { "内容": "特別養護老人ホーム　偕生園【短期入所生活介護】島根県浜田市黒川町196-1", "url": "https://www.kaigokensaku.mhlw.go.jp/32/index.php?action_kouhyou_detail_004_kani=true&JigyosyoCd=3270790011-00&ServiceCd=210&Type=search", "url2": "http://www.ssw.or.jp/korei_kaisei/" }, "geometry": { "type": "Point", "coordinates": [ 132.096804, 34.8979723 ] } },
{ "type": "Feature", "properties": { "内容": "指定短期入所生活介護事業所・美川苑【短期入所生活介護】浜田市内村町365番地7", "url": "https://www.kaigokensaku.mhlw.go.jp/32/index.php?action_kouhyou_detail_004_kani=true&JigyosyoCd=3270700168-00&ServiceCd=210&Type=search", "url2": "http://www.mikawaen.com" }, "geometry": { "type": "Point", "coordinates": [ 132.049787199999969, 34.8531092 ] } },
{ "type": "Feature", "properties": { "内容": "弥栄福祉会　弥栄苑事業所【短期入所生活介護】浜田市弥栄町木都賀イ５３９－１", "url": "https://www.kaigokensaku.mhlw.go.jp/32/index.php?action_kouhyou_detail_004_kani=true&JigyosyoCd=3271900072-00&ServiceCd=210&Type=search", "url2": "http://www.yasaka-fukushikai.com/" }, "geometry": { "type": "Point", "coordinates": [ 132.072175799999968, 34.7664513 ] } },
{ "type": "Feature", "properties": { "内容": "ショートステイたんぽぽ【短期入所生活介護】浜田市長浜町1900", "url": "https://www.kaigokensaku.mhlw.go.jp/32/index.php?action_kouhyou_detail_004_kani=true&JigyosyoCd=3270700366-00&ServiceCd=210&Type=search", "url2": "http://www.tanpoponosato.com" }, "geometry": { "type": "Point", "coordinates": [ 132.0376986, 34.8675797 ] } },
{ "type": "Feature", "properties": { "内容": "ユニット型特別養護老人ホームなのはな園【短期入所生活介護】島根県出雲市斐川町上直江1829－１", "url": "https://www.kaigokensaku.mhlw.go.jp/32/index.php?action_kouhyou_detail_004_kani=true&JigyosyoCd=3270490083-00&ServiceCd=210&Type=search", "url2": "http://www.s-lighthouse.jp" }, "geometry": { "type": "Point", "coordinates": [ 132.811314, 35.3778265 ] } },
{ "type": "Feature", "properties": { "内容": "特別養護老人ホーム　サテライトおやま【短期入所生活介護】島根県出雲市小山町456-1", "url": "https://www.kaigokensaku.mhlw.go.jp/32/index.php?action_kouhyou_detail_004_kani=true&JigyosyoCd=3270402633-00&ServiceCd=210&Type=search", "url2": "http//www.ssw.or.jp" }, "geometry": { "type": "Point", "coordinates": [ 132.738004766934182, 35.372998925850275 ] } },
{ "type": "Feature", "properties": { "内容": "特別養護老人ホーム薫風園【短期入所生活介護】島根県大津町3620番地１", "url": "https://www.kaigokensaku.mhlw.go.jp/32/index.php?action_kouhyou_detail_004_kani=true&JigyosyoCd=3270402880-00&ServiceCd=210&Type=search", "url2": "http://www.izumo-minami.jp/kunpuen/" }, "geometry": { "type": "Point", "coordinates": [ 132.7778902, 35.3555371 ] } },
{ "type": "Feature", "properties": { "内容": "みどりの郷湖陵【短期入所生活介護】出雲市湖陵町三部1231-1", "url": "https://www.kaigokensaku.mhlw.go.jp/32/index.php?action_kouhyou_detail_004_kani=true&JigyosyoCd=3271600045-00&ServiceCd=210&Type=search", "url2": null }, "geometry": { "type": "Point", "coordinates": [ 132.674052599999982, 35.3166586 ] } },
{ "type": "Feature", "properties": { "内容": "短期入所生活介護事業所　かんべの里【短期入所生活介護】島根県出雲市斐川町名島93番地2", "url": "https://www.kaigokensaku.mhlw.go.jp/32/index.php?action_kouhyou_detail_004_kani=true&JigyosyoCd=3271690079-00&ServiceCd=210&Type=search", "url2": "http//www.taiyounosato.or.jp" }, "geometry": { "type": "Point", "coordinates": [ 132.785083100000065, 35.3771459 ] } },
{ "type": "Feature", "properties": { "内容": "みどりの郷出雲【短期入所生活介護】島根県出雲市所原町２７１５－１", "url": "https://www.kaigokensaku.mhlw.go.jp/32/index.php?action_kouhyou_detail_004_kani=true&JigyosyoCd=3270400157-00&ServiceCd=210&Type=search", "url2": null }, "geometry": { "type": "Point", "coordinates": [ 132.761801500000047, 35.2988943 ] } },
{ "type": "Feature", "properties": { "内容": "特別養護老人ホーム　いなさ園　短期入所生活介護事業所【短期入所生活介護】島根県出雲市大社町杵築西１６４３番地２", "url": "https://www.kaigokensaku.mhlw.go.jp/32/index.php?action_kouhyou_detail_004_kani=true&JigyosyoCd=3271690038-00&ServiceCd=210&Type=search", "url2": "http://www.kidukikai.or.jp" }, "geometry": { "type": "Point", "coordinates": [ 132.678423800000019, 35.3856095 ] } },
{ "type": "Feature", "properties": { "内容": "特別養護老人ホームみせんの里【短期入所生活介護】出雲市大社町遙堪65番地2", "url": "https://www.kaigokensaku.mhlw.go.jp/32/index.php?action_kouhyou_detail_004_kani=true&JigyosyoCd=3270490059-00&ServiceCd=210&Type=search", "url2": "http://www.kidukikai.or.jp" }, "geometry": { "type": "Point", "coordinates": [ 132.7186, 35.3938704 ] } },
{ "type": "Feature", "properties": { "内容": "やまゆり短期入所事業所【短期入所生活介護】島根県出雲市佐田町一窪田1961-5", "url": "https://www.kaigokensaku.mhlw.go.jp/32/index.php?action_kouhyou_detail_004_kani=true&JigyosyoCd=3270401353-00&ServiceCd=210&Type=search", "url2": "http://www/.izumo-yamayuri" }, "geometry": { "type": "Point", "coordinates": [ 132.6715034, 35.2338617 ] } },
{ "type": "Feature", "properties": { "内容": "特別養護老人ホームひまわり園【短期入所生活介護】出雲市神西沖町2513-4", "url": "https://www.kaigokensaku.mhlw.go.jp/32/index.php?action_kouhyou_detail_004_kani=true&JigyosyoCd=3270490026-00&ServiceCd=210&Type=search", "url2": "http://w-himawari.jp" }, "geometry": { "type": "Point", "coordinates": [ 132.680765163090541, 35.336497391089075 ] } },
{ "type": "Feature", "properties": { "内容": "清流園短期入所生活介護事業所【短期入所生活介護】出雲市大津町3529番地", "url": "https://www.kaigokensaku.mhlw.go.jp/32/index.php?action_kouhyou_detail_004_kani=true&JigyosyoCd=3270400173-00&ServiceCd=210&Type=search", "url2": "http://www.seiryuuen.com/" }, "geometry": { "type": "Point", "coordinates": [ 132.783739400000059, 35.3592841 ] } },
{ "type": "Feature", "properties": { "内容": "清流園　地域密着型短期入所生活介護事業所【短期入所生活介護】島根県出雲市大津町3529番地", "url": "https://www.kaigokensaku.mhlw.go.jp/32/index.php?action_kouhyou_detail_004_kani=true&JigyosyoCd=3270402963-00&ServiceCd=210&Type=search", "url2": "http://www.seiryuuen.com/" }, "geometry": { "type": "Point", "coordinates": [ 132.780781100000013, 35.368594 ] } },
{ "type": "Feature", "properties": { "内容": "特別養護老人ホーム潮風苑【短期入所生活介護】島根県出雲市多伎町小田50－3", "url": "https://www.kaigokensaku.mhlw.go.jp/32/index.php?action_kouhyou_detail_004_kani=true&JigyosyoCd=3271690020-00&ServiceCd=210&Type=search", "url2": "http:www.takinosato.jp" }, "geometry": { "type": "Point", "coordinates": [ 132.626624, 35.2839598 ] } },
{ "type": "Feature", "properties": { "内容": "特別養護老人ホーム　なのはな園【短期入所生活介護】出雲市斐川町上直江1829-1", "url": "https://www.kaigokensaku.mhlw.go.jp/32/index.php?action_kouhyou_detail_004_kani=true&JigyosyoCd=3271690046-00&ServiceCd=210&Type=search", "url2": "https://s-lighthouse.jp/" }, "geometry": { "type": "Point", "coordinates": [ 132.811314, 35.3778265 ] } },
{ "type": "Feature", "properties": { "内容": "特別養護老人ホーム天神【短期入所生活介護】出雲市天神町163-9", "url": "https://www.kaigokensaku.mhlw.go.jp/32/index.php?action_kouhyou_detail_004_kani=true&JigyosyoCd=3270490018-00&ServiceCd=210&Type=search", "url2": "https://www.ssw.or.jp/facilities/seniors/tenjin" }, "geometry": { "type": "Point", "coordinates": [ 132.739348028449939, 35.362103236176623 ] } },
{ "type": "Feature", "properties": { "内容": "もくもく苑短期入所生活介護事業所【短期入所生活介護】島根県出雲市矢野町845", "url": "https://www.kaigokensaku.mhlw.go.jp/32/index.php?action_kouhyou_detail_004_kani=true&JigyosyoCd=3270400421-00&ServiceCd=210&Type=search", "url2": "http://www.otuka-wel.jp" }, "geometry": { "type": "Point", "coordinates": [ 132.73560729999997, 35.3833578 ] } },
{ "type": "Feature", "properties": { "内容": "出雲ケアセンターそよ風【短期入所生活介護】島根県出雲市今市町８７６－９", "url": "https://www.kaigokensaku.mhlw.go.jp/32/index.php?action_kouhyou_detail_004_kani=true&JigyosyoCd=3270401254-00&ServiceCd=210&Type=search", "url2": "https://www.sykz.co.jp/" }, "geometry": { "type": "Point", "coordinates": [ 132.754537199999959, 35.3620773 ] } },
{ "type": "Feature", "properties": { "内容": "出雲市里方町795番地【短期入所生活介護】里方町795番地あかりの里高浜", "url": "https://www.kaigokensaku.mhlw.go.jp/32/index.php?action_kouhyou_detail_004_kani=true&JigyosyoCd=3270403045-00&ServiceCd=210&Type=search", "url2": "http://lush-care.jp/" }, "geometry": { "type": "Point", "coordinates": [ 132.7476752, 35.3907516 ] } },
{ "type": "Feature", "properties": { "内容": "万田の郷短期入所生活介護事業所【短期入所生活介護】出雲市万田町692-2", "url": "https://www.kaigokensaku.mhlw.go.jp/32/index.php?action_kouhyou_detail_004_kani=true&JigyosyoCd=3270300076-00&ServiceCd=210&Type=search", "url2": "http://mandanosato.jp/" }, "geometry": { "type": "Point", "coordinates": [ 132.784803300000021, 35.4437269 ] } },
{ "type": "Feature", "properties": { "内容": "万田の郷（新型）短期入所生活介護事業所【短期入所生活介護】島根県出雲市万田町538", "url": "https://www.kaigokensaku.mhlw.go.jp/32/index.php?action_kouhyou_detail_004_kani=true&JigyosyoCd=3270402484-00&ServiceCd=210&Type=search", "url2": "http://mandanosato.jp/" }, "geometry": { "type": "Point", "coordinates": [ 132.784133900000029, 35.4436769 ] } },
{ "type": "Feature", "properties": { "内容": "出雲サンホーム短期入所事業所【短期入所生活介護】島根県出雲市神西沖町１３１３", "url": "https://www.kaigokensaku.mhlw.go.jp/32/index.php?action_kouhyou_detail_004_kani=true&JigyosyoCd=3270403086-00&ServiceCd=210&Type=search", "url2": "https://www.keijukai.jp/" }, "geometry": { "type": "Point", "coordinates": [ 132.706808700000011, 35.3340986 ] } },
{ "type": "Feature", "properties": { "内容": "ショートステイ　サン・スマイル【短期入所生活介護】島根県出雲市神西沖町215-1", "url": "https://www.kaigokensaku.mhlw.go.jp/32/index.php?action_kouhyou_detail_004_kani=true&JigyosyoCd=3271600110-00&ServiceCd=210&Type=search", "url2": "https://www.keijukai.jp/" }, "geometry": { "type": "Point", "coordinates": [ 132.703400751769749, 35.332567734146281 ] } },
{ "type": "Feature", "properties": { "内容": "特別養護老人ホームるんびにぃ苑指定短期入所生活介護事業所【短期入所生活介護】出雲市園町字妻ノ神2606番地1", "url": "https://www.kaigokensaku.mhlw.go.jp/32/index.php?action_kouhyou_detail_004_kani=true&JigyosyoCd=3270300100-00&ServiceCd=210&Type=search", "url2": "lumbini-en.jp" }, "geometry": { "type": "Point", "coordinates": [ 132.855309600000027, 35.4506997 ] } },
{ "type": "Feature", "properties": { "内容": "介護複合施設まとい【短期入所生活介護】島根県益田市高津町イ２５５９番地１", "url": "https://www.kaigokensaku.mhlw.go.jp/32/index.php?action_kouhyou_detail_004_kani=true&JigyosyoCd=3270801107-00&ServiceCd=210&Type=search", "url2": "http://akatsuki-hohoemi.jp" }, "geometry": { "type": "Point", "coordinates": [ 131.8032055, 34.6869143 ] } },
{ "type": "Feature", "properties": { "内容": "益田市立特別養護老人ホーム美寿苑【短期入所生活介護】島根県益田市美都町都茂1871番地9", "url": "https://www.kaigokensaku.mhlw.go.jp/32/index.php?action_kouhyou_detail_004_kani=true&JigyosyoCd=3272090030-00&ServiceCd=210&Type=search", "url2": "masuda-shakyou.or.jp" }, "geometry": { "type": "Point", "coordinates": [ 131.98401290000001, 34.6671457 ] } },
{ "type": "Feature", "properties": { "内容": "匹見指定短期入所生活介護事業所【短期入所生活介護】島根県益田市匹見町匹見イ1208番地", "url": "https://www.kaigokensaku.mhlw.go.jp/32/index.php?action_kouhyou_detail_004_kani=true&JigyosyoCd=3270800604-00&ServiceCd=210&Type=search", "url2": "http://masuda-shakyou.or.jp/" }, "geometry": { "type": "Point", "coordinates": [ 132.013184099999989, 34.5739761 ] } },
{ "type": "Feature", "properties": { "内容": "特別養護老人ホーム雪舟園【短期入所生活介護】益田市かもしま北町7-3", "url": "https://www.kaigokensaku.mhlw.go.jp/32/index.php?action_kouhyou_detail_004_kani=true&JigyosyoCd=3270890019-00&ServiceCd=210&Type=search", "url2": "http://www.ssw.or.jp/house/sessyu/" }, "geometry": { "type": "Point", "coordinates": [ 131.831257612441959, 34.69544253864553 ] } },
{ "type": "Feature", "properties": { "内容": "万葉苑【短期入所生活介護】島根県益田市高津四丁目6番40号", "url": "https://www.kaigokensaku.mhlw.go.jp/32/index.php?action_kouhyou_detail_004_kani=true&JigyosyoCd=3270800075-00&ServiceCd=210&Type=search", "url2": "https://www.baijukai.jp/" }, "geometry": { "type": "Point", "coordinates": [ 131.812150699999961, 34.6867599 ] } },
{ "type": "Feature", "properties": { "内容": "くしろ宝寿苑【短期入所生活介護】島根県益田市久城町531番地", "url": "https://www.kaigokensaku.mhlw.go.jp/32/index.php?action_kouhyou_detail_004_kani=true&JigyosyoCd=3270800299-00&ServiceCd=210&Type=search", "url2": "https://www.baijukai.jp/" }, "geometry": { "type": "Point", "coordinates": [ 131.850564, 34.7012591 ] } },
{ "type": "Feature", "properties": { "内容": "ショートステイたかつ【短期入所生活介護】益田市高津1丁目7番11号", "url": "https://www.kaigokensaku.mhlw.go.jp/32/index.php?action_kouhyou_detail_004_kani=true&JigyosyoCd=3270800810-00&ServiceCd=210&Type=search", "url2": "http://www.kaneshima.or.jp/" }, "geometry": { "type": "Point", "coordinates": [ 131.826054800000065, 34.6852964 ] } },
{ "type": "Feature", "properties": { "内容": "湯の郷苑　短期入所生活介護【短期入所生活介護】大田市温泉津町上村４６１番地", "url": "https://www.kaigokensaku.mhlw.go.jp/32/index.php?action_kouhyou_detail_004_kani=true&JigyosyoCd=3271790010-00&ServiceCd=210&Type=search", "url2": "http://www.fukujikoukai.jp" }, "geometry": { "type": "Point", "coordinates": [ 132.349620800000025, 35.0698475 ] } },
{ "type": "Feature", "properties": { "内容": "短期入所生活介護事業所しおさい【短期入所生活介護】島根県大田市仁摩町仁万843番地", "url": "https://www.kaigokensaku.mhlw.go.jp/32/index.php?action_kouhyou_detail_004_kani=true&JigyosyoCd=3271700100-00&ServiceCd=210&Type=search", "url2": "http://www.shiosai.or.jp" }, "geometry": { "type": "Point", "coordinates": [ 132.403219799999988, 35.1537329 ] } },
{ "type": "Feature", "properties": { "内容": "短期入所生活介護事業所しおさい新館【短期入所生活介護】島根県大田市仁摩町仁万843番地", "url": "https://www.kaigokensaku.mhlw.go.jp/32/index.php?action_kouhyou_detail_004_kani=true&JigyosyoCd=3270500600-00&ServiceCd=210&Type=search", "url2": "http://www.shiosai.or.jp" }, "geometry": { "type": "Point", "coordinates": [ 132.402796010975607, 35.15342587925231 ] } },
{ "type": "Feature", "properties": { "内容": "特別養護老人ホーム眺峰園【短期入所生活介護】島根県大田市川合町吉永1025-1", "url": "https://www.kaigokensaku.mhlw.go.jp/32/index.php?action_kouhyou_detail_004_kani=true&JigyosyoCd=3270590015-00&ServiceCd=210&Type=search", "url2": "https://www.ssw.or.jp/facilities/seniors/chohoen" }, "geometry": { "type": "Point", "coordinates": [ 132.512003199999981, 35.1711364 ] } },
{ "type": "Feature", "properties": { "内容": "介護老人福祉施設　サンデイズ双葉園【短期入所生活介護】大田市鳥井町鳥井１８８１－１", "url": "https://www.kaigokensaku.mhlw.go.jp/32/index.php?action_kouhyou_detail_004_kani=true&JigyosyoCd=3270500170-00&ServiceCd=210&Type=search", "url2": null }, "geometry": { "type": "Point", "coordinates": [ 132.4854166, 35.2146537 ] } },
{ "type": "Feature", "properties": { "内容": "介護老人福祉設　ゆうイングさわらび【短期入所生活介護】大田市長久町土江55-2", "url": "https://www.kaigokensaku.mhlw.go.jp/32/index.php?action_kouhyou_detail_004_kani=true&JigyosyoCd=3270590049-00&ServiceCd=210&Type=search", "url2": "http://sawarabi.info/" }, "geometry": { "type": "Point", "coordinates": [ 132.477034099999969, 35.1951557 ] } },
{ "type": "Feature", "properties": { "内容": "介護老人福祉施設サンシルバーさわらび【短期入所生活介護】大田市長久町土江65-2", "url": "https://www.kaigokensaku.mhlw.go.jp/32/index.php?action_kouhyou_detail_004_kani=true&JigyosyoCd=3270590023-00&ServiceCd=210&Type=search", "url2": "http://sawarabi.info//" }, "geometry": { "type": "Point", "coordinates": [ 132.476499171078558, 35.195708470621234 ] } },
{ "type": "Feature", "properties": { "内容": "ケアステーション　ささゆり【短期入所生活介護】島根県大田市久利町行恒18-5", "url": "https://www.kaigokensaku.mhlw.go.jp/32/index.php?action_kouhyou_detail_004_kani=true&JigyosyoCd=3270500519-00&ServiceCd=210&Type=search", "url2": null }, "geometry": { "type": "Point", "coordinates": [ 132.48761920000004, 35.1755692 ] } },
{ "type": "Feature", "properties": { "内容": "しらさぎ苑　ショートステイ【短期入所生活介護】安来市古川町８２９－１", "url": "https://www.kaigokensaku.mhlw.go.jp/32/index.php?action_kouhyou_detail_004_kani=true&JigyosyoCd=3270200177-00&ServiceCd=210&Type=search", "url2": "http://yasugifukusikai.jp" }, "geometry": { "type": "Point", "coordinates": [ 133.197248700000046, 35.3759102 ] } },
{ "type": "Feature", "properties": { "内容": "特別養護老人ホーム　伯寿の郷【短期入所生活介護】島根県安来市伯太町安田1705番地", "url": "https://www.kaigokensaku.mhlw.go.jp/32/index.php?action_kouhyou_detail_004_kani=true&JigyosyoCd=3271290037-00&ServiceCd=210&Type=search", "url2": "http//www.hakuikai.jp" }, "geometry": { "type": "Point", "coordinates": [ 133.272943400000031, 35.3712065 ] } },
{ "type": "Feature", "properties": { "内容": "尼子苑【短期入所生活介護】島根県安来市広瀬町下山佐３３０番地２", "url": "https://www.kaigokensaku.mhlw.go.jp/32/index.php?action_kouhyou_detail_004_kani=true&JigyosyoCd=3271200069-00&ServiceCd=210&Type=search", "url2": "http://amago-taiyo.jp/" }, "geometry": { "type": "Point", "coordinates": [ 133.157243599999987, 35.349481599999983 ] } },
{ "type": "Feature", "properties": { "内容": "特別養護老人ホームやすぎの郷【短期入所生活介護】安来市安来町970-1", "url": "https://www.kaigokensaku.mhlw.go.jp/32/index.php?action_kouhyou_detail_004_kani=true&JigyosyoCd=3270290020-00&ServiceCd=210&Type=search", "url2": "http://www.sendankai.net/" }, "geometry": { "type": "Point", "coordinates": [ 133.253037100000029, 35.4337004 ] } },
{ "type": "Feature", "properties": { "内容": "特別養護老人ホーム　風の里　陽光苑【短期入所生活介護】江津市桜江町長谷２７２３番地２", "url": "https://www.kaigokensaku.mhlw.go.jp/32/index.php?action_kouhyou_detail_004_kani=true&JigyosyoCd=3271890075-00&ServiceCd=210&Type=search", "url2": "https://www.sakuraefukushikai.jp/" }, "geometry": { "type": "Point", "coordinates": [ 132.270144800000025, 34.9219936 ] } },
{ "type": "Feature", "properties": { "内容": "白寿園【短期入所生活介護】江津市江津町1110", "url": "https://www.kaigokensaku.mhlw.go.jp/32/index.php?action_kouhyou_detail_004_kani=true&JigyosyoCd=3270690013-00&ServiceCd=210&Type=search", "url2": "http://hakujyuen.jp" }, "geometry": { "type": "Point", "coordinates": [ 132.217727800000034, 35.0132312 ] } },
{ "type": "Feature", "properties": { "内容": "短期入所生活介護　故郷－敬川【短期入所生活介護】江津市敬川町１番地２", "url": "https://www.kaigokensaku.mhlw.go.jp/32/index.php?action_kouhyou_detail_004_kani=true&JigyosyoCd=3270600475-00&ServiceCd=210&Type=search", "url2": "http://www.touki-kai.or.jp/" }, "geometry": { "type": "Point", "coordinates": [ 132.169955, 34.9727434 ] } },
{ "type": "Feature", "properties": { "内容": "短期入所施設特別養護老人ホームさくら苑さくらんぼの家【短期入所生活介護】雲南市木次町東日登345番地1", "url": "https://www.kaigokensaku.mhlw.go.jp/32/index.php?action_kouhyou_detail_004_kani=true&JigyosyoCd=3271400552-00&ServiceCd=210&Type=search", "url2": "www.sakurasaku-home.info/" }, "geometry": { "type": "Point", "coordinates": [ 132.92538060000004, 35.2791994 ] } },
{ "type": "Feature", "properties": { "内容": "特別養護老人ホーム笑寿苑【短期入所生活介護】雲南市加茂町加茂中915", "url": "https://www.kaigokensaku.mhlw.go.jp/32/index.php?action_kouhyou_detail_004_kani=true&JigyosyoCd=3271400362-00&ServiceCd=210&Type=search", "url2": "http://kamofukushikai.jp/" }, "geometry": { "type": "Point", "coordinates": [ 132.902731600000038, 35.3480315 ] } },
{ "type": "Feature", "properties": { "内容": "えがおの里短期入所生活介護事業所【短期入所生活介護】雲南市掛合町掛合８５３－１", "url": "https://www.kaigokensaku.mhlw.go.jp/32/index.php?action_kouhyou_detail_004_kani=true&JigyosyoCd=3271500294-00&ServiceCd=210&Type=search", "url2": "http//unnanshakyo.jp/" }, "geometry": { "type": "Point", "coordinates": [ 132.817493899999988, 35.1945366 ] } },
{ "type": "Feature", "properties": { "内容": "特別養護老人ホーム簸の上園【短期入所生活介護】島根県雲南市大東町中湯石88", "url": "https://www.kaigokensaku.mhlw.go.jp/32/index.php?action_kouhyou_detail_004_kani=true&JigyosyoCd=3271490017-00&ServiceCd=210&Type=search", "url2": "https://www.ssw.or.jp/facilities/seniors/hinokamien" }, "geometry": { "type": "Point", "coordinates": [ 132.991517, 35.3265034 ] } },
{ "type": "Feature", "properties": { "内容": "雲南ケアセンターそよ風【短期入所生活介護】島根県雲南市木次町里方1093‐119", "url": "https://www.kaigokensaku.mhlw.go.jp/32/index.php?action_kouhyou_detail_004_kani=true&JigyosyoCd=3271400701-00&ServiceCd=210&Type=search", "url2": "https://www.sykz.co.jp/" }, "geometry": { "type": "Point", "coordinates": [ 132.9113925, 35.3156451 ] } },
{ "type": "Feature", "properties": { "内容": "短期入所施設特別養護老人ホームさくら苑【短期入所生活介護】島根県雲南市木次町東日登345番地1", "url": "https://www.kaigokensaku.mhlw.go.jp/32/index.php?action_kouhyou_detail_004_kani=true&JigyosyoCd=3271400099-00&ServiceCd=210&Type=search", "url2": "www.sakurasaku-home.org/" }, "geometry": { "type": "Point", "coordinates": [ 132.92538890000003, 35.2792244 ] } },
{ "type": "Feature", "properties": { "内容": "社会福祉法人有隣会梅里苑短期入所生活介護事業所【短期入所生活介護】島根県雲南市三刀屋町三刀屋1326-8", "url": "https://www.kaigokensaku.mhlw.go.jp/32/index.php?action_kouhyou_detail_004_kani=true&JigyosyoCd=3271500096-00&ServiceCd=210&Type=search", "url2": "https://www.yurinkai.jp" }, "geometry": { "type": "Point", "coordinates": [ 132.886120900000037, 35.2923914 ] } },
{ "type": "Feature", "properties": { "内容": "社会福祉法人仁多福祉会奥出雲特別養護老人ホームあいサンホーム【短期入所生活介護】奥出雲町上阿井４２４－１", "url": "https://www.kaigokensaku.mhlw.go.jp/32/index.php?action_kouhyou_detail_004_kani=true&JigyosyoCd=3271390027-00&ServiceCd=210&Type=search", "url2": "http://cms.nitafukushikai.or.jp/admin" }, "geometry": { "type": "Point", "coordinates": [ 132.9461728, 35.1413632 ] } },
{ "type": "Feature", "properties": { "内容": "社会福祉法人よこた福祉会短期入所生活介護事業所【短期入所生活介護】奥出雲町稲原57番地1", "url": "https://www.kaigokensaku.mhlw.go.jp/32/index.php?action_kouhyou_detail_004_kani=true&JigyosyoCd=3271300067-00&ServiceCd=210&Type=search", "url2": "http://www.yokota.or.jp" }, "geometry": { "type": "Point", "coordinates": [ 133.09752990000004, 35.1763198 ] } },
{ "type": "Feature", "properties": { "内容": "まほろばの郷さんさん【短期入所生活介護】島根県仁多郡奥出雲町横田1010-3", "url": "https://www.kaigokensaku.mhlw.go.jp/32/index.php?action_kouhyou_detail_004_kani=true&JigyosyoCd=3271300190-00&ServiceCd=210&Type=search", "url2": null }, "geometry": { "type": "Point", "coordinates": [ 133.0941775, 35.1763836 ] } },
{ "type": "Feature", "properties": { "内容": "飯南町社会福祉協議会　短期入所生活介護事業所【短期入所生活介護】島根県飯石郡飯南町野萱１８３１番地２特別養護老人ホーム　あかぎの里", "url": "https://www.kaigokensaku.mhlw.go.jp/32/index.php?action_kouhyou_detail_004_kani=true&JigyosyoCd=3271500138-00&ServiceCd=210&Type=search", "url2": null }, "geometry": { "type": "Point", "coordinates": [ 132.742360100000042, 35.0300736 ] } },
{ "type": "Feature", "properties": { "内容": "短期入所生活介護事業所　愛寿園【短期入所生活介護】島根県飯石郡飯南町佐見４５番地", "url": "https://www.kaigokensaku.mhlw.go.jp/32/index.php?action_kouhyou_detail_004_kani=true&JigyosyoCd=3271500229-00&ServiceCd=210&Type=search", "url2": "http://www.uaikai.jp/" }, "geometry": { "type": "Point", "coordinates": [ 132.7775633, 35.0793482 ] } },
{ "type": "Feature", "properties": { "内容": "やすらぎ荘短期入所生活介護事業所【短期入所生活介護】邑智郡川本町因原５７０－１", "url": "https://www.kaigokensaku.mhlw.go.jp/32/index.php?action_kouhyou_detail_004_kani=true&JigyosyoCd=3271800132-00&ServiceCd=210&Type=search", "url2": "http://www.kawamotofukushikai.jp/" }, "geometry": { "type": "Point", "coordinates": [ 132.47313680000002, 34.9643923 ] } },
{ "type": "Feature", "properties": { "内容": "特別養護老人ホーム双葉園【短期入所生活介護】邑智郡美郷町滝原167番地1", "url": "https://www.kaigokensaku.mhlw.go.jp/32/index.php?action_kouhyou_detail_004_kani=true&JigyosyoCd=3271890026-00&ServiceCd=210&Type=search", "url2": "http://fish.miracle.ne.jp/f-wave/" }, "geometry": { "type": "Point", "coordinates": [ 132.6000752, 35.0514465 ] } },
{ "type": "Feature", "properties": { "内容": "指定介護老人福祉施設ハートランド双葉園【短期入所生活介護】邑智郡美郷町長藤745-5", "url": "https://www.kaigokensaku.mhlw.go.jp/32/index.php?action_kouhyou_detail_004_kani=true&JigyosyoCd=3271890034-00&ServiceCd=210&Type=search", "url2": null }, "geometry": { "type": "Point", "coordinates": [ 132.6313146, 35.0120042 ] } },
{ "type": "Feature", "properties": { "内容": "あさぎりたんきにゅうしょせいかつかいごじぎょうしょ【短期入所生活介護】邑智郡邑南町下口羽391番地2", "url": "https://www.kaigokensaku.mhlw.go.jp/32/index.php?action_kouhyou_detail_004_kani=true&JigyosyoCd=3271800215-00&ServiceCd=210&Type=search", "url2": "http://oonanfukushi.jp" }, "geometry": { "type": "Point", "coordinates": [ 132.665026099999977, 34.8815401 ] } },
{ "type": "Feature", "properties": { "内容": "ゆめあいの丘【短期入所生活介護】島根県邑智郡邑南町上亀谷２１８０－２", "url": "https://www.kaigokensaku.mhlw.go.jp/32/index.php?action_kouhyou_detail_004_kani=true&JigyosyoCd=3271800207-00&ServiceCd=210&Type=search", "url2": "http://oonanfukushikai.jp" }, "geometry": { "type": "Point", "coordinates": [ 132.515959800000019, 34.8449948 ] } },
{ "type": "Feature", "properties": { "内容": "特別養護老人ホーム　桃源の家【短期入所生活介護】中野574－3", "url": "https://www.kaigokensaku.mhlw.go.jp/32/index.php?action_kouhyou_detail_004_kani=true&JigyosyoCd=3271890083-00&ServiceCd=210&Type=search", "url2": "http://iwamisakurakai.or.jp" }, "geometry": { "type": "Point", "coordinates": [ 132.451140799999962, 34.8983744 ] } },
{ "type": "Feature", "properties": { "内容": "つわの指定短期入所生活介護事業所【短期入所生活介護】島根県鹿足郡津和野町後田ロ１２６番地", "url": "https://www.kaigokensaku.mhlw.go.jp/32/index.php?action_kouhyou_detail_004_kani=true&JigyosyoCd=3272100110-00&ServiceCd=210&Type=search", "url2": "https://silverleaf-tsuwano.com/" }, "geometry": { "type": "Point", "coordinates": [ 131.775634455819727, 34.467416879431262 ] } },
{ "type": "Feature", "properties": { "内容": "指定短期入所生活介護事業所星の里【短期入所生活介護】鹿足郡津和野町日原50番地2", "url": "https://www.kaigokensaku.mhlw.go.jp/32/index.php?action_kouhyou_detail_004_kani=true&JigyosyoCd=3272100078-00&ServiceCd=210&Type=search", "url2": "http://nichihara-hoshinosato.org" }, "geometry": { "type": "Point", "coordinates": [ 131.83901620000006, 34.542912 ] } },
{ "type": "Feature", "properties": { "内容": "指定短期入所生活介護事業所　とびのこ苑【短期入所生活介護】島根県鹿足郡吉賀町柿木村柿木８０番1", "url": "https://www.kaigokensaku.mhlw.go.jp/32/index.php?action_kouhyou_detail_004_kani=true&JigyosyoCd=3272100177-00&ServiceCd=210&Type=search", "url2": "http://www.yoshika-shakyo.jp" }, "geometry": { "type": "Point", "coordinates": [ 131.867463728836157, 34.436500483797808 ] } },
{ "type": "Feature", "properties": { "内容": "特別養護老人ホームみろく苑【短期入所生活介護】吉賀町六日市５８２番地１", "url": "https://www.kaigokensaku.mhlw.go.jp/32/index.php?action_kouhyou_detail_004_kani=true&JigyosyoCd=3272190038-00&ServiceCd=210&Type=search", "url2": "@yoshika-syakyo.ne.jp" }, "geometry": { "type": "Point", "coordinates": [ 131.9368217, 34.3554266 ] } },
{ "type": "Feature", "properties": { "内容": "諏訪苑短期入所生活介護【短期入所生活介護】海士町大字海士3964番地", "url": "https://www.kaigokensaku.mhlw.go.jp/32/index.php?action_kouhyou_detail_004_kani=true&JigyosyoCd=3272200167-00&ServiceCd=210&Type=search", "url2": "www.amasyakyo.com" }, "geometry": { "type": "Point", "coordinates": [ 133.092951, 36.0981988 ] } },
{ "type": "Feature", "properties": { "内容": "養護老人ホームみゆき荘【短期入所生活介護】島根県隠岐郡西ノ島町大字美田３０７８番地１９", "url": "https://www.kaigokensaku.mhlw.go.jp/32/index.php?action_kouhyou_detail_004_kani=true&JigyosyoCd=3272200134-00&ServiceCd=210&Type=search", "url2": "http://www.nishinoshima-fukushikai.com/" }, "geometry": { "type": "Point", "coordinates": [ 133.011198700000023, 36.1015959 ] } },
{ "type": "Feature", "properties": { "内容": "和光苑短期入所生活介護事業所【短期入所生活介護】西ノ島町大字宇賀６９７番地", "url": "https://www.kaigokensaku.mhlw.go.jp/32/index.php?action_kouhyou_detail_004_kani=true&JigyosyoCd=3272200175-00&ServiceCd=210&Type=search", "url2": "http://www.nishinoshima-fukushikai.com/" }, "geometry": { "type": "Point", "coordinates": [ 133.066246699999965, 36.1162322 ] } },
{ "type": "Feature", "properties": { "内容": "なごみ苑短期入所施設【短期入所生活介護】隠岐郡隠岐の島町郡425番5", "url": "https://www.kaigokensaku.mhlw.go.jp/32/index.php?action_kouhyou_detail_004_kani=true&JigyosyoCd=3272200258-00&ServiceCd=210&Type=search", "url2": "https://atagokai.jp/" }, "geometry": { "type": "Point", "coordinates": [ 133.2506416, 36.284327 ] } },
{ "type": "Feature", "properties": { "内容": "清松園短期入所施設【短期入所生活介護】島根県隠岐郡隠岐の島町郡５８８番地１", "url": "https://www.kaigokensaku.mhlw.go.jp/32/index.php?action_kouhyou_detail_004_kani=true&JigyosyoCd=3272200431-00&ServiceCd=210&Type=search", "url2": "https://atagokai.jp/" }, "geometry": { "type": "Point", "coordinates": [ 133.250102800000036, 36.2836659 ] } },
{ "type": "Feature", "properties": { "内容": "特別養護老人ホーム静和園短期入所施設【短期入所生活介護】隠岐の島町栄町1088番地", "url": "https://www.kaigokensaku.mhlw.go.jp/32/index.php?action_kouhyou_detail_004_kani=true&JigyosyoCd=3272200274-00&ServiceCd=210&Type=search", "url2": "http://www.kyousei.gr.jp/" }, "geometry": { "type": "Point", "coordinates": [ 133.3267495, 36.2147242 ] } },
{ "type": "Feature", "properties": { "内容": "鳴澤の里　短期入所事業所【短期入所生活介護】隠岐郡隠岐の島町都万１７９１-１", "url": "https://www.kaigokensaku.mhlw.go.jp/32/index.php?action_kouhyou_detail_004_kani=true&JigyosyoCd=3272200209-00&ServiceCd=210&Type=search", "url2": "https://www.takatakai.com" }, "geometry": { "type": "Point", "coordinates": [ 133.235854600000039, 36.1968524 ] } }
]
}
