{
"type": "FeatureCollection",
"name": "geo_32_1",
"crs": { "type": "name", "properties": { "name": "urn:ogc:def:crs:OGC:1.3:CRS84" } },
"features": [
{ "type": "Feature", "properties": { "ID": 3211323100130, "正式名称": "鹿島病院", "機関区分": 1, "都道府県コード": 32, "市区町村コード": 201, "所在地": "島根県松江市鹿島町名分２４３－１", "緯度": 35.525761, "経度": 133.007211, "url": "https://www.iryou.teikyouseido.mhlw.go.jp/znk-web/juminkanja/S2430/initialize?prefCd=32&kikanCd=1323100130&kikanKbn=1", "url2": "https://www.kashima-hosp.or.jp/", "内容": "鹿島病院【1:病院】【診療科目:内科_整形外科_リハビリテーション科】【一般病床数:60療養病床数:117精神病床数:0感染症病床数:0合計病床数:177】島根県松江市鹿島町名分２４３－１" }, "geometry": { "type": "Point", "coordinates": [ 133.007211, 35.525761 ] } },
{ "type": "Feature", "properties": { "ID": 3211325100150, "正式名称": "独立行政法人国立病院機構　松江医療センター", "機関区分": 1, "都道府県コード": 32, "市区町村コード": 201, "所在地": "島根県松江市上乃木５丁目８番３１号", "緯度": 35.450411, "経度": 133.064889, "url": "https://www.iryou.teikyouseido.mhlw.go.jp/znk-web/juminkanja/S2430/initialize?prefCd=32&kikanCd=1325100150&kikanKbn=1", "url2": "https://matsue.hosp.go.jp/", "内容": "独立行政法人国立病院機構　松江医療センター【1:病院】【診療科目:内科_脳神経内科_呼吸器内科_循環器内科_消化器内科_外科_呼吸器外科_整形外科_小児科_歯科_アレルギー科_リハビリテーション科_放射線科_麻酔科】【一般病床数:318療養病床数:0精神病床数:0感染症病床数:0合計病床数:324】島根県松江市上乃木５丁目８番３１号" }, "geometry": { "type": "Point", "coordinates": [ 133.064889, 35.450411 ] } },
{ "type": "Feature", "properties": { "ID": 3211325100280, "正式名称": "東部島根医療福祉センター", "機関区分": 1, "都道府県コード": 32, "市区町村コード": 201, "所在地": "島根県松江市東生馬町１５－１", "緯度": 35.494561, "経度": 133.030457, "url": "https://www.iryou.teikyouseido.mhlw.go.jp/znk-web/juminkanja/S2430/initialize?prefCd=32&kikanCd=1325100280&kikanKbn=1", "url2": "http://www.sw-shimasei.jp", "内容": "東部島根医療福祉センター【1:病院】【診療科目:内科_整形外科_小児科_脳神経小児科_耳鼻いんこう科_皮膚科_歯科_リハビリテーション科】【一般病床数:58療養病床数:40精神病床数:0感染症病床数:0合計病床数:98】島根県松江市東生馬町１５－１" }, "geometry": { "type": "Point", "coordinates": [ 133.030457, 35.494561 ] } },
{ "type": "Feature", "properties": { "ID": 3211325100440, "正式名称": "松江赤十字病院", "機関区分": 1, "都道府県コード": 32, "市区町村コード": 201, "所在地": "島根県松江市母衣町２００", "緯度": 35.470465, "経度": 133.057046, "url": "https://www.iryou.teikyouseido.mhlw.go.jp/znk-web/juminkanja/S2430/initialize?prefCd=32&kikanCd=1325100440&kikanKbn=1", "url2": "https://www.matsue.jrc.or.jp/", "内容": "松江赤十字病院【1:病院】【診療科目:内科_血液内科_糖尿病・内分泌内科_脳神経内科_呼吸器内科_循環器内科_消化器内科_腎臓内科_外科_脳神経外科_呼吸器外科_心臓血管外科_乳腺外科_整形外科_形成外科_小児科_産婦人科_眼科_頭頸部・耳鼻いんこう科_皮膚科_泌尿器科_精神科_歯科口腔外科_リハビリテーション科_放射線科_病理診断科_麻酔科】【一般病床数:0療養病床数:0精神病床数:0感染症病床数:0合計病床数:0】島根県松江市母衣町２００" }, "geometry": { "type": "Point", "coordinates": [ 133.057046, 35.470465 ] } },
{ "type": "Feature", "properties": { "ID": 3211325100600, "正式名称": "医療法人青葉会　松江青葉病院", "機関区分": 1, "都道府県コード": 32, "市区町村コード": 201, "所在地": "島根県松江市上乃木５丁目１番８号", "緯度": 35.452883, "経度": 133.061346, "url": "https://www.iryou.teikyouseido.mhlw.go.jp/znk-web/juminkanja/S2430/initialize?prefCd=32&kikanCd=1325100600&kikanKbn=1", "url2": "http://matsueaoba.or.jp", "内容": "医療法人青葉会　松江青葉病院【1:病院】【診療科目:精神科_心療内科】【一般病床数:0療養病床数:0精神病床数:300感染症病床数:0合計病床数:300】島根県松江市上乃木５丁目１番８号" }, "geometry": { "type": "Point", "coordinates": [ 133.061346, 35.452883 ] } },
{ "type": "Feature", "properties": { "ID": 3211325101290, "正式名称": "医療法人　仁風会　八雲病院", "機関区分": 1, "都道府県コード": 32, "市区町村コード": 201, "所在地": "島根県松江市大庭町１４６０－３", "緯度": 35.43782, "経度": 133.083858, "url": "https://www.iryou.teikyouseido.mhlw.go.jp/znk-web/juminkanja/S2430/initialize?prefCd=32&kikanCd=1325101290&kikanKbn=1", "url2": "http://www.yakumoho.net", "内容": "医療法人　仁風会　八雲病院【1:病院】【診療科目:精神科_神経科_心療内科】【一般病床数:0療養病床数:0精神病床数:149感染症病床数:0合計病床数:149】島根県松江市大庭町１４６０－３" }, "geometry": { "type": "Point", "coordinates": [ 133.083858, 35.43782 ] } },
{ "type": "Feature", "properties": { "ID": 3211325101580, "正式名称": "独立行政法人地域医療機能推進機構玉造病院", "機関区分": 1, "都道府県コード": 32, "市区町村コード": 201, "所在地": "島根県松江市玉湯町湯町１－２", "緯度": 35.431271, "経度": 133.017895, "url": "https://www.iryou.teikyouseido.mhlw.go.jp/znk-web/juminkanja/S2430/initialize?prefCd=32&kikanCd=1325101580&kikanKbn=1", "url2": "https://tamatsukuri.jcho.go.jp", "内容": "独立行政法人地域医療機能推進機構玉造病院【1:病院】【診療科目:内科_循環器内科_消化器内科_神経内科_整形外科_皮膚科_歯科_歯科口腔外科_リウマチ科_リハビリテーション科_麻酔科】【一般病床数:214療養病床数:0精神病床数:0感染症病床数:0合計病床数:214】島根県松江市玉湯町湯町１－２" }, "geometry": { "type": "Point", "coordinates": [ 133.017895, 35.431271 ] } },
{ "type": "Feature", "properties": { "ID": 3211325101610, "正式名称": "医療法人同仁会こなんホスピタル", "機関区分": 1, "都道府県コード": 32, "市区町村コード": 201, "所在地": "島根県松江市宍道町白石１２９番地１", "緯度": 35.414575, "経度": 132.925564, "url": "https://www.iryou.teikyouseido.mhlw.go.jp/znk-web/juminkanja/S2430/initialize?prefCd=32&kikanCd=1325101610&kikanKbn=1", "url2": "https://www.doujinkai.jp", "内容": "医療法人同仁会こなんホスピタル【1:病院】【診療科目:内科_神経内科_精神科_心療内科】【一般病床数:0療養病床数:0精神病床数:147感染症病床数:0合計病床数:147】島根県松江市宍道町白石１２９番地１" }, "geometry": { "type": "Point", "coordinates": [ 132.925564, 35.414575 ] } },
{ "type": "Feature", "properties": { "ID": 3211325101740, "正式名称": "医療法人　社団　創健会　松江記念病院", "機関区分": 1, "都道府県コード": 32, "市区町村コード": 201, "所在地": "島根県松江市上乃木三丁目４番１号", "緯度": 35.448544, "経度": 133.059023, "url": "https://www.iryou.teikyouseido.mhlw.go.jp/znk-web/juminkanja/S2430/initialize?prefCd=32&kikanCd=1325101740&kikanKbn=1", "url2": "https://www.souken-kai.or.jp", "内容": "医療法人　社団　創健会　松江記念病院【1:病院】【診療科目:内科_糖尿病内科_呼吸器内科_循環器内科_消化器内科_神経内科_禁煙外来_外科_消化器外科_肛門外科_整形外科_小児科_婦人科_皮膚科_歯科口腔外科_リハビリテーション科_放射線科_麻酔科】【一般病床数:61療養病床数:55精神病床数:0感染症病床数:0合計病床数:116】島根県松江市上乃木三丁目４番１号" }, "geometry": { "type": "Point", "coordinates": [ 133.059023, 35.448544 ] } },
{ "type": "Feature", "properties": { "ID": 3211325101870, "正式名称": "総合病院松江生協病院", "機関区分": 1, "都道府県コード": 32, "市区町村コード": 201, "所在地": "島根県松江市西津田８丁目８－８", "緯度": 35.454315, "経度": 133.067607, "url": "https://www.iryou.teikyouseido.mhlw.go.jp/znk-web/juminkanja/S2430/initialize?prefCd=32&kikanCd=1325101870&kikanKbn=1", "url2": "https://www.matsue-seikyo.jp/", "内容": "総合病院松江生協病院【1:病院】【診療科目:内科_脳神経内科_呼吸器内科_循環器内科_消化器内科_外科_脳神経外科_乳腺外科_肛門外科_整形外科_小児科_産婦人科_眼科_耳鼻いんこう科_皮膚科_泌尿器科_精神科_リハビリテーション科_放射線科_麻酔科】【一般病床数:311療養病床数:40精神病床数:0感染症病床数:0合計病床数:351】島根県松江市西津田８丁目８－８" }, "geometry": { "type": "Point", "coordinates": [ 133.067607, 35.454315 ] } },
{ "type": "Feature", "properties": { "ID": 3211325102200, "正式名称": "松江市立病院", "機関区分": 1, "都道府県コード": 32, "市区町村コード": 201, "所在地": "島根県松江市乃白町３２ー１", "緯度": 35.438666, "経度": 133.055415, "url": "https://www.iryou.teikyouseido.mhlw.go.jp/znk-web/juminkanja/S2430/initialize?prefCd=32&kikanCd=1325102200&kikanKbn=1", "url2": "https://www.matsue-cityhospital.jp/", "内容": "松江市立病院【1:病院】【診療科目:内科_糖尿病・内分泌内科_脳神経内科_呼吸器内科_循環器内科_消化器内科_腫瘍内科_外科_脳神経外科_呼吸器外科_心臓血管外科_消化器外科_乳腺・内分泌外科_整形外科_形成外科_小児科_産婦人科_眼科_耳鼻いんこう科_皮膚科_泌尿器科_精神科_歯科口腔外科_リハビリテーション科_放射線診断科_放射線治療科_病理診断科_救急科_麻酔科】【一般病床数:319療養病床数:0精神病床数:50感染症病床数:4合計病床数:373】島根県松江市乃白町３２ー１" }, "geometry": { "type": "Point", "coordinates": [ 133.055415, 35.438666 ] } },
{ "type": "Feature", "properties": { "ID": 3211325200180, "正式名称": "社会医療法人昌林会　安来第一病院", "機関区分": 1, "都道府県コード": 32, "市区町村コード": 206, "所在地": "島根県安来市安来町８９９－１", "緯度": 35.431625, "経度": 133.252245, "url": "https://www.iryou.teikyouseido.mhlw.go.jp/znk-web/juminkanja/S2430/initialize?prefCd=32&kikanCd=1325200180&kikanKbn=1", "url2": "https://www.syourinkai.or.jp/", "内容": "社会医療法人昌林会　安来第一病院【1:病院】【診療科目:内科_糖尿病・内分泌内科_呼吸器内科_循環器内科_消化器内科_腎臓内科_神経内科_緩和ケア内科_外科_脳神経外科_乳腺外科_整形外科_形成外科_小児科_皮膚科_泌尿器科_精神科_心療内科_リウマチ科_リハビリテーション科】【一般病床数:138療養病床数:46精神病床数:146感染症病床数:0合計病床数:330】島根県安来市安来町８９９－１" }, "geometry": { "type": "Point", "coordinates": [ 133.252245, 35.431625 ] } },
{ "type": "Feature", "properties": { "ID": 3211325200470, "正式名称": "安来市立病院", "機関区分": 1, "都道府県コード": 32, "市区町村コード": 206, "所在地": "島根県安来市広瀬町広瀬１９３１番地", "緯度": 35.370112, "経度": 133.177111, "url": "https://www.iryou.teikyouseido.mhlw.go.jp/znk-web/juminkanja/S2430/initialize?prefCd=32&kikanCd=1325200470&kikanKbn=1", "url2": "https://www.city.yasugi.shimane.jp/hospital/", "内容": "安来市立病院【1:病院】【診療科目:内科_糖尿病・内分泌内科_呼吸器内科_循環器内科_消化器内科_腎臓内科_神経内科_総合内科_外科_消化器外科_乳腺外科_整形外科_形成外科_小児科_婦人科_眼科_耳鼻いんこう科_皮膚科_泌尿器科_リハビリテーション科_放射線科_麻酔科】【一般病床数:102療養病床数:46精神病床数:0感染症病床数:0合計病床数:148】島根県安来市広瀬町広瀬１９３１番地" }, "geometry": { "type": "Point", "coordinates": [ 133.177111, 35.370112 ] } },
{ "type": "Feature", "properties": { "ID": 3211325300370, "正式名称": "雲南市立病院", "機関区分": 1, "都道府県コード": 32, "市区町村コード": 209, "所在地": "島根県雲南市大東町飯田９６番地１", "緯度": 35.323952, "経度": 132.959747, "url": "https://www.iryou.teikyouseido.mhlw.go.jp/znk-web/juminkanja/S2430/initialize?prefCd=32&kikanCd=1325300370&kikanKbn=1", "url2": "https://unnan-hp.jp/", "内容": "雲南市立病院【1:病院】【診療科目:内科_消化器内科_外科_脳神経外科_整形外科_小児科_産婦人科_眼科_耳鼻いんこう科_皮膚科_泌尿器科_精神科_歯科口腔外科_リハビリテーション科_放射線科_麻酔科】【一般病床数:193療養病床数:78精神病床数:0感染症病床数:4合計病床数:275】島根県雲南市大東町飯田９６番地１" }, "geometry": { "type": "Point", "coordinates": [ 132.959747, 35.323952 ] } },
{ "type": "Feature", "properties": { "ID": 3211325300660, "正式名称": "平成記念病院", "機関区分": 1, "都道府県コード": 32, "市区町村コード": 209, "所在地": "島根県雲南市三刀屋町三刀屋１２９４－１平成記念病院", "緯度": 35.292403, "経度": 132.884974, "url": "https://www.iryou.teikyouseido.mhlw.go.jp/znk-web/juminkanja/S2430/initialize?prefCd=32&kikanCd=1325300660&kikanKbn=1", "url2": "https://www.heisei-hosp.jp", "内容": "平成記念病院【1:病院】【診療科目:内科_呼吸器内科_循環器内科_消化器内科_腎臓内科_神経内科_外科_整形外科_婦人科_眼科_耳鼻いんこう科_皮膚科_泌尿器科_リハビリテーション科_放射線科】【一般病床数:60療養病床数:55精神病床数:0感染症病床数:0合計病床数:115】島根県雲南市三刀屋町三刀屋１２９４－１平成記念病院" }, "geometry": { "type": "Point", "coordinates": [ 132.884974, 35.292403 ] } },
{ "type": "Feature", "properties": { "ID": 3211325300790, "正式名称": "医療法人コスモ会　奥出雲コスモ病院", "機関区分": 1, "都道府県コード": 32, "市区町村コード": 209, "所在地": "島根県雲南市木次町里方１２７５－２", "緯度": 35.303748, "経度": 132.906995, "url": "https://www.iryou.teikyouseido.mhlw.go.jp/znk-web/juminkanja/S2430/initialize?prefCd=32&kikanCd=1325300790&kikanKbn=1", "url2": "http://okuizumocosmo-hp.or.jp", "内容": "医療法人コスモ会　奥出雲コスモ病院【1:病院】【診療科目:内科_神経内科_精神科_心療内科】【一般病床数:0療養病床数:0精神病床数:100感染症病床数:0合計病床数:100】島根県雲南市木次町里方１２７５－２" }, "geometry": { "type": "Point", "coordinates": [ 132.906995, 35.303748 ] } },
{ "type": "Feature", "properties": { "ID": 3211325300820, "正式名称": "飯南町立飯南病院", "機関区分": 1, "都道府県コード": 32, "市区町村コード": 386, "所在地": "島根県飯石郡飯南町頓原２０６０", "緯度": 35.079578, "経度": 132.781189, "url": "https://www.iryou.teikyouseido.mhlw.go.jp/znk-web/juminkanja/S2430/initialize?prefCd=32&kikanCd=1325300820&kikanKbn=1", "url2": null, "内容": "飯南町立飯南病院【1:病院】【診療科目:内科_外科_整形外科_小児科_産婦人科_眼科_精神科_心療内科_歯科口腔外科_リハビリテーション科】【一般病床数:48療養病床数:0精神病床数:0感染症病床数:0合計病床数:48】島根県飯石郡飯南町頓原２０６０" }, "geometry": { "type": "Point", "coordinates": [ 132.781189, 35.079578 ] } },
{ "type": "Feature", "properties": { "ID": 3211325300950, "正式名称": "町立奥出雲病院", "機関区分": 1, "都道府県コード": 32, "市区町村コード": 343, "所在地": "島根県仁多郡奥出雲町三成１６２２番地１", "緯度": 35.195842, "経度": 132.997022, "url": "https://www.iryou.teikyouseido.mhlw.go.jp/znk-web/juminkanja/S2430/initialize?prefCd=32&kikanCd=1325300950&kikanKbn=1", "url2": "https://www.okuizumo-hospital.jp/", "内容": "町立奥出雲病院【1:病院】【診療科目:内科_総合診療科_外科_整形外科_小児科_産婦人科_眼科_耳鼻いんこう科_皮膚科_泌尿器科_リハビリテーション科_麻酔科】【一般病床数:51療養病床数:47精神病床数:0感染症病床数:0合計病床数:98】島根県仁多郡奥出雲町三成１６２２番地１" }, "geometry": { "type": "Point", "coordinates": [ 132.997022, 35.195842 ] } },
{ "type": "Feature", "properties": { "ID": 3211325400300, "正式名称": "医療法人同仁会　海星病院", "機関区分": 1, "都道府県コード": 32, "市区町村コード": 203, "所在地": "島根県出雲市大津町３６５６－１", "緯度": 35.361006, "経度": 132.773392, "url": "https://www.iryou.teikyouseido.mhlw.go.jp/znk-web/juminkanja/S2430/initialize?prefCd=32&kikanCd=1325400300&kikanKbn=1", "url2": null, "内容": "医療法人同仁会　海星病院【1:病院】【診療科目:内科_神経内科_精神科】【一般病床数:0療養病床数:0精神病床数:166感染症病床数:0合計病床数:166】島根県出雲市大津町３６５６－１" }, "geometry": { "type": "Point", "coordinates": [ 132.773392, 35.361006 ] } },
{ "type": "Feature", "properties": { "ID": 3211325400430, "正式名称": "医療法人社団耕雲堂小林病院", "機関区分": 1, "都道府県コード": 32, "市区町村コード": 203, "所在地": "島根県出雲市今市町５１０", "緯度": 35.364718, "経度": 132.762151, "url": "https://www.iryou.teikyouseido.mhlw.go.jp/znk-web/juminkanja/S2430/initialize?prefCd=32&kikanCd=1325400430&kikanKbn=1", "url2": "kobayashihospital.com", "内容": "医療法人社団耕雲堂小林病院【1:病院】【診療科目:内科】【一般病床数:2療養病床数:48精神病床数:0感染症病床数:0合計病床数:50】島根県出雲市今市町５１０" }, "geometry": { "type": "Point", "coordinates": [ 132.762151, 35.364718 ] } },
{ "type": "Feature", "properties": { "ID": 3211325400690, "正式名称": "国立大学法人島根大学医学部附属病院", "機関区分": 1, "都道府県コード": 32, "市区町村コード": 203, "所在地": "島根県出雲市塩冶町８９ー１", "緯度": 35.351685, "経度": 132.747, "url": "https://www.iryou.teikyouseido.mhlw.go.jp/znk-web/juminkanja/S2430/initialize?prefCd=32&kikanCd=1325400690&kikanKbn=1", "url2": "https://www.med.shimane-u.ac.jp/hospital/", "内容": "国立大学法人島根大学医学部附属病院【1:病院】【診療科目:血液内科_脳神経内科_循環器内科_消化器内科_腎臓内科_肝臓内科_腫瘍内科_内分泌代謝内科，脳神経内科、膠原病内科，呼吸器・化学療法内科_脳神経外科_呼吸器外科_心臓血管外科_乳腺外科_整形外科_形成外科_肝・胆・膵外科，耳鼻咽喉科・頭頸部外科_小児科_小児外科_産科_婦人科_耳鼻咽喉科・頭頸部外科_皮膚科_泌尿器科_精神科神経科_歯科口腔外科_リハビリテーション科_放射線科_放射線治療科_病理診断科_臨床検査科_救急科_麻酔科_臨床検査科】【一般病床数:570療養病床数:0精神病床数:30感染症病床数:0合計病床数:600】島根県出雲市塩冶町８９ー１" }, "geometry": { "type": "Point", "coordinates": [ 132.747, 35.351685 ] } },
{ "type": "Feature", "properties": { "ID": 3211325400720, "正式名称": "出雲市立総合医療センター", "機関区分": 1, "都道府県コード": 32, "市区町村コード": 203, "所在地": "島根県出雲市灘分町６１３", "緯度": 35.429717, "経度": 132.823835, "url": "https://www.iryou.teikyouseido.mhlw.go.jp/znk-web/juminkanja/S2430/initialize?prefCd=32&kikanCd=1325400720&kikanKbn=1", "url2": "https://www.izumocity-hp.jp/", "内容": "出雲市立総合医療センター【1:病院】【診療科目:内科_循環器内科_消化器内科_神経内科_外科_脳神経外科_整形外科_小児科_産婦人科_眼科_耳鼻いんこう科_皮膚科_泌尿器科_精神科_リハビリテーション科_放射線科】【一般病床数:147療養病床数:52精神病床数:0感染症病床数:0合計病床数:199】島根県出雲市灘分町６１３" }, "geometry": { "type": "Point", "coordinates": [ 132.823835, 35.429717 ] } },
{ "type": "Feature", "properties": { "ID": 3211325401150, "正式名称": "出雲市民リハビリテーション病院", "機関区分": 1, "都道府県コード": 32, "市区町村コード": 203, "所在地": "島根県出雲市知井宮町２３８", "緯度": 35.343597, "経度": 132.725464, "url": "https://www.iryou.teikyouseido.mhlw.go.jp/znk-web/juminkanja/S2430/initialize?prefCd=32&kikanCd=1325401150&kikanKbn=1", "url2": "https://izumo-hewcoop.jp/izumoriha-hp", "内容": "出雲市民リハビリテーション病院【1:病院】【診療科目:内科_小児科_リハビリテーション科】【一般病床数:58療養病床数:58精神病床数:0感染症病床数:0合計病床数:116】島根県出雲市知井宮町２３８" }, "geometry": { "type": "Point", "coordinates": [ 132.725464, 35.343597 ] } },
{ "type": "Feature", "properties": { "ID": 3211325401310, "正式名称": "島根県立中央病院", "機関区分": 1, "都道府県コード": 32, "市区町村コード": 203, "所在地": "島根県出雲市姫原四丁目１番地１", "緯度": 35.374817, "経度": 132.754717, "url": "https://www.iryou.teikyouseido.mhlw.go.jp/znk-web/juminkanja/S2430/initialize?prefCd=32&kikanCd=1325401310&kikanKbn=1", "url2": "https://www.spch.izumo.shimane.jp", "内容": "島根県立中央病院【1:病院】【診療科目:内科_呼吸器内科_循環器内科_消化器内科_神経内科_外科_脳神経外科_呼吸器外科_心臓血管外科_消化器外科_整形外科_形成外科_小児科_産婦人科_眼科_耳鼻いんこう科_皮膚科_泌尿器科_精神科_歯科_アレルギー科_リハビリテーション科_放射線科_病理診断科_麻酔科】【一般病床数:520療養病床数:0精神病床数:28感染症病床数:6合計病床数:554】島根県出雲市姫原四丁目１番地１" }, "geometry": { "type": "Point", "coordinates": [ 132.754717, 35.374817 ] } },
{ "type": "Feature", "properties": { "ID": 3211325401440, "正式名称": "出雲市民病院", "機関区分": 1, "都道府県コード": 32, "市区町村コード": 203, "所在地": "島根県出雲市塩冶町１５３６－１", "緯度": 35.360428, "経度": 132.75055, "url": "https://www.iryou.teikyouseido.mhlw.go.jp/znk-web/juminkanja/S2430/initialize?prefCd=32&kikanCd=1325401440&kikanKbn=1", "url2": null, "内容": "出雲市民病院【1:病院】【診療科目:内科_血液内科_内分泌内科_脳神経内科_呼吸器内科_循環器内科_腎臓内科_人工透析内科_神経内科_外科_整形外科_眼科_耳鼻いんこう科_皮膚科_泌尿器科_リハビリテーション科_放射線科】【一般病床数:180療養病床数:0精神病床数:0感染症病床数:0合計病床数:180】島根県出雲市塩冶町１５３６－１" }, "geometry": { "type": "Point", "coordinates": [ 132.75055, 35.360428 ] } },
{ "type": "Feature", "properties": { "ID": 3211325401570, "正式名称": "斐川生協病院", "機関区分": 1, "都道府県コード": 32, "市区町村コード": 203, "所在地": "島根県出雲市斐川町直江４８８３－１", "緯度": 35.392743, "経度": 132.823467, "url": "https://www.iryou.teikyouseido.mhlw.go.jp/znk-web/juminkanja/S2430/initialize?prefCd=32&kikanCd=1325401570&kikanKbn=1", "url2": "https://www.hikawa-hp.com/", "内容": "斐川生協病院【1:病院】【診療科目:内科_呼吸器内科_循環器内科_消化器内科_整形外科_眼科_リハビリテーション科】【一般病床数:0療養病床数:120精神病床数:0感染症病床数:0合計病床数:120】島根県出雲市斐川町直江４８８３－１" }, "geometry": { "type": "Point", "coordinates": [ 132.823467, 35.392743 ] } },
{ "type": "Feature", "properties": { "ID": 3211325401600, "正式名称": "医療法人壽生会寿生病院", "機関区分": 1, "都道府県コード": 32, "市区町村コード": 203, "所在地": "島根県出雲市上塩冶町２８６２番地１医療法人壽生会寿生病院", "緯度": 35.354363, "経度": 132.778627, "url": "https://www.iryou.teikyouseido.mhlw.go.jp/znk-web/juminkanja/S2430/initialize?prefCd=32&kikanCd=1325401600&kikanKbn=1", "url2": "http://juseikai.jp/", "内容": "医療法人壽生会寿生病院【1:病院】【診療科目:内科_呼吸器内科_神経内科_整形外科_精神科_リウマチ科_リハビリテーション科】【一般病床数:0療養病床数:239精神病床数:0感染症病床数:0合計病床数:239】島根県出雲市上塩冶町２８６２番地１医療法人壽生会寿生病院" }, "geometry": { "type": "Point", "coordinates": [ 132.778627, 35.354363 ] } },
{ "type": "Feature", "properties": { "ID": 3211325401730, "正式名称": "医療法人徳洲会　出雲徳洲会病院", "機関区分": 1, "都道府県コード": 32, "市区町村コード": 203, "所在地": "島根県出雲市斐川町直江３９６４ー１", "緯度": 35.380982, "経度": 132.822469, "url": "https://www.iryou.teikyouseido.mhlw.go.jp/znk-web/juminkanja/S2430/initialize?prefCd=32&kikanCd=1325401730&kikanKbn=1", "url2": "http://www.izumo-tokushukai.jp", "内容": "医療法人徳洲会　出雲徳洲会病院【1:病院】【診療科目:内科_呼吸器内科_循環器内科_消化器内科_神経内科_外科_脳神経外科_呼吸器外科_心臓血管外科_消化器外科_整形外科_婦人科_耳鼻いんこう科_皮膚科_泌尿器科_精神科_リハビリテーション科_放射線科_病理診断科_臨床検査科_麻酔科】【一般病床数:89療養病床数:94精神病床数:0感染症病床数:0合計病床数:183】島根県出雲市斐川町直江３９６４ー１" }, "geometry": { "type": "Point", "coordinates": [ 132.822469, 35.380982 ] } },
{ "type": "Feature", "properties": { "ID": 3211325401990, "正式名称": "島根県立こころの医療センター", "機関区分": 1, "都道府県コード": 32, "市区町村コード": 203, "所在地": "島根県出雲市下古志町１５７４－４", "緯度": 35.332431, "経度": 132.734075, "url": "https://www.iryou.teikyouseido.mhlw.go.jp/znk-web/juminkanja/S2430/initialize?prefCd=32&kikanCd=1325401990&kikanKbn=1", "url2": "https://www.kokoronoiryo.jp/", "内容": "島根県立こころの医療センター【1:病院】【診療科目:神経内科_精神科_心療内科】【一般病床数:0療養病床数:0精神病床数:224感染症病床数:0合計病床数:224】島根県出雲市下古志町１５７４－４" }, "geometry": { "type": "Point", "coordinates": [ 132.734075, 35.332431 ] } },
{ "type": "Feature", "properties": { "ID": 3211325500170, "正式名称": "大田市立病院", "機関区分": 1, "都道府県コード": 32, "市区町村コード": 205, "所在地": "島根県大田市大田町吉永１４２８番地３", "緯度": 35.18086, "経度": 132.50255, "url": "https://www.iryou.teikyouseido.mhlw.go.jp/znk-web/juminkanja/S2430/initialize?prefCd=32&kikanCd=1325500170&kikanKbn=1", "url2": "http://www.ohda-hp.ohda.shimane.jp", "内容": "大田市立病院【1:病院】【診療科目:内科_呼吸器内科_循環器内科_消化器内科_神経内科_外科_脳神経外科_呼吸器外科_心臓血管外科_整形外科_形成外科_小児科_産婦人科_眼科_耳鼻いんこう科_皮膚科_泌尿器科_精神科_リハビリテーション科_放射線科_麻酔科】【一般病床数:180療養病床数:45精神病床数:0感染症病床数:4合計病床数:229】島根県大田市大田町吉永１４２８番地３" }, "geometry": { "type": "Point", "coordinates": [ 132.50255, 35.18086 ] } },
{ "type": "Feature", "properties": { "ID": 3211325500200, "正式名称": "医療法人恵和会　石東病院", "機関区分": 1, "都道府県コード": 32, "市区町村コード": 205, "所在地": "島根県大田市大田町大田イ８６０―３", "緯度": 35.200322, "経度": 132.505774, "url": "https://www.iryou.teikyouseido.mhlw.go.jp/znk-web/juminkanja/S2430/initialize?prefCd=32&kikanCd=1325500200&kikanKbn=1", "url2": "http://keiwakai-ohda.jp/", "内容": "医療法人恵和会　石東病院【1:病院】【診療科目:精神科】【一般病床数:0療養病床数:0精神病床数:168感染症病床数:0合計病床数:168】島根県大田市大田町大田イ８６０―３" }, "geometry": { "type": "Point", "coordinates": [ 132.505774, 35.200322 ] } },
{ "type": "Feature", "properties": { "ID": 3211325600100, "正式名称": "加藤病院", "機関区分": 1, "都道府県コード": 32, "市区町村コード": 441, "所在地": "島根県邑智郡川本町川本３８３番地１", "緯度": 34.991133, "経度": 132.494869, "url": "https://www.iryou.teikyouseido.mhlw.go.jp/znk-web/juminkanja/S2430/initialize?prefCd=32&kikanCd=1325600100&kikanKbn=1", "url2": "www.k-jinju.or.jp", "内容": "加藤病院【1:病院】【診療科目:内科_糖尿病内科_循環器内科_消化器内科_神経内科_ペインクリニック内科_外科_整形外科_眼科_耳鼻いんこう科_皮膚科_泌尿器科_精神科_リハビリテーション科_麻酔科】【一般病床数:0療養病床数:81精神病床数:0感染症病床数:0合計病床数:81】島根県邑智郡川本町川本３８３番地１" }, "geometry": { "type": "Point", "coordinates": [ 132.494869, 34.991133 ] } },
{ "type": "Feature", "properties": { "ID": 3211325700260, "正式名称": "社会医療法人清和会　西川病院", "機関区分": 1, "都道府県コード": 32, "市区町村コード": 202, "所在地": "島根県浜田市港町２９３番地２", "緯度": 34.903997, "経度": 132.068323, "url": "https://www.iryou.teikyouseido.mhlw.go.jp/znk-web/juminkanja/S2430/initialize?prefCd=32&kikanCd=1325700260&kikanKbn=1", "url2": "https://seiwakai-shimane.com/nishikawa/", "内容": "社会医療法人清和会　西川病院【1:病院】【診療科目:内科_精神科_神経科】【一般病床数:0療養病床数:0精神病床数:402感染症病床数:0合計病床数:402】島根県浜田市港町２９３番地２" }, "geometry": { "type": "Point", "coordinates": [ 132.068323, 34.903997 ] } },
{ "type": "Feature", "properties": { "ID": 3211325701010, "正式名称": "社会福祉法人　島根整肢学園　西部島根医療福祉センター", "機関区分": 1, "都道府県コード": 32, "市区町村コード": 207, "所在地": "島根県江津市渡津町１９２６", "緯度": 35.025455, "経度": 132.236765, "url": "https://www.iryou.teikyouseido.mhlw.go.jp/znk-web/juminkanja/S2430/initialize?prefCd=32&kikanCd=1325701010&kikanKbn=1", "url2": "www.sw-shimasei.or.jp", "内容": "社会福祉法人　島根整肢学園　西部島根医療福祉センター【1:病院】【診療科目:内科_糖尿病内科_循環器内科_消化器内科_神経内科_外科_整形外科_小児脳神経外科_小児科_小児外科_耳鼻いんこう科_皮膚科_歯科口腔外科_リウマチ科_リハビリテーション科】【一般病床数:56療養病床数:56精神病床数:0感染症病床数:0合計病床数:112】島根県江津市渡津町１９２６" }, "geometry": { "type": "Point", "coordinates": [ 132.236765, 35.025455 ] } },
{ "type": "Feature", "properties": { "ID": 3211325701430, "正式名称": "医療法人慈誠会山根病院", "機関区分": 1, "都道府県コード": 32, "市区町村コード": 202, "所在地": "島根県浜田市熱田町１５１７番地１山根病院", "緯度": 34.868713, "経度": 132.049731, "url": "https://www.iryou.teikyouseido.mhlw.go.jp/znk-web/juminkanja/S2430/initialize?prefCd=32&kikanCd=1325701430&kikanKbn=1", "url2": "http://www.yamane-hp.jp/", "内容": "医療法人慈誠会山根病院【1:病院】【診療科目:内科_外科_大腸・肛門外科_整形外科】【一般病床数:0療養病床数:59精神病床数:0感染症病床数:0合計病床数:59】島根県浜田市熱田町１５１７番地１山根病院" }, "geometry": { "type": "Point", "coordinates": [ 132.049731, 34.868713 ] } },
{ "type": "Feature", "properties": { "ID": 3211325701720, "正式名称": "医療法人慈誠会　山根病院三隅分院", "機関区分": 1, "都道府県コード": 32, "市区町村コード": 202, "所在地": "島根県浜田市三隅町岡見２９０－１", "緯度": 34.767769, "経度": 131.924139, "url": "https://www.iryou.teikyouseido.mhlw.go.jp/znk-web/juminkanja/S2430/initialize?prefCd=32&kikanCd=1325701720&kikanKbn=1", "url2": "http://www.yamane-hp.jp/", "内容": "医療法人慈誠会　山根病院三隅分院【1:病院】【診療科目:内科_婦人科】【一般病床数:0療養病床数:62精神病床数:0感染症病床数:0合計病床数:62】島根県浜田市三隅町岡見２９０－１" }, "geometry": { "type": "Point", "coordinates": [ 131.924139, 34.767769 ] } },
{ "type": "Feature", "properties": { "ID": 3211325701850, "正式名称": "社会福祉法人恩賜財団島根県済生会江津総合病院", "機関区分": 1, "都道府県コード": 32, "市区町村コード": 207, "所在地": "島根県江津市江津町１０１６－３７", "緯度": 35.012861, "経度": 132.2149, "url": "https://www.iryou.teikyouseido.mhlw.go.jp/znk-web/juminkanja/S2430/initialize?prefCd=32&kikanCd=1325701850&kikanKbn=1", "url2": null, "内容": "社会福祉法人恩賜財団島根県済生会江津総合病院【1:病院】【診療科目:内科_糖尿病・内分泌内科_呼吸器内科_循環器内科_消化器内科_腎臓内科_神経内科_脳神経外科_整形外科_小児科_産婦人科_眼科_耳鼻いんこう科_皮膚科_泌尿器科_精神科】【一般病床数:112療養病床数:60精神病床数:0感染症病床数:0合計病床数:172】島根県江津市江津町１０１６－３７" }, "geometry": { "type": "Point", "coordinates": [ 132.2149, 35.012861 ] } },
{ "type": "Feature", "properties": { "ID": 3211325701980, "正式名称": "独立行政法人国立病院機構　浜田医療センター", "機関区分": 1, "都道府県コード": 32, "市区町村コード": 202, "所在地": "島根県浜田市浅井町７７７－１２", "緯度": 34.903505, "経度": 132.087783, "url": "https://www.iryou.teikyouseido.mhlw.go.jp/znk-web/juminkanja/S2430/initialize?prefCd=32&kikanCd=1325701980&kikanKbn=1", "url2": "https://hamada.hosp.go.jp/", "内容": "独立行政法人国立病院機構　浜田医療センター【1:病院】【診療科目:内科_血液内科_糖尿病内科_代謝・内分泌内科_脳神経内科_呼吸器内科_循環器内科_消化器内科_腎臓内科_膠原病内科_外科_脳神経外科_呼吸器外科_心臓血管外科_整形外科_形成外科_小児科_産婦人科_耳鼻いんこう科_皮膚科_泌尿器科_精神科_歯科口腔外科_リハビリテーション科_放射線科_病理診断科_救急科_麻酔科】【一般病床数:343療養病床数:0精神病床数:0感染症病床数:4合計病床数:347】島根県浜田市浅井町７７７－１２" }, "geometry": { "type": "Point", "coordinates": [ 132.087783, 34.903505 ] } },
{ "type": "Feature", "properties": { "ID": 3211325800160, "正式名称": "益田赤十字病院", "機関区分": 1, "都道府県コード": 32, "市区町村コード": 204, "所在地": "島根県益田市乙吉町イ１０３番地１", "緯度": 34.684051, "経度": 131.84137, "url": "https://www.iryou.teikyouseido.mhlw.go.jp/znk-web/juminkanja/S2430/initialize?prefCd=32&kikanCd=1325800160&kikanKbn=1", "url2": "https://masuda.jrc.or.jp/", "内容": "益田赤十字病院【1:病院】【診療科目:内科_血液内科_代謝・内分泌内科_脳神経内科_呼吸器内科_循環器内科_消化器内科_外科_脳神経外科_整形外科_小児科_産婦人科_眼科_耳鼻いんこう科_皮膚科_泌尿器科_歯科口腔外科_放射線科_病理診断科_救急科_麻酔科】【一般病床数:276療養病床数:0精神病床数:0感染症病床数:4合計病床数:284】島根県益田市乙吉町イ１０３番地１" }, "geometry": { "type": "Point", "coordinates": [ 131.84137, 34.684051 ] } },
{ "type": "Feature", "properties": { "ID": 3211325800900, "正式名称": "公益社団法人益田市医師会立　益田地域医療センター医師会病院", "機関区分": 1, "都道府県コード": 32, "市区町村コード": 204, "所在地": "島根県益田市遠田町１９１７番地２", "緯度": 34.696734, "経度": 131.866983, "url": "https://www.iryou.teikyouseido.mhlw.go.jp/znk-web/juminkanja/S2430/initialize?prefCd=32&kikanCd=1325800900&kikanKbn=1", "url2": "https://www.masuda-med.or.jp/ishikai/access", "内容": "公益社団法人益田市医師会立　益田地域医療センター医師会病院【1:病院】【診療科目:内科_呼吸器内科_循環器内科_腎臓内科_外科_脳神経外科_呼吸器外科_循環器外科_大腸・肛門外科_整形外科_形成外科_婦人科_リウマチ科_リハビリテーション科_放射線科_病理診断科_麻酔科】【一般病床数:165療養病床数:88精神病床数:0感染症病床数:0合計病床数:253】島根県益田市遠田町１９１７番地２" }, "geometry": { "type": "Point", "coordinates": [ 131.866983, 34.696734 ] } },
{ "type": "Feature", "properties": { "ID": 3211325801040, "正式名称": "社会医療法人正光会　松ヶ丘病院", "機関区分": 1, "都道府県コード": 32, "市区町村コード": 204, "所在地": "島根県益田市高津四丁目２４番１０号", "緯度": 34.685134, "経度": 131.803043, "url": "https://www.iryou.teikyouseido.mhlw.go.jp/znk-web/juminkanja/S2430/initialize?prefCd=32&kikanCd=1325801040&kikanKbn=1", "url2": "https://www.matugaoka-iatria.jp/", "内容": "社会医療法人正光会　松ヶ丘病院【1:病院】【診療科目:神経内科_精神科_心療内科】【一般病床数:0療養病床数:0精神病床数:215感染症病床数:0合計病床数:215】島根県益田市高津四丁目２４番１０号" }, "geometry": { "type": "Point", "coordinates": [ 131.803043, 34.685134 ] } },
{ "type": "Feature", "properties": { "ID": 3211325801200, "正式名称": "津和野共存病院", "機関区分": 1, "都道府県コード": 32, "市区町村コード": 501, "所在地": "島根県鹿足郡津和野町森村ロ１４１", "緯度": 34.460392, "経度": 131.77806, "url": "https://www.iryou.teikyouseido.mhlw.go.jp/znk-web/juminkanja/S2430/initialize?prefCd=32&kikanCd=1325801200&kikanKbn=1", "url2": "http://kisseido.jp/", "内容": "津和野共存病院【1:病院】【診療科目:内科_循環器内科_神経内科_整形外科_小児科_耳鼻いんこう科_精神科_心療内科_リハビリテーション科_放射線科】【一般病床数:49療養病床数:0精神病床数:0感染症病床数:0合計病床数:49】島根県鹿足郡津和野町森村ロ１４１" }, "geometry": { "type": "Point", "coordinates": [ 131.77806, 34.460392 ] } },
{ "type": "Feature", "properties": { "ID": 3211325801460, "正式名称": "医療法人カタクリ会　よしか病院", "機関区分": 1, "都道府県コード": 32, "市区町村コード": 505, "所在地": "島根県鹿足郡吉賀町六日市３６８番地４", "緯度": 34.353544, "経度": 131.937497, "url": "https://www.iryou.teikyouseido.mhlw.go.jp/znk-web/juminkanja/S2430/initialize?prefCd=32&kikanCd=1325801460&kikanKbn=1", "url2": "https://katakuri.or.jp/", "内容": "医療法人カタクリ会　よしか病院【1:病院】【診療科目:内科_神経内科_整形外科_小児科_眼科_皮膚科_精神科_心療内科_歯科口腔外科_リハビリテーション科】【一般病床数:50療養病床数:0精神病床数:0感染症病床数:0合計病床数:50】島根県鹿足郡吉賀町六日市３６８番地４" }, "geometry": { "type": "Point", "coordinates": [ 131.937497, 34.353544 ] } },
{ "type": "Feature", "properties": { "ID": 3211325900190, "正式名称": "隠岐広域連合立隠岐病院", "機関区分": 1, "都道府県コード": 32, "市区町村コード": 528, "所在地": "島根県隠岐郡隠岐の島町城北町３５５", "緯度": 36.216283, "経度": 133.318528, "url": "https://www.iryou.teikyouseido.mhlw.go.jp/znk-web/juminkanja/S2430/initialize?prefCd=32&kikanCd=1325900190&kikanKbn=1", "url2": "http://oki-hospital.com", "内容": "隠岐広域連合立隠岐病院【1:病院】【診療科目:内科_腎臓内科_神経内科_外科_整形外科_小児科_産婦人科_眼科_耳鼻いんこう科_皮膚科_泌尿器科_精神科_歯科口腔外科_リハビリテーション科_麻酔科】【一般病床数:93療養病床数:0精神病床数:22感染症病床数:0合計病床数:115】島根県隠岐郡隠岐の島町城北町３５５" }, "geometry": { "type": "Point", "coordinates": [ 133.318528, 36.216283 ] } },
{ "type": "Feature", "properties": { "ID": 3211326100290, "正式名称": "邑智郡公立病院組合　公立邑智病院", "機関区分": 1, "都道府県コード": 32, "市区町村コード": 449, "所在地": "島根県邑智郡邑南町中野３８４８－２", "緯度": 34.896146, "経度": 132.452852, "url": "https://www.iryou.teikyouseido.mhlw.go.jp/znk-web/juminkanja/S2430/initialize?prefCd=32&kikanCd=1326100290&kikanKbn=1", "url2": "https://www.ohchihospital.jp/", "内容": "邑智郡公立病院組合　公立邑智病院【1:病院】【診療科目:内科_外科_整形外科_小児科_産婦人科_皮膚科_泌尿器科_精神科_歯科_麻酔科】【一般病床数:98療養病床数:0精神病床数:0感染症病床数:0合計病床数:98】島根県邑智郡邑南町中野３８４８－２" }, "geometry": { "type": "Point", "coordinates": [ 132.452852, 34.896146 ] } },
{ "type": "Feature", "properties": { "ID": 3211326200190, "正式名称": "隠岐広域連合立　隠岐島前病院", "機関区分": 1, "都道府県コード": 32, "市区町村コード": 526, "所在地": "島根県隠岐郡西ノ島町美田２０７１－１", "緯度": 36.106314, "経度": 133.03635, "url": "https://www.iryou.teikyouseido.mhlw.go.jp/znk-web/juminkanja/S2430/initialize?prefCd=32&kikanCd=1326200190&kikanKbn=1", "url2": null, "内容": "隠岐広域連合立　隠岐島前病院【1:病院】【診療科目:内科_外科_整形外科_小児科_産婦人科_眼科_耳鼻いんこう科_精神科】【一般病床数:20療養病床数:24精神病床数:0感染症病床数:0合計病床数:44】島根県隠岐郡西ノ島町美田２０７１－１" }, "geometry": { "type": "Point", "coordinates": [ 133.03635, 36.106314 ] } }
]
}
