{
"type": "FeatureCollection",
"name": "geo_32_通所リハビリテーション",
"crs": { "type": "name", "properties": { "name": "urn:ogc:def:crs:OGC:1.3:CRS84" } },
"features": [
{ "type": "Feature", "properties": { "内容": "介護医療院ケアセンター喜南　通所リハビリテーション【通所リハビリテーション】島根県松江市宍道町白石129-2", "url": "https://www.kaigokensaku.mhlw.go.jp/32/index.php?action_kouhyou_detail_004_kani=true&JigyosyoCd=32B0100055-00&ServiceCd=160&Type=search", "url2": "https://www.doujinkai.jp/kinan/" }, "geometry": { "type": "Point", "coordinates": [ 132.9259305, 35.4141767 ] } },
{ "type": "Feature", "properties": { "内容": "でいけあすずらん【通所リハビリテーション】上乃木七丁目5-16", "url": "https://www.kaigokensaku.mhlw.go.jp/32/index.php?action_kouhyou_detail_004_kani=true&JigyosyoCd=3270102944-00&ServiceCd=160&Type=search", "url2": "http：//fu-su-no.jp" }, "geometry": { "type": "Point", "coordinates": [ 133.070971200000031, 35.4458848 ] } },
{ "type": "Feature", "properties": { "内容": "山口整形デイケアセンター【通所リハビリテーション】学園南1丁目13－34", "url": "https://www.kaigokensaku.mhlw.go.jp/32/index.php?action_kouhyou_detail_004_kani=true&JigyosyoCd=3210114439-00&ServiceCd=160&Type=search", "url2": null }, "geometry": { "type": "Point", "coordinates": [ 140.072809399999983, 36.0771335 ] } },
{ "type": "Feature", "properties": { "内容": "介護老人保健施設悠々園【通所リハビリテーション】松江市川原町309-1", "url": "https://www.kaigokensaku.mhlw.go.jp/32/index.php?action_kouhyou_detail_004_kani=true&JigyosyoCd=3250180035-00&ServiceCd=160&Type=search", "url2": "http://www.kaishunkai.com/yuyuen/" }, "geometry": { "type": "Point", "coordinates": [ 133.092874599999959, 35.5027013 ] } },
{ "type": "Feature", "properties": { "内容": "介護老人保健施設　ライフケア回春苑　通所リハビリテーション【通所リハビリテーション】松江市新庄町1172", "url": "https://www.kaigokensaku.mhlw.go.jp/32/index.php?action_kouhyou_detail_004_kani=true&JigyosyoCd=3250180043-00&ServiceCd=160&Type=search", "url2": "http://www.kaishunkai.com/kaishunen/" }, "geometry": { "type": "Point", "coordinates": [ 133.1332294, 35.4994763 ] } },
{ "type": "Feature", "properties": { "内容": "通所リハビリテーション　松江センターアゼリア【通所リハビリテーション】島根県松江市寺町99-26松江センターアゼリア", "url": "https://www.kaigokensaku.mhlw.go.jp/32/index.php?action_kouhyou_detail_004_kani=true&JigyosyoCd=3250180076-00&ServiceCd=160&Type=search", "url2": "https://www.matsue-center-azalea.com/" }, "geometry": { "type": "Point", "coordinates": [ 133.0596339, 35.4620597 ] } },
{ "type": "Feature", "properties": { "内容": "医療法人社団創健会　介護医療院宇賀の里つばさ【通所リハビリテーション】島根県松江市上乃木三丁目4番1号", "url": "https://www.kaigokensaku.mhlw.go.jp/32/index.php?action_kouhyou_detail_004_kani=true&JigyosyoCd=32B0100030-00&ServiceCd=160&Type=search", "url2": "https://www.souken-kai.or.jp/" }, "geometry": { "type": "Point", "coordinates": [ 133.0589539, 35.4485118 ] } },
{ "type": "Feature", "properties": { "内容": "介護老人保健施設もちだの郷【通所リハビリテーション】松江市東持田町520番地1", "url": "https://www.kaigokensaku.mhlw.go.jp/32/index.php?action_kouhyou_detail_004_kani=true&JigyosyoCd=3250180050-00&ServiceCd=160&Type=search", "url2": "http://www.kyousei.gr.jp/mochidanosato.html" }, "geometry": { "type": "Point", "coordinates": [ 133.08570839999993, 35.5080949 ] } },
{ "type": "Feature", "properties": { "内容": "医療法人財団公仁会　鹿島病院【通所リハビリテーション】島根県松江市鹿島町名分243-1", "url": "https://www.kaigokensaku.mhlw.go.jp/32/index.php?action_kouhyou_detail_004_kani=true&JigyosyoCd=3211110857-00&ServiceCd=160&Type=search", "url2": "http://www.kashima-hosp.or.jp" }, "geometry": { "type": "Point", "coordinates": [ 133.006919299999936, 35.5262624 ] } },
{ "type": "Feature", "properties": { "内容": "介護老人保健施設　福寿苑【通所リハビリテーション】松江市八束町波入614-9", "url": "https://www.kaigokensaku.mhlw.go.jp/32/index.php?action_kouhyou_detail_004_kani=true&JigyosyoCd=3251180034-00&ServiceCd=160&Type=search", "url2": "http://www.shimane-fukujuen.jp" }, "geometry": { "type": "Point", "coordinates": [ 133.178983900000048, 35.4870658 ] } },
{ "type": "Feature", "properties": { "内容": "独立行政法人　地域医療機能推進機構　玉造病院【通所リハビリテーション】松江市玉湯町湯町１－２", "url": "https://www.kaigokensaku.mhlw.go.jp/32/index.php?action_kouhyou_detail_004_kani=true&JigyosyoCd=3270101813-00&ServiceCd=160&Type=search", "url2": "http://tamatsukuri.jcho.go.jp" }, "geometry": { "type": "Point", "coordinates": [ 133.018110400000069, 35.430879699999984 ] } },
{ "type": "Feature", "properties": { "内容": "介護老人保健施設さんさんケアセンター【通所リハビリテーション】島根県松江市東出雲町揖屋1196", "url": "https://www.kaigokensaku.mhlw.go.jp/32/index.php?action_kouhyou_detail_004_kani=true&JigyosyoCd=3251180026-00&ServiceCd=160&Type=search", "url2": "http://hc.sansancare.com/" }, "geometry": { "type": "Point", "coordinates": [ 133.153022299999947, 35.42661 ] } },
{ "type": "Feature", "properties": { "内容": "デイケア太陽【通所リハビリテーション】松江市八雲町日吉１９４－１２", "url": "https://www.kaigokensaku.mhlw.go.jp/32/index.php?action_kouhyou_detail_004_kani=true&JigyosyoCd=3271100459-00&ServiceCd=160&Type=search", "url2": null }, "geometry": { "type": "Point", "coordinates": [ 133.096556312303164, 35.416944046182863 ] } },
{ "type": "Feature", "properties": { "内容": "介護老人保健施設アゼーリみずすみ【通所リハビリテーション】浜田市三隅町河内４５１番地1", "url": "https://www.kaigokensaku.mhlw.go.jp/32/index.php?action_kouhyou_detail_004_kani=true&JigyosyoCd=3251980029-00&ServiceCd=160&Type=search", "url2": "http://mizusumikai.or.jp/" }, "geometry": { "type": "Point", "coordinates": [ 131.981657, 34.759348 ] } },
{ "type": "Feature", "properties": { "内容": "介護老人保健施設夕陽ヶ丘【通所リハビリテーション】島根県浜田市国分町９５５番地１", "url": "https://www.kaigokensaku.mhlw.go.jp/32/index.php?action_kouhyou_detail_004_kani=true&JigyosyoCd=3250780008-00&ServiceCd=160&Type=search", "url2": "https://www.yuuhigaoka.org/" }, "geometry": { "type": "Point", "coordinates": [ 132.116536900000028, 34.9449319 ] } },
{ "type": "Feature", "properties": { "内容": "介護老人保健施設旭・やすらぎの郷【通所リハビリテーション】島根県浜田市旭町本郷362-10", "url": "https://www.kaigokensaku.mhlw.go.jp/32/index.php?action_kouhyou_detail_004_kani=true&JigyosyoCd=3251980037-00&ServiceCd=160&Type=search", "url2": "tomomi-kai-yasuragi.com" }, "geometry": { "type": "Point", "coordinates": [ 132.303315199999986, 34.864239 ] } },
{ "type": "Feature", "properties": { "内容": "介護老人保健施設さざんか【通所リハビリテーション】島根県浜田市金城町七条ハ403番地", "url": "https://www.kaigokensaku.mhlw.go.jp/32/index.php?action_kouhyou_detail_004_kani=true&JigyosyoCd=3251980011-00&ServiceCd=160&Type=search", "url2": "http://sazanka.okita-naika.jp/" }, "geometry": { "type": "Point", "coordinates": [ 132.149398199999951, 34.8690952 ] } },
{ "type": "Feature", "properties": { "内容": "医療法人社団林整形外科医院【通所リハビリテーション】姫原町114－3", "url": "https://www.kaigokensaku.mhlw.go.jp/32/index.php?action_kouhyou_detail_004_kani=true&JigyosyoCd=3210411223-00&ServiceCd=160&Type=search", "url2": "http://hayashiseikei.c.ooco.jp/" }, "geometry": { "type": "Point", "coordinates": [ 132.754444799999987, 35.3695567 ] } },
{ "type": "Feature", "properties": { "内容": "介護老人保健施設ケアセンターかんど【通所リハビリテーション】島根県出雲市西新町２丁目２４５７番地３", "url": "https://www.kaigokensaku.mhlw.go.jp/32/index.php?action_kouhyou_detail_004_kani=true&JigyosyoCd=3250480054-00&ServiceCd=160&Type=search", "url2": "http://www.kandokai.jp/" }, "geometry": { "type": "Point", "coordinates": [ 132.72533240000007, 35.3325357 ] } },
{ "type": "Feature", "properties": { "内容": "老人保健施設たき(通所リハビリテーション）【通所リハビリテーション】出雲市多伎町小田50番地7", "url": "https://www.kaigokensaku.mhlw.go.jp/32/index.php?action_kouhyou_detail_004_kani=true&JigyosyoCd=3251680018-00&ServiceCd=160&Type=search", "url2": "http://www.takinosato.jp" }, "geometry": { "type": "Point", "coordinates": [ 132.627048899999977, 35.2844431 ] } },
{ "type": "Feature", "properties": { "内容": "介護老人保健施設もくもく【通所リハビリテーション】出雲市江田町278番地", "url": "https://www.kaigokensaku.mhlw.go.jp/32/index.php?action_kouhyou_detail_004_kani=true&JigyosyoCd=3250480047-00&ServiceCd=160&Type=search", "url2": "http://www.otuka-wel.jp/" }, "geometry": { "type": "Point", "coordinates": [ 132.7351129, 35.3837438 ] } },
{ "type": "Feature", "properties": { "内容": "深田医院【通所リハビリテーション】出雲市高岡町５３－１", "url": "https://www.kaigokensaku.mhlw.go.jp/32/index.php?action_kouhyou_detail_004_kani=true&JigyosyoCd=3210411983-00&ServiceCd=160&Type=search", "url2": null }, "geometry": { "type": "Point", "coordinates": [ 132.759308199999964, 35.3781866 ] } },
{ "type": "Feature", "properties": { "内容": "高鳥クリニック　地域リハビリテーションセンター【通所リハビリテーション】島根県出雲市武志町734-1", "url": "https://www.kaigokensaku.mhlw.go.jp/32/index.php?action_kouhyou_detail_004_kani=true&JigyosyoCd=3210411827-00&ServiceCd=160&Type=search", "url2": null }, "geometry": { "type": "Point", "coordinates": [ 132.77435748836055, 35.394723485100705 ] } },
{ "type": "Feature", "properties": { "内容": "医療法人　吉翔会　吉直整形外科クリニック　デイケア　「リハホーム」【通所リハビリテーション】島根県出雲市西平田町242吉直整形外科クリニック", "url": "https://www.kaigokensaku.mhlw.go.jp/32/index.php?action_kouhyou_detail_004_kani=true&JigyosyoCd=3210310375-00&ServiceCd=160&Type=search", "url2": "https://sites.google.com/a/yoshinao-orthopaedic-clinic.com/clinic/" }, "geometry": { "type": "Point", "coordinates": [ 132.815338900000029, 35.4353759 ] } },
{ "type": "Feature", "properties": { "内容": "寿生苑通所リハビリテーション【通所リハビリテーション】出雲市上塩冶町2862-1", "url": "https://www.kaigokensaku.mhlw.go.jp/32/index.php?action_kouhyou_detail_004_kani=true&JigyosyoCd=3250480021-00&ServiceCd=160&Type=search", "url2": "http://www.juseikai.jp/" }, "geometry": { "type": "Point", "coordinates": [ 132.777741384130877, 35.354033905016237 ] } },
{ "type": "Feature", "properties": { "内容": "えだくり通所リハビリテーション【通所リハビリテーション】島根県出雲市今市町藤ヶ森2074", "url": "https://www.kaigokensaku.mhlw.go.jp/32/index.php?action_kouhyou_detail_004_kani=true&JigyosyoCd=3210412759-00&ServiceCd=160&Type=search", "url2": "https://izumo.edaclinic.jp/" }, "geometry": { "type": "Point", "coordinates": [ 132.757484100000056, 35.3626412 ] } },
{ "type": "Feature", "properties": { "内容": "通所リハビリテーション事業所まんだ【通所リハビリテーション】島根県出雲市万田町535番地１", "url": "https://www.kaigokensaku.mhlw.go.jp/32/index.php?action_kouhyou_detail_004_kani=true&JigyosyoCd=3250480062-00&ServiceCd=160&Type=search", "url2": "https://mandanosato.jp/pages/85/" }, "geometry": { "type": "Point", "coordinates": [ 132.784544899999986, 35.4446657 ] } },
{ "type": "Feature", "properties": { "内容": "介護老人保健施設ほのぼの苑【通所リハビリテーション】出雲市大社町中荒木1745-2", "url": "https://www.kaigokensaku.mhlw.go.jp/32/index.php?action_kouhyou_detail_004_kani=true&JigyosyoCd=3251680009-00&ServiceCd=160&Type=search", "url2": "http://www.sunlight.or.jp" }, "geometry": { "type": "Point", "coordinates": [ 132.687342700000045, 35.3792909 ] } },
{ "type": "Feature", "properties": { "内容": "あすかデイケアセンター【通所リハビリテーション】益田市乙吉町ロ33番地　あすかクリニック2階", "url": "https://www.kaigokensaku.mhlw.go.jp/32/index.php?action_kouhyou_detail_004_kani=true&JigyosyoCd=3270800513-00&ServiceCd=160&Type=search", "url2": "http://www.asuka-ec.com" }, "geometry": { "type": "Point", "coordinates": [ 131.844422799999961, 34.6873159 ] } },
{ "type": "Feature", "properties": { "内容": "益田市立介護老人保健施設くにさき苑【通所リハビリテーション】島根県益田市遠田町1956番地8", "url": "https://www.kaigokensaku.mhlw.go.jp/32/index.php?action_kouhyou_detail_004_kani=true&JigyosyoCd=3250880022-00&ServiceCd=160&Type=search", "url2": "https://www.masuda-med.or.jp/kunisakien/" }, "geometry": { "type": "Point", "coordinates": [ 131.866398, 34.6967522 ] } },
{ "type": "Feature", "properties": { "内容": "通所リハビリたかつ【通所リハビリテーション】島根県益田市高津1丁目9番4号", "url": "https://www.kaigokensaku.mhlw.go.jp/32/index.php?action_kouhyou_detail_004_kani=true&JigyosyoCd=3210810846-00&ServiceCd=160&Type=search", "url2": "http://www.kaneshima.or.jp/" }, "geometry": { "type": "Point", "coordinates": [ 131.8255107, 34.6856058 ] } },
{ "type": "Feature", "properties": { "内容": "大田市立病院【通所リハビリテーション】島根県大田市大田町吉永１４２８番地３", "url": "https://www.kaigokensaku.mhlw.go.jp/32/index.php?action_kouhyou_detail_004_kani=true&JigyosyoCd=3210510891-00&ServiceCd=160&Type=search", "url2": "http://www.ohda-hp.ohda.shimane.jp/" }, "geometry": { "type": "Point", "coordinates": [ 132.502789864417963, 35.180989592809155 ] } },
{ "type": "Feature", "properties": { "内容": "介護老人保健施設　恵寿苑　通所リハビリテーション【通所リハビリテーション】島根県大田市大田町大田イ８６０－３", "url": "https://www.kaigokensaku.mhlw.go.jp/32/index.php?action_kouhyou_detail_004_kani=true&JigyosyoCd=3250580002-00&ServiceCd=160&Type=search", "url2": "http://keiwakai-ohda.jp/keijuen/" }, "geometry": { "type": "Point", "coordinates": [ 132.506141993254118, 35.199785311531194 ] } },
{ "type": "Feature", "properties": { "内容": "介護老人保健施設たてがみの郷【通所リハビリテーション】大田市波根町１２９０番地1", "url": "https://www.kaigokensaku.mhlw.go.jp/32/index.php?action_kouhyou_detail_004_kani=true&JigyosyoCd=3250580010-00&ServiceCd=160&Type=search", "url2": "http://www.well-nc.or.jp/" }, "geometry": { "type": "Point", "coordinates": [ 132.527589499999976, 35.2404372 ] } },
{ "type": "Feature", "properties": { "内容": "白根医院【通所リハビリテーション】島根県安来市荒島町1817-1", "url": "https://www.kaigokensaku.mhlw.go.jp/32/index.php?action_kouhyou_detail_004_kani=true&JigyosyoCd=3210210369-00&ServiceCd=160&Type=search", "url2": "https://shirane.clinic/" }, "geometry": { "type": "Point", "coordinates": [ 133.2044867, 35.4327291 ] } },
{ "type": "Feature", "properties": { "内容": "安来第一病院【通所リハビリテーション】島根県安来市安来町８９９－１", "url": "https://www.kaigokensaku.mhlw.go.jp/32/index.php?action_kouhyou_detail_004_kani=true&JigyosyoCd=3210210039-00&ServiceCd=160&Type=search", "url2": "http://www.syourinkai.or.jp/" }, "geometry": { "type": "Point", "coordinates": [ 133.252153899999939, 35.4318422 ] } },
{ "type": "Feature", "properties": { "内容": "介護老人保健施設昌寿苑【通所リハビリテーション】安来市安来町899-１", "url": "https://www.kaigokensaku.mhlw.go.jp/32/index.php?action_kouhyou_detail_004_kani=true&JigyosyoCd=3250280017-00&ServiceCd=160&Type=search", "url2": "http://www.syourinkai.or.jp" }, "geometry": { "type": "Point", "coordinates": [ 133.252770808073336, 35.433179702215007 ] } },
{ "type": "Feature", "properties": { "内容": "介護医療院みずかぜ　通所リハビリテーション【通所リハビリテーション】島根県安来市伯太町安田1700番地", "url": "https://www.kaigokensaku.mhlw.go.jp/32/index.php?action_kouhyou_detail_004_kani=true&JigyosyoCd=32B0200020-00&ServiceCd=160&Type=search", "url2": null }, "geometry": { "type": "Point", "coordinates": [ 133.273694200000023, 35.3719537 ] } },
{ "type": "Feature", "properties": { "内容": "西部島根医療福祉センター【通所リハビリテーション】島根県江津市渡津町1926", "url": "https://www.kaigokensaku.mhlw.go.jp/32/index.php?action_kouhyou_detail_004_kani=true&JigyosyoCd=3210610030-00&ServiceCd=160&Type=search", "url2": "http://www.sw-shimasei.or.jp/" }, "geometry": { "type": "Point", "coordinates": [ 132.236804940336583, 35.025396937014762 ] } },
{ "type": "Feature", "properties": { "内容": "介護老人保健施設高砂ケアセンター【通所リハビリテーション】島根県江津市江津町１１１０－１５", "url": "https://www.kaigokensaku.mhlw.go.jp/32/index.php?action_kouhyou_detail_004_kani=true&JigyosyoCd=3250680018-00&ServiceCd=160&Type=search", "url2": "http://www.gotsu-takasago.jp" }, "geometry": { "type": "Point", "coordinates": [ 132.2184638, 35.0138922 ] } },
{ "type": "Feature", "properties": { "内容": "ケアセンターきすき通所リハビリテーション【通所リハビリテーション】雲南市木次町山方1111番地", "url": "https://www.kaigokensaku.mhlw.go.jp/32/index.php?action_kouhyou_detail_004_kani=true&JigyosyoCd=3251480004-00&ServiceCd=160&Type=search", "url2": null }, "geometry": { "type": "Point", "coordinates": [ 132.911923099999967, 35.3113753 ] } },
{ "type": "Feature", "properties": { "内容": "デイケアはまもと【通所リハビリテーション】島根県雲南市大東町大東2416-5", "url": "https://www.kaigokensaku.mhlw.go.jp/32/index.php?action_kouhyou_detail_004_kani=true&JigyosyoCd=3211410554-00&ServiceCd=160&Type=search", "url2": null }, "geometry": { "type": "Point", "coordinates": [ 132.963448, 35.3230585 ] } },
{ "type": "Feature", "properties": { "内容": "介護老人保健施設平成苑【通所リハビリテーション】島根県雲南市三刀屋町三刀屋1294-1", "url": "https://www.kaigokensaku.mhlw.go.jp/32/index.php?action_kouhyou_detail_004_kani=true&JigyosyoCd=3251580019-00&ServiceCd=160&Type=search", "url2": "http://www.heisei-hosp.jp/" }, "geometry": { "type": "Point", "coordinates": [ 132.884896, 35.2925525 ] } },
{ "type": "Feature", "properties": { "内容": "介護老人保健施設　仁寿苑【通所リハビリテーション】邑智郡川本町川本381-4", "url": "https://www.kaigokensaku.mhlw.go.jp/32/index.php?action_kouhyou_detail_004_kani=true&JigyosyoCd=3251880013-00&ServiceCd=160&Type=search", "url2": "http://www.k-jinju.or.jp/" }, "geometry": { "type": "Point", "coordinates": [ 132.494410806838118, 34.991112486366127 ] } },
{ "type": "Feature", "properties": { "内容": "介護医療院　ケアセンター三笠【通所リハビリテーション】島根県邑智郡邑南町上田所３９－５", "url": "https://www.kaigokensaku.mhlw.go.jp/32/index.php?action_kouhyou_detail_004_kani=true&JigyosyoCd=32B1800018-00&ServiceCd=160&Type=search", "url2": "http//:tokuyu-kai.sakura.ne.jp" }, "geometry": { "type": "Point", "coordinates": [ 132.5064092, 34.8404591 ] } },
{ "type": "Feature", "properties": { "内容": "介護老人保健施設サンホームみずほ【通所リハビリテーション】島根県邑智郡邑南町高見８２１－１", "url": "https://www.kaigokensaku.mhlw.go.jp/32/index.php?action_kouhyou_detail_004_kani=true&JigyosyoCd=3251880021-00&ServiceCd=160&Type=search", "url2": "http://tokuyu-kai.sakura.ne.jp/sunhome/index.htm/" }, "geometry": { "type": "Point", "coordinates": [ 132.548791899999969, 34.8992512 ] } },
{ "type": "Feature", "properties": { "内容": "日原診療所【通所リハビリテーション】島根県鹿足郡津和野町枕瀬218番地24", "url": "https://www.kaigokensaku.mhlw.go.jp/32/index.php?action_kouhyou_detail_004_kani=true&JigyosyoCd=3212110369-00&ServiceCd=160&Type=search", "url2": "http:kisseido.jp/" }, "geometry": { "type": "Point", "coordinates": [ 131.8357149, 34.5419973 ] } },
{ "type": "Feature", "properties": { "内容": "よしか病院【通所リハビリテーション】島根県鹿足郡吉賀町六日市368番地4", "url": "https://www.kaigokensaku.mhlw.go.jp/32/index.php?action_kouhyou_detail_004_kani=true&JigyosyoCd=3212110450-00&ServiceCd=160&Type=search", "url2": "https://katakuri.or.jp/" }, "geometry": { "type": "Point", "coordinates": [ 131.937492, 34.3535395 ] } },
{ "type": "Feature", "properties": { "内容": "海士町国民健康保険　海士診療所【通所リハビリテーション】島根県隠岐郡海士町大字海士1466", "url": "https://www.kaigokensaku.mhlw.go.jp/32/index.php?action_kouhyou_detail_004_kani=true&JigyosyoCd=3212210540-00&ServiceCd=160&Type=search", "url2": "http://ama-shinryosho.jp/" }, "geometry": { "type": "Point", "coordinates": [ 133.094794799999988, 36.0959605 ] } },
{ "type": "Feature", "properties": { "内容": "隠岐広域連合立隠岐島前病院【通所リハビリテーション】島根県隠岐郡西ノ島町大字美田２０７１番地１", "url": "https://www.kaigokensaku.mhlw.go.jp/32/index.php?action_kouhyou_detail_004_kani=true&JigyosyoCd=3212210672-00&ServiceCd=160&Type=search", "url2": "http://okidozenhospital.com/" }, "geometry": { "type": "Point", "coordinates": [ 133.036349400000063, 36.1063157 ] } },
{ "type": "Feature", "properties": { "内容": "老人保健施設ともいきの郷【通所リハビリテーション】島根県隠岐郡隠岐の島町栄町975番地2", "url": "https://www.kaigokensaku.mhlw.go.jp/32/index.php?action_kouhyou_detail_004_kani=true&JigyosyoCd=3252280007-00&ServiceCd=160&Type=search", "url2": "http://www.kyousei.gr.jp" }, "geometry": { "type": "Point", "coordinates": [ 133.326788399999941, 36.2157296 ] } }
]
}
