{
"type": "FeatureCollection",
"name": "geo_32_小規模多機能型居宅介護",
"crs": { "type": "name", "properties": { "name": "urn:ogc:def:crs:OGC:1.3:CRS84" } },
"features": [
{ "type": "Feature", "properties": { "内容": "サンキ・ウエルビィ小規模多機能センター秋鹿【小規模多機能型居宅介護】島根県松江市岡本町1041-1", "url": "https://www.kaigokensaku.mhlw.go.jp/32/index.php?action_kouhyou_detail_004_kani=true&JigyosyoCd=3290100357-00&ServiceCd=730&Type=search", "url2": null }, "geometry": { "type": "Point", "coordinates": [ 132.950946, 35.475844599999974 ] } },
{ "type": "Feature", "properties": { "内容": "サンキ・ウエルビィ小規模多機能センター松江【小規模多機能型居宅介護】島根県松江市東津田町１７８７番地", "url": "https://www.kaigokensaku.mhlw.go.jp/32/index.php?action_kouhyou_detail_004_kani=true&JigyosyoCd=3290100290-00&ServiceCd=730&Type=search", "url2": null }, "geometry": { "type": "Point", "coordinates": [ 133.086875500000019, 35.4490624 ] } },
{ "type": "Feature", "properties": { "内容": "小規模多機能型居宅介護　悠【小規模多機能型居宅介護】松江市川原町３０８", "url": "https://www.kaigokensaku.mhlw.go.jp/32/index.php?action_kouhyou_detail_004_kani=true&JigyosyoCd=3290100019-00&ServiceCd=730&Type=search", "url2": null }, "geometry": { "type": "Point", "coordinates": [ 133.093560600000046, 35.5026458 ] } },
{ "type": "Feature", "properties": { "内容": "小規模多機能型居宅介護　ひびすくす【小規模多機能型居宅介護】松江市国屋町156－1", "url": "https://www.kaigokensaku.mhlw.go.jp/32/index.php?action_kouhyou_detail_004_kani=true&JigyosyoCd=3290100738-00&ServiceCd=730&Type=search", "url2": null }, "geometry": { "type": "Point", "coordinates": [ 133.035428700000011, 35.4758277 ] } },
{ "type": "Feature", "properties": { "内容": "夕陽の丘【小規模多機能型居宅介護】松江市上乃木三丁目4番58号", "url": "https://www.kaigokensaku.mhlw.go.jp/32/index.php?action_kouhyou_detail_004_kani=true&JigyosyoCd=3290100332-00&ServiceCd=730&Type=search", "url2": "http://www.orangeroad.co.jp" }, "geometry": { "type": "Point", "coordinates": [ 133.0600746, 35.4487427 ] } },
{ "type": "Feature", "properties": { "内容": "くつろぎわこう荘【小規模多機能型居宅介護】東出雲町下意東3145-2", "url": "https://www.kaigokensaku.mhlw.go.jp/32/index.php?action_kouhyou_detail_004_kani=true&JigyosyoCd=3290100837-00&ServiceCd=730&Type=search", "url2": "http://orangeroad.co.jp" }, "geometry": { "type": "Point", "coordinates": [ 133.1812998, 35.4266225 ] } },
{ "type": "Feature", "properties": { "内容": "小規模多機能居宅介護ハピネのやわらぎ西川津【小規模多機能型居宅介護】西川津町1178-1", "url": "https://www.kaigokensaku.mhlw.go.jp/32/index.php?action_kouhyou_detail_004_kani=true&JigyosyoCd=3290100191-00&ServiceCd=730&Type=search", "url2": "http://www.hapine.com/" }, "geometry": { "type": "Point", "coordinates": [ 133.074324599999926, 35.487403169490577 ] } },
{ "type": "Feature", "properties": { "内容": "小規模多機能型居宅介護事業所　すずかけの樹【小規模多機能型居宅介護】島根県松江市上乃木10丁目2番14号", "url": "https://www.kaigokensaku.mhlw.go.jp/32/index.php?action_kouhyou_detail_004_kani=true&JigyosyoCd=3290100043-00&ServiceCd=730&Type=search", "url2": "http://www.matsue-techno-service.jp" }, "geometry": { "type": "Point", "coordinates": [ 133.0687689, 35.4379495 ] } },
{ "type": "Feature", "properties": { "内容": "小規模多機能型居宅介護Aoi【小規模多機能型居宅介護】島根県松江市西川津町1611-1", "url": "https://www.kaigokensaku.mhlw.go.jp/32/index.php?action_kouhyou_detail_004_kani=true&JigyosyoCd=3290100878-00&ServiceCd=730&Type=search", "url2": "：http//kohoku-aikanosato.jp" }, "geometry": { "type": "Point", "coordinates": [ 133.071742199999989, 35.4713402 ] } },
{ "type": "Feature", "properties": { "内容": "地域密着型サービス事業所あさひ乃苑【小規模多機能型居宅介護】松江市古志町191-10", "url": "https://www.kaigokensaku.mhlw.go.jp/32/index.php?action_kouhyou_detail_004_kani=true&JigyosyoCd=3290100480-00&ServiceCd=730&Type=search", "url2": "http://www.mizuumi.jp" }, "geometry": { "type": "Point", "coordinates": [ 133.007816582664532, 35.499892070663591 ] } },
{ "type": "Feature", "properties": { "内容": "小規模多機能型居宅介護ふるさと【小規模多機能型居宅介護】松江市玉湯町湯町１９２４－１", "url": "https://www.kaigokensaku.mhlw.go.jp/32/index.php?action_kouhyou_detail_004_kani=true&JigyosyoCd=3290100142-00&ServiceCd=730&Type=search", "url2": "https://www.tamayunomori.com" }, "geometry": { "type": "Point", "coordinates": [ 133.006569799999966, 35.4267631 ] } },
{ "type": "Feature", "properties": { "内容": "小規模多機能型居宅介護もちだの郷【小規模多機能型居宅介護】島根県松江市東持田町520-1小規模多機能型居宅介護もちだの郷", "url": "https://www.kaigokensaku.mhlw.go.jp/32/index.php?action_kouhyou_detail_004_kani=true&JigyosyoCd=3290100472-00&ServiceCd=730&Type=search", "url2": "https://mochidanosato.com/" }, "geometry": { "type": "Point", "coordinates": [ 133.085263153303458, 35.509247731098029 ] } },
{ "type": "Feature", "properties": { "内容": "小規模多機能型居宅介護えびす【小規模多機能型居宅介護】松江市美保関町美保関869番地１０", "url": "https://www.kaigokensaku.mhlw.go.jp/32/index.php?action_kouhyou_detail_004_kani=true&JigyosyoCd=3290100258-00&ServiceCd=730&Type=search", "url2": "http://www.kyousei.gr.jp/" }, "geometry": { "type": "Point", "coordinates": [ 133.2934179, 35.5588632 ] } },
{ "type": "Feature", "properties": { "内容": "あっとホームゆりさわ【小規模多機能型居宅介護】島根県松江市宍道町佐々布2129-2", "url": "https://www.kaigokensaku.mhlw.go.jp/32/index.php?action_kouhyou_detail_004_kani=true&JigyosyoCd=3290100340-00&ServiceCd=730&Type=search", "url2": "https://amigo-shimane.jp" }, "geometry": { "type": "Point", "coordinates": [ 132.881029300000023, 35.3976693 ] } },
{ "type": "Feature", "properties": { "内容": "小規模多機能型居宅介護　宍道の里【小規模多機能型居宅介護】島根県松江市宍道町伊志見603番地1", "url": "https://www.kaigokensaku.mhlw.go.jp/32/index.php?action_kouhyou_detail_004_kani=true&JigyosyoCd=3290100845-00&ServiceCd=730&Type=search", "url2": "http://www.shinjirakuen.jp/" }, "geometry": { "type": "Point", "coordinates": [ 132.881721311923201, 35.390129677771739 ] } },
{ "type": "Feature", "properties": { "内容": "長命園やくものお家【小規模多機能型居宅介護】松江市八雲町日吉２５５－１", "url": "https://www.kaigokensaku.mhlw.go.jp/32/index.php?action_kouhyou_detail_004_kani=true&JigyosyoCd=3290100035-00&ServiceCd=730&Type=search", "url2": "http://m-fukushi.org/" }, "geometry": { "type": "Point", "coordinates": [ 133.091545099999962, 35.4183298 ] } },
{ "type": "Feature", "properties": { "内容": "小規模多機能ホーム　ウェル・アイ【小規模多機能型居宅介護】島根県松江市山代町４０２－３", "url": "https://www.kaigokensaku.mhlw.go.jp/32/index.php?action_kouhyou_detail_004_kani=true&JigyosyoCd=3290100050-00&ServiceCd=730&Type=search", "url2": null }, "geometry": { "type": "Point", "coordinates": [ 133.089279096083715, 35.436289674899285 ] } },
{ "type": "Feature", "properties": { "内容": "小規模多機能型居宅介護事業所　ほっと【小規模多機能型居宅介護】島根県松江市法吉町久米803番地3", "url": "https://www.kaigokensaku.mhlw.go.jp/32/index.php?action_kouhyou_detail_004_kani=true&JigyosyoCd=3290100027-00&ServiceCd=730&Type=search", "url2": "https://kumainoie.com/hot/" }, "geometry": { "type": "Point", "coordinates": [ 133.043692214749854, 35.491110005266634 ] } },
{ "type": "Feature", "properties": { "内容": "小規模多機能ホーム絆【小規模多機能型居宅介護】浜田市金城町下来原973番1", "url": "https://www.kaigokensaku.mhlw.go.jp/32/index.php?action_kouhyou_detail_004_kani=true&JigyosyoCd=3290700099-00&ServiceCd=730&Type=search", "url2": "https：//www.being-hamada.jp" }, "geometry": { "type": "Point", "coordinates": [ 132.20389, 34.8846773 ] } },
{ "type": "Feature", "properties": { "内容": "小規模多機能型居宅介護花みずき【小規模多機能型居宅介護】島根県浜田市港町275-3", "url": "https://www.kaigokensaku.mhlw.go.jp/32/index.php?action_kouhyou_detail_004_kani=true&JigyosyoCd=3290700073-00&ServiceCd=730&Type=search", "url2": "http://hanamizuki8730.com" }, "geometry": { "type": "Point", "coordinates": [ 132.069211900000028, 34.902263 ] } },
{ "type": "Feature", "properties": { "内容": "あいおいの家【小規模多機能型居宅介護】島根県浜田市相生町3937番地", "url": "https://www.kaigokensaku.mhlw.go.jp/32/index.php?action_kouhyou_detail_004_kani=true&JigyosyoCd=3290700024-00&ServiceCd=730&Type=search", "url2": null }, "geometry": { "type": "Point", "coordinates": [ 132.094101499999965, 34.8959586 ] } },
{ "type": "Feature", "properties": { "内容": "サンキ・ウエルビィ小規模多機能センター出雲【小規模多機能型居宅介護】島根県出雲市大社町北荒木1313", "url": "https://www.kaigokensaku.mhlw.go.jp/32/index.php?action_kouhyou_detail_004_kani=true&JigyosyoCd=3290400252-00&ServiceCd=730&Type=search", "url2": null }, "geometry": { "type": "Point", "coordinates": [ 132.698949699999957, 35.3861486 ] } },
{ "type": "Feature", "properties": { "内容": "小規模多機能ホーム　ハッピーハウス【小規模多機能型居宅介護】島根県出雲市上島町９０４", "url": "https://www.kaigokensaku.mhlw.go.jp/32/index.php?action_kouhyou_detail_004_kani=true&JigyosyoCd=3290400310-00&ServiceCd=730&Type=search", "url2": "http://www.cosmos-izumo.jp" }, "geometry": { "type": "Point", "coordinates": [ 132.83328, 35.334184899999975 ] } },
{ "type": "Feature", "properties": { "内容": "小規模多機能型居宅介護MILK新【小規模多機能型居宅介護】島根県出雲市斐川町上庄原1649番地", "url": "https://www.kaigokensaku.mhlw.go.jp/32/index.php?action_kouhyou_detail_004_kani=true&JigyosyoCd=3290400534-00&ServiceCd=730&Type=search", "url2": null }, "geometry": { "type": "Point", "coordinates": [ 132.840708100000029, 35.3917111 ] } },
{ "type": "Feature", "properties": { "内容": "小規模多機能ホームやわらぎ渡橋【小規模多機能型居宅介護】島根県出雲市渡橋町３０４－１", "url": "https://www.kaigokensaku.mhlw.go.jp/32/index.php?action_kouhyou_detail_004_kani=true&JigyosyoCd=3290400203-00&ServiceCd=730&Type=search", "url2": "http://www.h-ikkou.co.jp/" }, "geometry": { "type": "Point", "coordinates": [ 132.745049, 35.3683374 ] } },
{ "type": "Feature", "properties": { "内容": "小規模多機能ホームさらさの家【小規模多機能型居宅介護】出雲市東福町190－2", "url": "https://www.kaigokensaku.mhlw.go.jp/32/index.php?action_kouhyou_detail_004_kani=true&JigyosyoCd=3290400302-00&ServiceCd=730&Type=search", "url2": "sarasanoie@fork.ocn.ne.jp" }, "geometry": { "type": "Point", "coordinates": [ 132.820107300000018, 35.4488828 ] } },
{ "type": "Feature", "properties": { "内容": "小規模多機能型居宅介護事業所　山ぼうし【小規模多機能型居宅介護】島根県出雲市西新町1丁目2548-11", "url": "https://www.kaigokensaku.mhlw.go.jp/32/index.php?action_kouhyou_detail_004_kani=true&JigyosyoCd=3290400815-00&ServiceCd=730&Type=search", "url2": "ｈｔｔｐ：//ｙａｍａ-ｂｏｕｓｈｉ.ｃｏｍ/" }, "geometry": { "type": "Point", "coordinates": [ 132.7221003, 35.333535 ] } },
{ "type": "Feature", "properties": { "内容": "セカンド・サロン　えるだー【小規模多機能型居宅介護】島根県出雲市駅前町3丁目12－1", "url": "https://www.kaigokensaku.mhlw.go.jp/32/index.php?action_kouhyou_detail_004_kani=true&JigyosyoCd=3290400054-00&ServiceCd=730&Type=search", "url2": "https://www.elder-izumo.jp/" }, "geometry": { "type": "Point", "coordinates": [ 132.757965390213059, 35.358745589390786 ] } },
{ "type": "Feature", "properties": { "内容": "あすなろ多機能型居宅介護施設【小規模多機能型居宅介護】白枝町２７８－８", "url": "https://www.kaigokensaku.mhlw.go.jp/32/index.php?action_kouhyou_detail_004_kani=true&JigyosyoCd=3290400120-00&ServiceCd=730&Type=search", "url2": "http://www.asunarohoikuen.ed.jp/top/index.html" }, "geometry": { "type": "Point", "coordinates": [ 132.729597799999965, 35.3602823 ] } },
{ "type": "Feature", "properties": { "内容": "小規模ホームもくれん【小規模多機能型居宅介護】出雲市湖陵町三部964-1", "url": "https://www.kaigokensaku.mhlw.go.jp/32/index.php?action_kouhyou_detail_004_kani=true&JigyosyoCd=3290400443-00&ServiceCd=730&Type=search", "url2": "izumo-mokuren.com" }, "geometry": { "type": "Point", "coordinates": [ 132.67790842720035, 35.310976848723364 ] } },
{ "type": "Feature", "properties": { "内容": "小規模多機能型居宅介護施設　おんぼらと【小規模多機能型居宅介護】出雲市小山町３６２－１", "url": "https://www.kaigokensaku.mhlw.go.jp/32/index.php?action_kouhyou_detail_004_kani=true&JigyosyoCd=3290400021-00&ServiceCd=730&Type=search", "url2": "http://espoir-izumo.com/" }, "geometry": { "type": "Point", "coordinates": [ 132.740265799999946, 35.3737228 ] } },
{ "type": "Feature", "properties": { "内容": "小規模多機能型居宅介護施設　もくせい【小規模多機能型居宅介護】島根県出雲市美野町５０４", "url": "https://www.kaigokensaku.mhlw.go.jp/32/index.php?action_kouhyou_detail_004_kani=true&JigyosyoCd=3290400062-00&ServiceCd=730&Type=search", "url2": "http://inohonjin.jp/" }, "geometry": { "type": "Point", "coordinates": [ 132.900114799999983, 35.4628055 ] } },
{ "type": "Feature", "properties": { "内容": "小規模多機能ホーム　きいちご倶楽部【小規模多機能型居宅介護】島根県出雲市塩冶町南町５丁目１－３", "url": "https://www.kaigokensaku.mhlw.go.jp/32/index.php?action_kouhyou_detail_004_kani=true&JigyosyoCd=3290400500-00&ServiceCd=730&Type=search", "url2": "www.kiichigo-danran/kiichigo" }, "geometry": { "type": "Point", "coordinates": [ 132.7559321, 35.343013 ] } },
{ "type": "Feature", "properties": { "内容": "小規模多機能ホームひより【小規模多機能型居宅介護】島根県出雲市斐川町出西1767-3", "url": "https://www.kaigokensaku.mhlw.go.jp/32/index.php?action_kouhyou_detail_004_kani=true&JigyosyoCd=3291600017-00&ServiceCd=730&Type=search", "url2": null }, "geometry": { "type": "Point", "coordinates": [ 132.8033345, 35.3654724 ] } },
{ "type": "Feature", "properties": { "内容": "小規模多機能ホーム　直江の家【小規模多機能型居宅介護】出雲市斐川町直江1231-1", "url": "https://www.kaigokensaku.mhlw.go.jp/32/index.php?action_kouhyou_detail_004_kani=true&JigyosyoCd=3290400369-00&ServiceCd=730&Type=search", "url2": "http://www.naoehome.ne.jp" }, "geometry": { "type": "Point", "coordinates": [ 132.818339657147249, 35.388796873840818 ] } },
{ "type": "Feature", "properties": { "内容": "小規模多機能型居宅介護かんどの里【小規模多機能型居宅介護】島根県出雲市神門町13番地6", "url": "https://www.kaigokensaku.mhlw.go.jp/32/index.php?action_kouhyou_detail_004_kani=true&JigyosyoCd=3290400237-00&ServiceCd=730&Type=search", "url2": "http://kando-h.sakura.ne.jp/" }, "geometry": { "type": "Point", "coordinates": [ 132.713141700000051, 35.34441990000002 ] } },
{ "type": "Feature", "properties": { "内容": "小規模多機能ホーム「まほろば」【小規模多機能型居宅介護】島根県益田市高津1丁目36-7", "url": "https://www.kaigokensaku.mhlw.go.jp/32/index.php?action_kouhyou_detail_004_kani=true&JigyosyoCd=3290800220-00&ServiceCd=730&Type=search", "url2": null }, "geometry": { "type": "Point", "coordinates": [ 131.821566399999938, 34.681544 ] } },
{ "type": "Feature", "properties": { "内容": "小規模多機能ホーム　ホリデイ市原【小規模多機能型居宅介護】島根県益田市市原町イ434-1", "url": "https://www.kaigokensaku.mhlw.go.jp/32/index.php?action_kouhyou_detail_004_kani=true&JigyosyoCd=3290800022-00&ServiceCd=730&Type=search", "url2": "www.hori-kk.co.jp" }, "geometry": { "type": "Point", "coordinates": [ 131.788148500000034, 34.6714276 ] } },
{ "type": "Feature", "properties": { "内容": "小規模多機能ホーム「すみよし」【小規模多機能型居宅介護】島根県益田市本町３番１９号", "url": "https://www.kaigokensaku.mhlw.go.jp/32/index.php?action_kouhyou_detail_004_kani=true&JigyosyoCd=3290800212-00&ServiceCd=730&Type=search", "url2": null }, "geometry": { "type": "Point", "coordinates": [ 131.859306400000037, 34.676588 ] } },
{ "type": "Feature", "properties": { "内容": "小規模多機能ホームあんず【小規模多機能型居宅介護】益田市美都町仙道681番地9", "url": "https://www.kaigokensaku.mhlw.go.jp/32/index.php?action_kouhyou_detail_004_kani=true&JigyosyoCd=3290800113-00&ServiceCd=730&Type=search", "url2": null }, "geometry": { "type": "Point", "coordinates": [ 131.9375298, 34.6763913 ] } },
{ "type": "Feature", "properties": { "内容": "小規模多機能ホーム「まほろば」【小規模多機能型居宅介護】島根県益田市高津１丁目36-7", "url": "https://www.kaigokensaku.mhlw.go.jp/32/index.php?action_kouhyou_detail_004_kani=true&JigyosyoCd=3290800303-00&ServiceCd=730&Type=search", "url2": null }, "geometry": { "type": "Point", "coordinates": [ 131.8215597, 34.6816082 ] } },
{ "type": "Feature", "properties": { "内容": "小規模多機能ホームにじヶ丘【小規模多機能型居宅介護】島根県益田市乙吉町　イ７５８－４", "url": "https://www.kaigokensaku.mhlw.go.jp/32/index.php?action_kouhyou_detail_004_kani=true&JigyosyoCd=3290800287-00&ServiceCd=730&Type=search", "url2": "http://www.iwaumi.jp/" }, "geometry": { "type": "Point", "coordinates": [ 131.8489001, 34.6836814 ] } },
{ "type": "Feature", "properties": { "内容": "小規模多機能ホーム　ホリデイ市原【小規模多機能型居宅介護】島根県益田市市原町イ434-1", "url": "https://www.kaigokensaku.mhlw.go.jp/32/index.php?action_kouhyou_detail_004_kani=true&JigyosyoCd=3290800329-00&ServiceCd=730&Type=search", "url2": "https:/llc-grandlife.com/holiday_ichihara.html" }, "geometry": { "type": "Point", "coordinates": [ 131.787990799999989, 34.6715064 ] } },
{ "type": "Feature", "properties": { "内容": "小規模多機能ホームすずらん【小規模多機能型居宅介護】大田町大田イ２７５９番地５５", "url": "https://www.kaigokensaku.mhlw.go.jp/32/index.php?action_kouhyou_detail_004_kani=true&JigyosyoCd=3290500036-00&ServiceCd=730&Type=search", "url2": null }, "geometry": { "type": "Point", "coordinates": [ 132.50161520000006, 35.201247 ] } },
{ "type": "Feature", "properties": { "内容": "小規模多機能ホームすずらん川合【小規模多機能型居宅介護】島根県大田市川合町川合３５０－１", "url": "https://www.kaigokensaku.mhlw.go.jp/32/index.php?action_kouhyou_detail_004_kani=true&JigyosyoCd=3290500085-00&ServiceCd=730&Type=search", "url2": null }, "geometry": { "type": "Point", "coordinates": [ 132.508006499999965, 35.1547971 ] } },
{ "type": "Feature", "properties": { "内容": "湯の郷苑小規模多機能居宅介護支援事業所【小規模多機能型居宅介護】島根県大田市温泉津町上村４６１番地", "url": "https://www.kaigokensaku.mhlw.go.jp/32/index.php?action_kouhyou_detail_004_kani=true&JigyosyoCd=3290500127-00&ServiceCd=730&Type=search", "url2": "http://fukujikoukai.jp/" }, "geometry": { "type": "Point", "coordinates": [ 132.3494622, 35.0701246 ] } },
{ "type": "Feature", "properties": { "内容": "小規模多機能型居宅介護事業所　ほほえみ【小規模多機能型居宅介護】島根県大田市仁摩町天河内821-6", "url": "https://www.kaigokensaku.mhlw.go.jp/32/index.php?action_kouhyou_detail_004_kani=true&JigyosyoCd=3290500051-00&ServiceCd=730&Type=search", "url2": "http://www.shiosai.or.jp/" }, "geometry": { "type": "Point", "coordinates": [ 132.408358200000066, 35.1444813 ] } },
{ "type": "Feature", "properties": { "内容": "小規模多機能型居宅介護事業所　えがお【小規模多機能型居宅介護】島根県大田市長久町長久イ75-1", "url": "https://www.kaigokensaku.mhlw.go.jp/32/index.php?action_kouhyou_detail_004_kani=true&JigyosyoCd=3290500101-00&ServiceCd=730&Type=search", "url2": "http：//www.siosai.or.jp/" }, "geometry": { "type": "Point", "coordinates": [ 132.48574439999993, 35.2058184 ] } },
{ "type": "Feature", "properties": { "内容": "小規模ホーム　あんきな【小規模多機能型居宅介護】島根県大田市波根町1270番地1", "url": "https://www.kaigokensaku.mhlw.go.jp/32/index.php?action_kouhyou_detail_004_kani=true&JigyosyoCd=3290500069-00&ServiceCd=730&Type=search", "url2": "http://www.well-nc.or.jp/" }, "geometry": { "type": "Point", "coordinates": [ 132.527353400000038, 35.2399401 ] } },
{ "type": "Feature", "properties": { "内容": "七色館・雪見の里【小規模多機能型居宅介護】島根県大田市大田町大田イ３７５－３", "url": "https://www.kaigokensaku.mhlw.go.jp/32/index.php?action_kouhyou_detail_004_kani=true&JigyosyoCd=3290500044-00&ServiceCd=730&Type=search", "url2": "http://www.nanairokan.jp" }, "geometry": { "type": "Point", "coordinates": [ 132.505714799999964, 35.1951755 ] } },
{ "type": "Feature", "properties": { "内容": "小規模多機能型居宅介護事業所　ことぶきの家【小規模多機能型居宅介護】島根県安来市安来町899-1安来第一病院　本館　2階", "url": "https://www.kaigokensaku.mhlw.go.jp/32/index.php?action_kouhyou_detail_004_kani=true&JigyosyoCd=3290200124-00&ServiceCd=730&Type=search", "url2": "htto//www.syourinkai.or.jp" }, "geometry": { "type": "Point", "coordinates": [ 133.252330925794894, 35.432091344253365 ] } },
{ "type": "Feature", "properties": { "内容": "小規模多機能センターひだまりの里【小規模多機能型居宅介護】島根県安来市広瀬町町帳８０－３", "url": "https://www.kaigokensaku.mhlw.go.jp/32/index.php?action_kouhyou_detail_004_kani=true&JigyosyoCd=3290200116-00&ServiceCd=730&Type=search", "url2": "ｈｔｔｐ：／／ｗｗｗ．ｓｉｒａｓａｇｉ－ｙａｓｕｇｉ．ｏｒ．ｊｐ" }, "geometry": { "type": "Point", "coordinates": [ 133.182458188577243, 35.374093269797051 ] } },
{ "type": "Feature", "properties": { "内容": "ふるさと母里【小規模多機能型居宅介護】島根県安来市伯太町東母里482番地2", "url": "https://www.kaigokensaku.mhlw.go.jp/32/index.php?action_kouhyou_detail_004_kani=true&JigyosyoCd=3290200082-00&ServiceCd=730&Type=search", "url2": "www.hakuikai.jp/" }, "geometry": { "type": "Point", "coordinates": [ 133.277136852917465, 35.352847606872679 ] } },
{ "type": "Feature", "properties": { "内容": "デイサービスセンターエスポワール【小規模多機能型居宅介護】島根県安来市荒島町２１７７－１４", "url": "https://www.kaigokensaku.mhlw.go.jp/32/index.php?action_kouhyou_detail_004_kani=true&JigyosyoCd=3290200025-00&ServiceCd=730&Type=search", "url2": "http://www.sendankai.net" }, "geometry": { "type": "Point", "coordinates": [ 133.203860100000043, 35.4326388 ] } },
{ "type": "Feature", "properties": { "内容": "小規模多機能型居宅介護事業所　モモ【小規模多機能型居宅介護】島根県江津市敬川町1230番地1", "url": "https://www.kaigokensaku.mhlw.go.jp/32/index.php?action_kouhyou_detail_004_kani=true&JigyosyoCd=3290600026-00&ServiceCd=730&Type=search", "url2": "http://www.iwamifukusikai" }, "geometry": { "type": "Point", "coordinates": [ 132.1744324, 34.9761375 ] } },
{ "type": "Feature", "properties": { "内容": "小規模多機能型居宅介護　合歓の丘【小規模多機能型居宅介護】島根県江津市後地町2935番地4", "url": "https://www.kaigokensaku.mhlw.go.jp/32/index.php?action_kouhyou_detail_004_kani=true&JigyosyoCd=3290600109-00&ServiceCd=730&Type=search", "url2": "http://www.hana-mura.net" }, "geometry": { "type": "Point", "coordinates": [ 132.286532800000032, 35.0437418 ] } },
{ "type": "Feature", "properties": { "内容": "いろいろホームゆったり【小規模多機能型居宅介護】嘉久志町イ1735-1", "url": "https://www.kaigokensaku.mhlw.go.jp/32/index.php?action_kouhyou_detail_004_kani=true&JigyosyoCd=3290600083-00&ServiceCd=730&Type=search", "url2": null }, "geometry": { "type": "Point", "coordinates": [ 132.209774550370753, 35.009881358581914 ] } },
{ "type": "Feature", "properties": { "内容": "小田の家　ほのか【小規模多機能型居宅介護】江津市桜江町小田１００－７", "url": "https://www.kaigokensaku.mhlw.go.jp/32/index.php?action_kouhyou_detail_004_kani=true&JigyosyoCd=3290600042-00&ServiceCd=730&Type=search", "url2": null }, "geometry": { "type": "Point", "coordinates": [ 132.328716046627022, 34.949469221104501 ] } },
{ "type": "Feature", "properties": { "内容": "集いの家　木もれ陽【小規模多機能型居宅介護】嘉久志町イ１６７８", "url": "https://www.kaigokensaku.mhlw.go.jp/32/index.php?action_kouhyou_detail_004_kani=true&JigyosyoCd=3290600018-00&ServiceCd=730&Type=search", "url2": null }, "geometry": { "type": "Point", "coordinates": [ 132.210967500000038, 35.0050988 ] } },
{ "type": "Feature", "properties": { "内容": "集いの家あかり【小規模多機能型居宅介護】島根県江津市渡津町５７８", "url": "https://www.kaigokensaku.mhlw.go.jp/32/index.php?action_kouhyou_detail_004_kani=true&JigyosyoCd=3290600117-00&ServiceCd=730&Type=search", "url2": null }, "geometry": { "type": "Point", "coordinates": [ 132.23353131607746, 35.019511001732766 ] } },
{ "type": "Feature", "properties": { "内容": "サンキ・ウエルビィ小規模多機能センター雲南【小規模多機能型居宅介護】島根県雲南市三刀屋町三刀屋４－７", "url": "https://www.kaigokensaku.mhlw.go.jp/32/index.php?action_kouhyou_detail_004_kani=true&JigyosyoCd=3291400111-00&ServiceCd=730&Type=search", "url2": null }, "geometry": { "type": "Point", "coordinates": [ 132.870547399999964, 35.2879695 ] } },
{ "type": "Feature", "properties": { "内容": "ふかのの里【小規模多機能型居宅介護】島根県雲南市吉田町深野84番地6", "url": "https://www.kaigokensaku.mhlw.go.jp/32/index.php?action_kouhyou_detail_004_kani=true&JigyosyoCd=3291400103-00&ServiceCd=730&Type=search", "url2": "http://yoshida-fukushikai.jp" }, "geometry": { "type": "Point", "coordinates": [ 132.915962700000023, 35.2038261 ] } },
{ "type": "Feature", "properties": { "内容": "小規模多機能型居宅介護事業所　雲南ゆりさわ【小規模多機能型居宅介護】雲南市三刀屋町伊萱40－8", "url": "https://www.kaigokensaku.mhlw.go.jp/32/index.php?action_kouhyou_detail_004_kani=true&JigyosyoCd=3291400061-00&ServiceCd=730&Type=search", "url2": "https://amigo-shimane.jp" }, "geometry": { "type": "Point", "coordinates": [ 132.889403099999981, 35.3209237 ] } },
{ "type": "Feature", "properties": { "内容": "小規模多機能型居宅介護事業所　大東ゆりさわ【小規模多機能型居宅介護】島根県雲南市大東町中湯石８２", "url": "https://www.kaigokensaku.mhlw.go.jp/32/index.php?action_kouhyou_detail_004_kani=true&JigyosyoCd=3291400053-00&ServiceCd=730&Type=search", "url2": "http://amigo-shimane.jp/" }, "geometry": { "type": "Point", "coordinates": [ 132.993558137279479, 35.326134562224127 ] } },
{ "type": "Feature", "properties": { "内容": "小規模多機能ホ－ム雲水屋【小規模多機能型居宅介護】島根県雲南市大東町養賀772-1", "url": "https://www.kaigokensaku.mhlw.go.jp/32/index.php?action_kouhyou_detail_004_kani=true&JigyosyoCd=3291400202-00&ServiceCd=730&Type=search", "url2": null }, "geometry": { "type": "Point", "coordinates": [ 132.949679899999978, 35.3299239 ] } },
{ "type": "Feature", "properties": { "内容": "小規模多機能型居宅介護事業所　ふるさと風の家【小規模多機能型居宅介護】島根県仁多郡奥出雲町三沢927-58", "url": "https://www.kaigokensaku.mhlw.go.jp/32/index.php?action_kouhyou_detail_004_kani=true&JigyosyoCd=3291300048-00&ServiceCd=730&Type=search", "url2": null }, "geometry": { "type": "Point", "coordinates": [ 132.990997019731424, 35.199757762570712 ] } },
{ "type": "Feature", "properties": { "内容": "小規模多機能型居宅介護事業所「ブナの木」【小規模多機能型居宅介護】島根県飯石郡飯南町小田276－1", "url": "https://www.kaigokensaku.mhlw.go.jp/32/index.php?action_kouhyou_detail_004_kani=true&JigyosyoCd=3291500027-00&ServiceCd=730&Type=search", "url2": "https://iori-iinan.com/" }, "geometry": { "type": "Point", "coordinates": [ 132.750306899999941, 35.0171059 ] } },
{ "type": "Feature", "properties": { "内容": "小規模多機能型居宅介護事業所　庵【小規模多機能型居宅介護】島根県飯石郡飯南町八神639-1", "url": "https://www.kaigokensaku.mhlw.go.jp/32/index.php?action_kouhyou_detail_004_kani=true&JigyosyoCd=3291500068-00&ServiceCd=730&Type=search", "url2": "https://iori-iinan.com" }, "geometry": { "type": "Point", "coordinates": [ 132.693604357116669, 35.109563794567727 ] } },
{ "type": "Feature", "properties": { "内容": "小規模多機能ホーム　あゆみの杜【小規模多機能型居宅介護】島根県飯石郡飯南町頓原１０７０番地", "url": "https://www.kaigokensaku.mhlw.go.jp/32/index.php?action_kouhyou_detail_004_kani=true&JigyosyoCd=3291500019-00&ServiceCd=730&Type=search", "url2": "iinanfukushishisetsu.com" }, "geometry": { "type": "Point", "coordinates": [ 132.792841800000019, 35.0810092 ] } },
{ "type": "Feature", "properties": { "内容": "小規模多機能型居宅介護　ふたばの里【小規模多機能型居宅介護】島根県邑智郡美郷町長藤７４５番地５", "url": "https://www.kaigokensaku.mhlw.go.jp/32/index.php?action_kouhyou_detail_004_kani=true&JigyosyoCd=3291800039-00&ServiceCd=730&Type=search", "url2": "http://fish.miracle.ne.jp/f-wave" }, "geometry": { "type": "Point", "coordinates": [ 132.6313146, 35.0120042 ] } },
{ "type": "Feature", "properties": { "内容": "本郷小規模多機能型居宅介護事業所【小規模多機能型居宅介護】島根県隠岐郡西ノ島町大字浦郷４５３番地", "url": "https://www.kaigokensaku.mhlw.go.jp/32/index.php?action_kouhyou_detail_004_kani=true&JigyosyoCd=3292200106-00&ServiceCd=730&Type=search", "url2": null }, "geometry": { "type": "Point", "coordinates": [ 132.994616700000051, 36.0953237 ] } },
{ "type": "Feature", "properties": { "内容": "小規模多機能型居宅施設　わがんと【小規模多機能型居宅介護】島根県隠岐郡隠岐の島町中村72-1", "url": "https://www.kaigokensaku.mhlw.go.jp/32/index.php?action_kouhyou_detail_004_kani=true&JigyosyoCd=3292200072-00&ServiceCd=730&Type=search", "url2": "https://okiokisample.com" }, "geometry": { "type": "Point", "coordinates": [ 133.302271499999961, 36.3186562 ] } },
{ "type": "Feature", "properties": { "内容": "小規模多機能ホーム風和里【小規模多機能型居宅介護】隠岐郡隠岐の島町有木山崎１０－１", "url": "https://www.kaigokensaku.mhlw.go.jp/32/index.php?action_kouhyou_detail_004_kani=true&JigyosyoCd=3292200056-00&ServiceCd=730&Type=search", "url2": "https://furusatokoubou.web.fc2.com/" }, "geometry": { "type": "Point", "coordinates": [ 133.321436100000028, 36.2176375 ] } },
{ "type": "Feature", "properties": { "内容": "小規模多機能型居宅介護　なかよし【小規模多機能型居宅介護】島根県隠岐郡隠岐の島町下西８１９番地", "url": "https://www.kaigokensaku.mhlw.go.jp/32/index.php?action_kouhyou_detail_004_kani=true&JigyosyoCd=3292200080-00&ServiceCd=730&Type=search", "url2": null }, "geometry": { "type": "Point", "coordinates": [ 133.3122763, 36.209441 ] } }
]
}
