{
"type": "FeatureCollection",
"name": "geo_32_4",
"crs": { "type": "name", "properties": { "name": "urn:ogc:def:crs:OGC:1.3:CRS84" } },
"features": [
{ "type": "Feature", "properties": { "ID": 3244000000020, "正式名称": "原助産院", "機関区分": 4, "都道府県コード": 32, "市区町村コード": 201, "所在地": "島根県松江市東津田町１６８８ー１６", "緯度": 35.451053, "経度": 133.085696, "url": "https://www.iryou.teikyouseido.mhlw.go.jp/znk-web/juminkanja/S2430/initialize?prefCd=32&kikanCd=4000000020&kikanKbn=4", "url2": null, "内容": "原助産院【4:助産院】島根県松江市東津田町１６８８ー１６" }, "geometry": { "type": "Point", "coordinates": [ 133.085696, 35.451053 ] } },
{ "type": "Feature", "properties": { "ID": 3244000000060, "正式名称": "かわしま母乳・育児相談室", "機関区分": 4, "都道府県コード": 32, "市区町村コード": 201, "所在地": "島根県松江市砂子町１９３－３サーパス砂子町２０３号", "緯度": 35.473494, "経度": 133.045129, "url": "https://www.iryou.teikyouseido.mhlw.go.jp/znk-web/juminkanja/S2430/initialize?prefCd=32&kikanCd=4000000060&kikanKbn=4", "url2": null, "内容": "かわしま母乳・育児相談室【4:助産院】島根県松江市砂子町１９３－３サーパス砂子町２０３号" }, "geometry": { "type": "Point", "coordinates": [ 133.045129, 35.473494 ] } },
{ "type": "Feature", "properties": { "ID": 3244000001050, "正式名称": "大畑助産所", "機関区分": 4, "都道府県コード": 32, "市区町村コード": 204, "所在地": "島根県益田市高津４－２－１５", "緯度": 34.685497, "経度": 131.805925, "url": "https://www.iryou.teikyouseido.mhlw.go.jp/znk-web/juminkanja/S2430/initialize?prefCd=32&kikanCd=4000001050&kikanKbn=4", "url2": null, "内容": "大畑助産所【4:助産院】島根県益田市高津４－２－１５" }, "geometry": { "type": "Point", "coordinates": [ 131.805925, 34.685497 ] } },
{ "type": "Feature", "properties": { "ID": 3244000001060, "正式名称": "山本助産院", "機関区分": 4, "都道府県コード": 32, "市区町村コード": 204, "所在地": "島根県益田市隅村町７６７－２", "緯度": 34.611499, "経度": 131.819973, "url": "https://www.iryou.teikyouseido.mhlw.go.jp/znk-web/juminkanja/S2430/initialize?prefCd=32&kikanCd=4000001060&kikanKbn=4", "url2": null, "内容": "山本助産院【4:助産院】島根県益田市隅村町７６７－２" }, "geometry": { "type": "Point", "coordinates": [ 131.819973, 34.611499 ] } },
{ "type": "Feature", "properties": { "ID": 3244000001160, "正式名称": "まにわ助産院", "機関区分": 4, "都道府県コード": 32, "市区町村コード": 203, "所在地": "島根県出雲市天神町１２９－５", "緯度": 35.368261, "経度": 132.735722, "url": "https://www.iryou.teikyouseido.mhlw.go.jp/znk-web/juminkanja/S2430/initialize?prefCd=32&kikanCd=4000001160&kikanKbn=4", "url2": null, "内容": "まにわ助産院【4:助産院】島根県出雲市天神町１２９－５" }, "geometry": { "type": "Point", "coordinates": [ 132.735722, 35.368261 ] } },
{ "type": "Feature", "properties": { "ID": 3244000001220, "正式名称": "Ａｙａ母乳育児相談室", "機関区分": 4, "都道府県コード": 32, "市区町村コード": 201, "所在地": "島根県松江市乃木福富町５４３－１", "緯度": 35.437853, "経度": 133.04675, "url": "https://www.iryou.teikyouseido.mhlw.go.jp/znk-web/juminkanja/S2430/initialize?prefCd=32&kikanCd=4000001220&kikanKbn=4", "url2": null, "内容": "Ａｙａ母乳育児相談室【4:助産院】島根県松江市乃木福富町５４３－１" }, "geometry": { "type": "Point", "coordinates": [ 133.04675, 35.437853 ] } },
{ "type": "Feature", "properties": { "ID": 3244000001280, "正式名称": "上の助産院", "機関区分": 4, "都道府県コード": 32, "市区町村コード": 203, "所在地": "島根県出雲市大社町杵築西２３７７", "緯度": 35.396278, "経度": 132.677347, "url": "https://www.iryou.teikyouseido.mhlw.go.jp/znk-web/juminkanja/S2430/initialize?prefCd=32&kikanCd=4000001280&kikanKbn=4", "url2": null, "内容": "上の助産院【4:助産院】島根県出雲市大社町杵築西２３７７" }, "geometry": { "type": "Point", "coordinates": [ 132.677347, 35.396278 ] } },
{ "type": "Feature", "properties": { "ID": 3244000001300, "正式名称": "中山母乳相談所", "機関区分": 4, "都道府県コード": 32, "市区町村コード": 201, "所在地": "島根県松江市東持田町２０５−２４９", "緯度": 35.503109, "経度": 133.083574, "url": "https://www.iryou.teikyouseido.mhlw.go.jp/znk-web/juminkanja/S2430/initialize?prefCd=32&kikanCd=4000001300&kikanKbn=4", "url2": null, "内容": "中山母乳相談所【4:助産院】島根県松江市東持田町２０５−２４９" }, "geometry": { "type": "Point", "coordinates": [ 133.083574, 35.503109 ] } },
{ "type": "Feature", "properties": { "ID": 3244000001310, "正式名称": "すぎはら母乳育児相談所", "機関区分": 4, "都道府県コード": 32, "市区町村コード": 201, "所在地": "島根県松江市東津田町２１６８－４５９", "緯度": 35.452367, "経度": 133.096608, "url": "https://www.iryou.teikyouseido.mhlw.go.jp/znk-web/juminkanja/S2430/initialize?prefCd=32&kikanCd=4000001310&kikanKbn=4", "url2": null, "内容": "すぎはら母乳育児相談所【4:助産院】島根県松江市東津田町２１６８－４５９" }, "geometry": { "type": "Point", "coordinates": [ 133.096608, 35.452367 ] } },
{ "type": "Feature", "properties": { "ID": 3244000001380, "正式名称": "母子支援事業所のぎ", "機関区分": 4, "都道府県コード": 32, "市区町村コード": 206, "所在地": "島根県安来市実松町９８ー１", "緯度": 35.395203, "経度": 133.221247, "url": "https://www.iryou.teikyouseido.mhlw.go.jp/znk-web/juminkanja/S2430/initialize?prefCd=32&kikanCd=4000001380&kikanKbn=4", "url2": "http://care-nogi.com/", "内容": "母子支援事業所のぎ【4:助産院】島根県安来市実松町９８ー１" }, "geometry": { "type": "Point", "coordinates": [ 133.221247, 35.395203 ] } },
{ "type": "Feature", "properties": { "ID": 3244000001410, "正式名称": "桶谷式ケイ母乳育児相談室", "機関区分": 4, "都道府県コード": 32, "市区町村コード": 207, "所在地": "島根県江津市敬川町１７５１", "緯度": 34.975321, "経度": 132.171395, "url": "https://www.iryou.teikyouseido.mhlw.go.jp/znk-web/juminkanja/S2430/initialize?prefCd=32&kikanCd=4000001410&kikanKbn=4", "url2": null, "内容": "桶谷式ケイ母乳育児相談室【4:助産院】島根県江津市敬川町１７５１" }, "geometry": { "type": "Point", "coordinates": [ 132.171395, 34.975321 ] } },
{ "type": "Feature", "properties": { "ID": 3244000001430, "正式名称": "かせべ助産院", "機関区分": 4, "都道府県コード": 32, "市区町村コード": 203, "所在地": "島根県出雲市湖陵町二部１６４４－１", "緯度": 35.319509, "経度": 132.669505, "url": "https://www.iryou.teikyouseido.mhlw.go.jp/znk-web/juminkanja/S2430/initialize?prefCd=32&kikanCd=4000001430&kikanKbn=4", "url2": null, "内容": "かせべ助産院【4:助産院】島根県出雲市湖陵町二部１６４４－１" }, "geometry": { "type": "Point", "coordinates": [ 132.669505, 35.319509 ] } },
{ "type": "Feature", "properties": { "ID": 3244000001440, "正式名称": "グランマの赤ちゃん相談室ささきゆきえ", "機関区分": 4, "都道府県コード": 32, "市区町村コード": 204, "所在地": "島根県益田市中島町イ９８４", "緯度": 34.68779, "経度": 131.83249, "url": "https://www.iryou.teikyouseido.mhlw.go.jp/znk-web/juminkanja/S2430/initialize?prefCd=32&kikanCd=4000001440&kikanKbn=4", "url2": null, "内容": "グランマの赤ちゃん相談室ささきゆきえ【4:助産院】島根県益田市中島町イ９８４" }, "geometry": { "type": "Point", "coordinates": [ 131.83249, 34.68779 ] } },
{ "type": "Feature", "properties": { "ID": 3244000001450, "正式名称": "ママケアーＭＩＷＡ助産院", "機関区分": 4, "都道府県コード": 32, "市区町村コード": 202, "所在地": "島根県浜田市黒川町３７３３−９", "緯度": 34.89973, "経度": 132.09215, "url": "https://www.iryou.teikyouseido.mhlw.go.jp/znk-web/juminkanja/S2430/initialize?prefCd=32&kikanCd=4000001450&kikanKbn=4", "url2": null, "内容": "ママケアーＭＩＷＡ助産院【4:助産院】島根県浜田市黒川町３７３３−９" }, "geometry": { "type": "Point", "coordinates": [ 132.09215, 34.89973 ] } },
{ "type": "Feature", "properties": { "ID": 3244000001460, "正式名称": "比良（ひら）助産院", "機関区分": 4, "都道府県コード": 32, "市区町村コード": 203, "所在地": "島根県出雲市今市町１６６１ー１９", "緯度": 35.364262, "経度": 132.764474, "url": "https://www.iryou.teikyouseido.mhlw.go.jp/znk-web/juminkanja/S2430/initialize?prefCd=32&kikanCd=4000001460&kikanKbn=4", "url2": "https://www.midwifemap.com/mysite/hirajosan-in/staff/", "内容": "比良（ひら）助産院【4:助産院】島根県出雲市今市町１６６１ー１９" }, "geometry": { "type": "Point", "coordinates": [ 132.764474, 35.364262 ] } },
{ "type": "Feature", "properties": { "ID": 3244000001470, "正式名称": "おばた助産院　母乳と育児なんでも相談室", "機関区分": 4, "都道府県コード": 32, "市区町村コード": 449, "所在地": "島根県邑智郡邑南町矢上３９０１－２", "緯度": 34.88915, "経度": 132.439219, "url": "https://www.iryou.teikyouseido.mhlw.go.jp/znk-web/juminkanja/S2430/initialize?prefCd=32&kikanCd=4000001470&kikanKbn=4", "url2": null, "内容": "おばた助産院　母乳と育児なんでも相談室【4:助産院】島根県邑智郡邑南町矢上３９０１－２" }, "geometry": { "type": "Point", "coordinates": [ 132.439219, 34.88915 ] } },
{ "type": "Feature", "properties": { "ID": 3244000001520, "正式名称": "ファミリー母乳・育児相談所", "機関区分": 4, "都道府県コード": 32, "市区町村コード": 201, "所在地": "島根県松江市乃木福富町２６８－１９", "緯度": 35.438955, "経度": 133.045855, "url": "https://www.iryou.teikyouseido.mhlw.go.jp/znk-web/juminkanja/S2430/initialize?prefCd=32&kikanCd=4000001520&kikanKbn=4", "url2": null, "内容": "ファミリー母乳・育児相談所【4:助産院】島根県松江市乃木福富町２６８－１９" }, "geometry": { "type": "Point", "coordinates": [ 133.045855, 35.438955 ] } },
{ "type": "Feature", "properties": { "ID": 3244000001540, "正式名称": "ＮＡＬＵ助産院", "機関区分": 4, "都道府県コード": 32, "市区町村コード": 209, "所在地": "島根県雲南市加茂町大西６０８−２", "緯度": 35.340699, "経度": 132.920305, "url": "https://www.iryou.teikyouseido.mhlw.go.jp/znk-web/juminkanja/S2430/initialize?prefCd=32&kikanCd=4000001540&kikanKbn=4", "url2": "https://nalu-jyosanin.studio.site/", "内容": "ＮＡＬＵ助産院【4:助産院】島根県雲南市加茂町大西６０８−２" }, "geometry": { "type": "Point", "coordinates": [ 132.920305, 35.340699 ] } },
{ "type": "Feature", "properties": { "ID": 3244000001560, "正式名称": "きくつぎ助産院", "機関区分": 4, "都道府県コード": 32, "市区町村コード": 505, "所在地": "島根県鹿足郡吉賀町広石１８８－２", "緯度": 34.362338, "経度": 131.920413, "url": "https://www.iryou.teikyouseido.mhlw.go.jp/znk-web/juminkanja/S2430/initialize?prefCd=32&kikanCd=4000001560&kikanKbn=4", "url2": null, "内容": "きくつぎ助産院【4:助産院】島根県鹿足郡吉賀町広石１８８－２" }, "geometry": { "type": "Point", "coordinates": [ 131.920413, 34.362338 ] } },
{ "type": "Feature", "properties": { "ID": 3244000001570, "正式名称": "じゅん助産院", "機関区分": 4, "都道府県コード": 32, "市区町村コード": 203, "所在地": "島根県出雲市浜町１８８３－１０", "緯度": 35.368913, "経度": 132.716109, "url": "https://www.iryou.teikyouseido.mhlw.go.jp/znk-web/juminkanja/S2430/initialize?prefCd=32&kikanCd=4000001570&kikanKbn=4", "url2": null, "内容": "じゅん助産院【4:助産院】島根県出雲市浜町１８８３－１０" }, "geometry": { "type": "Point", "coordinates": [ 132.716109, 35.368913 ] } },
{ "type": "Feature", "properties": { "ID": 3244000001580, "正式名称": "かねさか母乳相談所", "機関区分": 4, "都道府県コード": 32, "市区町村コード": 201, "所在地": "島根県松江市古志原五丁目１１番２２号", "緯度": 35.443458, "経度": 133.081836, "url": "https://www.iryou.teikyouseido.mhlw.go.jp/znk-web/juminkanja/S2430/initialize?prefCd=32&kikanCd=4000001580&kikanKbn=4", "url2": null, "内容": "かねさか母乳相談所【4:助産院】島根県松江市古志原五丁目１１番２２号" }, "geometry": { "type": "Point", "coordinates": [ 133.081836, 35.443458 ] } },
{ "type": "Feature", "properties": { "ID": 3244000001590, "正式名称": "わこ助産院", "機関区分": 4, "都道府県コード": 32, "市区町村コード": 203, "所在地": "島根県出雲市大津朝倉１−９−１４", "緯度": 35.373445, "経度": 132.762475, "url": "https://www.iryou.teikyouseido.mhlw.go.jp/znk-web/juminkanja/S2430/initialize?prefCd=32&kikanCd=4000001590&kikanKbn=4", "url2": "https://wakojosanin.net/", "内容": "わこ助産院【4:助産院】島根県出雲市大津朝倉１−９−１４" }, "geometry": { "type": "Point", "coordinates": [ 132.762475, 35.373445 ] } },
{ "type": "Feature", "properties": { "ID": 3244000001600, "正式名称": "たばら助産院", "機関区分": 4, "都道府県コード": 32, "市区町村コード": 204, "所在地": "島根県益田市安富町１９５４－１", "緯度": 34.649481, "経度": 131.808831, "url": "https://www.iryou.teikyouseido.mhlw.go.jp/znk-web/juminkanja/S2430/initialize?prefCd=32&kikanCd=4000001600&kikanKbn=4", "url2": null, "内容": "たばら助産院【4:助産院】島根県益田市安富町１９５４－１" }, "geometry": { "type": "Point", "coordinates": [ 131.808831, 34.649481 ] } },
{ "type": "Feature", "properties": { "ID": 3244000001610, "正式名称": "えんまる助産院", "機関区分": 4, "都道府県コード": 32, "市区町村コード": 203, "所在地": "島根県出雲市松寄下町１１１４－２４", "緯度": 35.369675, "経度": 132.705361, "url": "https://www.iryou.teikyouseido.mhlw.go.jp/znk-web/juminkanja/S2430/initialize?prefCd=32&kikanCd=4000001610&kikanKbn=4", "url2": "https://enmaruco.my.canva.site/hp", "内容": "えんまる助産院【4:助産院】島根県出雲市松寄下町１１１４－２４" }, "geometry": { "type": "Point", "coordinates": [ 132.705361, 35.369675 ] } },
{ "type": "Feature", "properties": { "ID": 3244000001620, "正式名称": "すぎはら助産院", "機関区分": 4, "都道府県コード": 32, "市区町村コード": 203, "所在地": "島根県出雲市斐川町富村３７６－５", "緯度": 35.375436, "経度": 132.798797, "url": "https://www.iryou.teikyouseido.mhlw.go.jp/znk-web/juminkanja/S2430/initialize?prefCd=32&kikanCd=4000001620&kikanKbn=4", "url2": null, "内容": "すぎはら助産院【4:助産院】島根県出雲市斐川町富村３７６－５" }, "geometry": { "type": "Point", "coordinates": [ 132.798797, 35.375436 ] } },
{ "type": "Feature", "properties": { "ID": 3244000001640, "正式名称": "うい助産院", "機関区分": 4, "都道府県コード": 32, "市区町村コード": 202, "所在地": "島根県浜田市下府町下府町９２４−２", "緯度": 34.93062, "経度": 132.109492, "url": "https://www.iryou.teikyouseido.mhlw.go.jp/znk-web/juminkanja/S2430/initialize?prefCd=32&kikanCd=4000001640&kikanKbn=4", "url2": null, "内容": "うい助産院【4:助産院】島根県浜田市下府町下府町９２４−２" }, "geometry": { "type": "Point", "coordinates": [ 132.109492, 34.93062 ] } },
{ "type": "Feature", "properties": { "ID": 3244000001650, "正式名称": "秦助産院", "機関区分": 4, "都道府県コード": 32, "市区町村コード": 201, "所在地": "島根県松江市北田町８６－４８", "緯度": 35.476661, "経度": 133.061461, "url": "https://www.iryou.teikyouseido.mhlw.go.jp/znk-web/juminkanja/S2430/initialize?prefCd=32&kikanCd=4000001650&kikanKbn=4", "url2": null, "内容": "秦助産院【4:助産院】島根県松江市北田町８６－４８" }, "geometry": { "type": "Point", "coordinates": [ 133.061461, 35.476661 ] } },
{ "type": "Feature", "properties": { "ID": 3244000001660, "正式名称": "おかもと助産院", "機関区分": 4, "都道府県コード": 32, "市区町村コード": 201, "所在地": "島根県松江市古曽志町５６７－１８", "緯度": 35.483367, "経度": 132.988475, "url": "https://www.iryou.teikyouseido.mhlw.go.jp/znk-web/juminkanja/S2430/initialize?prefCd=32&kikanCd=4000001660&kikanKbn=4", "url2": null, "内容": "おかもと助産院【4:助産院】島根県松江市古曽志町５６７－１８" }, "geometry": { "type": "Point", "coordinates": [ 132.988475, 35.483367 ] } },
{ "type": "Feature", "properties": { "ID": 3244000001670, "正式名称": "しのぶ喫茶去助産院", "機関区分": 4, "都道府県コード": 32, "市区町村コード": 203, "所在地": "島根県出雲市斐川町阿宮１８０４", "緯度": 35.346023, "経度": 132.826959, "url": "https://www.iryou.teikyouseido.mhlw.go.jp/znk-web/juminkanja/S2430/initialize?prefCd=32&kikanCd=4000001670&kikanKbn=4", "url2": null, "内容": "しのぶ喫茶去助産院【4:助産院】島根県出雲市斐川町阿宮１８０４" }, "geometry": { "type": "Point", "coordinates": [ 132.826959, 35.346023 ] } },
{ "type": "Feature", "properties": { "ID": 3244000001680, "正式名称": "ワタナベ相談室", "機関区分": 4, "都道府県コード": 32, "市区町村コード": 201, "所在地": "島根県松江市東忌部町６４５－５", "緯度": 35.410686, "経度": 133.038875, "url": "https://www.iryou.teikyouseido.mhlw.go.jp/znk-web/juminkanja/S2430/initialize?prefCd=32&kikanCd=4000001680&kikanKbn=4", "url2": null, "内容": "ワタナベ相談室【4:助産院】島根県松江市東忌部町６４５－５" }, "geometry": { "type": "Point", "coordinates": [ 133.038875, 35.410686 ] } },
{ "type": "Feature", "properties": { "ID": 3244000001690, "正式名称": "赤ちゃんとお母さんの保健室", "機関区分": 4, "都道府県コード": 32, "市区町村コード": 206, "所在地": "島根県安来市宇賀荘町９１の１", "緯度": 35.395058, "経度": 133.26244, "url": "https://www.iryou.teikyouseido.mhlw.go.jp/znk-web/juminkanja/S2430/initialize?prefCd=32&kikanCd=4000001690&kikanKbn=4", "url2": null, "内容": "赤ちゃんとお母さんの保健室【4:助産院】島根県安来市宇賀荘町９１の１" }, "geometry": { "type": "Point", "coordinates": [ 133.26244, 35.395058 ] } },
{ "type": "Feature", "properties": { "ID": 3244000001700, "正式名称": "大里助産院", "機関区分": 4, "都道府県コード": 32, "市区町村コード": 204, "所在地": "島根県益田市乙吉町イ３４６ー１２", "緯度": 34.677751, "経度": 131.847755, "url": "https://www.iryou.teikyouseido.mhlw.go.jp/znk-web/juminkanja/S2430/initialize?prefCd=32&kikanCd=4000001700&kikanKbn=4", "url2": null, "内容": "大里助産院【4:助産院】島根県益田市乙吉町イ３４６ー１２" }, "geometry": { "type": "Point", "coordinates": [ 131.847755, 34.677751 ] } },
{ "type": "Feature", "properties": { "ID": 3244000001710, "正式名称": "さかぐち助産院", "機関区分": 4, "都道府県コード": 32, "市区町村コード": 201, "所在地": "島根県松江市東奥谷町１６８－１", "緯度": 35.485986, "経度": 133.055042, "url": "https://www.iryou.teikyouseido.mhlw.go.jp/znk-web/juminkanja/S2430/initialize?prefCd=32&kikanCd=4000001710&kikanKbn=4", "url2": null, "内容": "さかぐち助産院【4:助産院】島根県松江市東奥谷町１６８－１" }, "geometry": { "type": "Point", "coordinates": [ 133.055042, 35.485986 ] } },
{ "type": "Feature", "properties": { "ID": 3244000001720, "正式名称": "出張助産師きくちＡｌｌａｙ", "機関区分": 4, "都道府県コード": 32, "市区町村コード": 206, "所在地": "島根県安来市安来町１０８７", "緯度": 35.431833, "経度": 133.254836, "url": "https://www.iryou.teikyouseido.mhlw.go.jp/znk-web/juminkanja/S2430/initialize?prefCd=32&kikanCd=4000001720&kikanKbn=4", "url2": null, "内容": "出張助産師きくちＡｌｌａｙ【4:助産院】島根県安来市安来町１０８７" }, "geometry": { "type": "Point", "coordinates": [ 133.254836, 35.431833 ] } },
{ "type": "Feature", "properties": { "ID": 3244000001730, "正式名称": "マタニティハウス花", "機関区分": 4, "都道府県コード": 32, "市区町村コード": 207, "所在地": "島根県江津市嘉久志町６３３－３", "緯度": 35.00175, "経度": 132.209547, "url": "https://www.iryou.teikyouseido.mhlw.go.jp/znk-web/juminkanja/S2430/initialize?prefCd=32&kikanCd=4000001730&kikanKbn=4", "url2": "maternityhousehana.com", "内容": "マタニティハウス花【4:助産院】島根県江津市嘉久志町６３３－３" }, "geometry": { "type": "Point", "coordinates": [ 132.209547, 35.00175 ] } },
{ "type": "Feature", "properties": { "ID": 3244000001740, "正式名称": "柳原助産院", "機関区分": 4, "都道府県コード": 32, "市区町村コード": 201, "所在地": "島根県松江市西谷町３５０－７", "緯度": 35.501172, "経度": 132.995439, "url": "https://www.iryou.teikyouseido.mhlw.go.jp/znk-web/juminkanja/S2430/initialize?prefCd=32&kikanCd=4000001740&kikanKbn=4", "url2": null, "内容": "柳原助産院【4:助産院】島根県松江市西谷町３５０－７" }, "geometry": { "type": "Point", "coordinates": [ 132.995439, 35.501172 ] } }
]
}
