{
"type": "FeatureCollection",
"name": "geo_32_認知症対応型通所介護",
"crs": { "type": "name", "properties": { "name": "urn:ogc:def:crs:OGC:1.3:CRS84" } },
"features": [
{ "type": "Feature", "properties": { "内容": "ニチイケアセンター松江玉造【認知症対応型通所介護】島根県松江市玉湯町湯町189-1", "url": "https://www.kaigokensaku.mhlw.go.jp/32/index.php?action_kouhyou_detail_004_kani=true&JigyosyoCd=3290100464-00&ServiceCd=720&Type=search", "url2": "http://www.nichiigakkan.co.jp" }, "geometry": { "type": "Point", "coordinates": [ 133.0149467, 35.4335043 ] } },
{ "type": "Feature", "properties": { "内容": "ニチイケアセンター東津田【認知症対応型通所介護】島根県松江市東津田町2107－1", "url": "https://www.kaigokensaku.mhlw.go.jp/32/index.php?action_kouhyou_detail_004_kani=true&JigyosyoCd=3290100506-00&ServiceCd=720&Type=search", "url2": "http://www.nichiigakkan.co.jp" }, "geometry": { "type": "Point", "coordinates": [ 133.088153199999965, 35.4488624 ] } },
{ "type": "Feature", "properties": { "内容": "（有）コナン　認知症高齢者デイサービス　おおもり【認知症対応型通所介護】島根県松江市宍道町上来待　204-4", "url": "https://www.kaigokensaku.mhlw.go.jp/32/index.php?action_kouhyou_detail_004_kani=true&JigyosyoCd=3270101482-00&ServiceCd=720&Type=search", "url2": null }, "geometry": { "type": "Point", "coordinates": [ 132.963215200000036, 35.4041296 ] } },
{ "type": "Feature", "properties": { "内容": "デイサービスセンターブランチアゼリア【認知症対応型通所介護】松江市黒田町199-１ブランチアゼリア", "url": "https://www.kaigokensaku.mhlw.go.jp/32/index.php?action_kouhyou_detail_004_kani=true&JigyosyoCd=3290100399-00&ServiceCd=720&Type=search", "url2": "http://mizusumikai.or.jp/" }, "geometry": { "type": "Point", "coordinates": [ 133.041819700000019, 35.4797829 ] } },
{ "type": "Feature", "properties": { "内容": "認知症対応型デイサービスふるさと【認知症対応型通所介護】松江市玉湯町湯町１９２４－１", "url": "https://www.kaigokensaku.mhlw.go.jp/32/index.php?action_kouhyou_detail_004_kani=true&JigyosyoCd=3290100126-00&ServiceCd=720&Type=search", "url2": "https://www.tamayunomori.com" }, "geometry": { "type": "Point", "coordinates": [ 133.006569799999966, 35.4267631 ] } },
{ "type": "Feature", "properties": { "内容": "デイサービス　なごみ【認知症対応型通所介護】島根県松江市黒田町３０－４", "url": "https://www.kaigokensaku.mhlw.go.jp/32/index.php?action_kouhyou_detail_004_kani=true&JigyosyoCd=3270101433-00&ServiceCd=720&Type=search", "url2": null }, "geometry": { "type": "Point", "coordinates": [ 133.040044699999953, 35.4847878 ] } },
{ "type": "Feature", "properties": { "内容": "特定非営利活動法人　久米の家【認知症対応型通所介護】島根県松江市法吉町久米803番地2", "url": "https://www.kaigokensaku.mhlw.go.jp/32/index.php?action_kouhyou_detail_004_kani=true&JigyosyoCd=3290100076-00&ServiceCd=720&Type=search", "url2": null }, "geometry": { "type": "Point", "coordinates": [ 133.043539328836005, 35.491360304067051 ] } },
{ "type": "Feature", "properties": { "内容": "グループホームあした葉【認知症対応型通所介護】島根県松江市雑賀町299番地", "url": "https://www.kaigokensaku.mhlw.go.jp/32/index.php?action_kouhyou_detail_004_kani=true&JigyosyoCd=3290100092-00&ServiceCd=720&Type=search", "url2": null }, "geometry": { "type": "Point", "coordinates": [ 133.058882700000026, 35.4584582 ] } },
{ "type": "Feature", "properties": { "内容": "グループホーム　みんなの家　デイサービス　さくらや【認知症対応型通所介護】島根県浜田市熱田町1227", "url": "https://www.kaigokensaku.mhlw.go.jp/32/index.php?action_kouhyou_detail_004_kani=true&JigyosyoCd=3290700222-00&ServiceCd=720&Type=search", "url2": "http://iwaumi.jp/" }, "geometry": { "type": "Point", "coordinates": [ 132.052847700000029, 34.8678936 ] } },
{ "type": "Feature", "properties": { "内容": "デイサービスセンター野土花【認知症対応型通所介護】島根県浜田市三隅町河内４５１番地1介護老人保健施設アゼーリみずすみ", "url": "https://www.kaigokensaku.mhlw.go.jp/32/index.php?action_kouhyou_detail_004_kani=true&JigyosyoCd=3271900387-00&ServiceCd=720&Type=search", "url2": "http://mizusumikai.or.jp/" }, "geometry": { "type": "Point", "coordinates": [ 131.981657, 34.759348 ] } },
{ "type": "Feature", "properties": { "内容": "デイサービスセンターほのか【認知症対応型通所介護】浜田市久代町１－７", "url": "https://www.kaigokensaku.mhlw.go.jp/32/index.php?action_kouhyou_detail_004_kani=true&JigyosyoCd=3290700081-00&ServiceCd=720&Type=search", "url2": "http://mizusumikai.or.jp/" }, "geometry": { "type": "Point", "coordinates": [ 132.134674300000029, 34.9546034 ] } },
{ "type": "Feature", "properties": { "内容": "デイサービス和乃家【認知症対応型通所介護】真光町13番地", "url": "https://www.kaigokensaku.mhlw.go.jp/32/index.php?action_kouhyou_detail_004_kani=true&JigyosyoCd=3290700149-00&ServiceCd=720&Type=search", "url2": "https://www.silyuuwa.com" }, "geometry": { "type": "Point", "coordinates": [ 132.075336600000014, 34.8953749 ] } },
{ "type": "Feature", "properties": { "内容": "デイサービス　浜乃家【認知症対応型通所介護】島根県浜田市長沢町４５２番地１　花田借家　１Ｆ", "url": "https://www.kaigokensaku.mhlw.go.jp/32/index.php?action_kouhyou_detail_004_kani=true&JigyosyoCd=3290700040-00&ServiceCd=720&Type=search", "url2": "http://hp.kaipoke.biz/z0a/" }, "geometry": { "type": "Point", "coordinates": [ 132.097592500000019, 34.9082907 ] } },
{ "type": "Feature", "properties": { "内容": "デイサービスセンター小山【認知症対応型通所介護】出雲市小山町456-1", "url": "https://www.kaigokensaku.mhlw.go.jp/32/index.php?action_kouhyou_detail_004_kani=true&JigyosyoCd=3270400686-00&ServiceCd=720&Type=search", "url2": "https://www.ssw.or.jp/facilities/seniors/tenjin/1476" }, "geometry": { "type": "Point", "coordinates": [ 132.737636779098438, 35.372995605521609 ] } },
{ "type": "Feature", "properties": { "内容": "デイサービス金太郎の家さざんか【認知症対応型通所介護】島根県出雲市斐川町学頭1463番地10金太郎の家", "url": "https://www.kaigokensaku.mhlw.go.jp/32/index.php?action_kouhyou_detail_004_kani=true&JigyosyoCd=3290400468-00&ServiceCd=720&Type=search", "url2": "http://www.kintarounoie.jp/" }, "geometry": { "type": "Point", "coordinates": [ 132.8706555, 35.3885092 ] } },
{ "type": "Feature", "properties": { "内容": "デイサービスセンターやまもも【認知症対応型通所介護】島根県出雲市多伎町口田儀750", "url": "https://www.kaigokensaku.mhlw.go.jp/32/index.php?action_kouhyou_detail_004_kani=true&JigyosyoCd=3290400104-00&ServiceCd=720&Type=search", "url2": "http://www.takinosato.ｊｐ/" }, "geometry": { "type": "Point", "coordinates": [ 132.579439500000035, 35.269762 ] } },
{ "type": "Feature", "properties": { "内容": "通所介護　くらにしの家【認知症対応型通所介護】島根県出雲市西園町2623番地", "url": "https://www.kaigokensaku.mhlw.go.jp/32/index.php?action_kouhyou_detail_004_kani=true&JigyosyoCd=3290400328-00&ServiceCd=720&Type=search", "url2": null }, "geometry": { "type": "Point", "coordinates": [ 132.68978560000005, 35.3505216 ] } },
{ "type": "Feature", "properties": { "内容": "やすらぎの家デイサービスセンター【認知症対応型通所介護】出雲市大津町西谷2604-8", "url": "https://www.kaigokensaku.mhlw.go.jp/32/index.php?action_kouhyou_detail_004_kani=true&JigyosyoCd=3270400181-00&ServiceCd=720&Type=search", "url2": "http://izumo-yasuragi.org" }, "geometry": { "type": "Point", "coordinates": [ 132.775519700000018, 35.3627627 ] } },
{ "type": "Feature", "properties": { "内容": "デイサービス　寿生の丘【認知症対応型通所介護】出雲市大津町3622-15", "url": "https://www.kaigokensaku.mhlw.go.jp/32/index.php?action_kouhyou_detail_004_kani=true&JigyosyoCd=3270400603-00&ServiceCd=720&Type=search", "url2": "ｗｗｗ.izumo-minami.jp" }, "geometry": { "type": "Point", "coordinates": [ 132.778567899999985, 35.3549233 ] } },
{ "type": "Feature", "properties": { "内容": "認知症高齢者デイサービス宇賀の杜楽舎【認知症対応型通所介護】出雲市奥宇賀町２３番地１", "url": "https://www.kaigokensaku.mhlw.go.jp/32/index.php?action_kouhyou_detail_004_kani=true&JigyosyoCd=3270400983-00&ServiceCd=720&Type=search", "url2": "http://ｗｗｗ.rakuya-izumo.jp" }, "geometry": { "type": "Point", "coordinates": [ 132.781450899999982, 35.441255 ] } },
{ "type": "Feature", "properties": { "内容": "認知症対応型通所介護かんどの里【認知症対応型通所介護】島根県出雲市神門町13番地5", "url": "https://www.kaigokensaku.mhlw.go.jp/32/index.php?action_kouhyou_detail_004_kani=true&JigyosyoCd=3290400518-00&ServiceCd=720&Type=search", "url2": "http://kando-h.sakura.ne.jp/" }, "geometry": { "type": "Point", "coordinates": [ 132.713156, 35.344186 ] } },
{ "type": "Feature", "properties": { "内容": "通所介護事業所しおさい【認知症対応型通所介護】島根県大田市仁摩町仁万843", "url": "https://www.kaigokensaku.mhlw.go.jp/32/index.php?action_kouhyou_detail_004_kani=true&JigyosyoCd=3271700092-00&ServiceCd=720&Type=search", "url2": "http://www.shiosai.or.jp" }, "geometry": { "type": "Point", "coordinates": [ 132.403219799999988, 35.1537329 ] } },
{ "type": "Feature", "properties": { "内容": "ビラあさやま【認知症対応型通所介護】大田市朝山町朝倉７０６－１", "url": "https://www.kaigokensaku.mhlw.go.jp/32/index.php?action_kouhyou_detail_004_kani=true&JigyosyoCd=3270500048-00&ServiceCd=720&Type=search", "url2": "https://admin105.adming03.susanoo-inst.com/login/oodasj2022" }, "geometry": { "type": "Point", "coordinates": [ 132.561822200000051, 35.247427 ] } },
{ "type": "Feature", "properties": { "内容": "デイサービスセンター　四つ葉【認知症対応型通所介護】島根県大田市久利町行恒３４６－１", "url": "https://www.kaigokensaku.mhlw.go.jp/32/index.php?action_kouhyou_detail_004_kani=true&JigyosyoCd=3290500119-00&ServiceCd=720&Type=search", "url2": "http://yotsuba.biz/" }, "geometry": { "type": "Point", "coordinates": [ 132.497154499999965, 35.1750193 ] } },
{ "type": "Feature", "properties": { "内容": "デイサービスセンター　あおぞらの家【認知症対応型通所介護】島根県雲南市大東町東阿用83番地1", "url": "https://www.kaigokensaku.mhlw.go.jp/32/index.php?action_kouhyou_detail_004_kani=true&JigyosyoCd=3271400172-00&ServiceCd=720&Type=search", "url2": "http://www.aozora-fukushi.jp/" }, "geometry": { "type": "Point", "coordinates": [ 132.968611900000013, 35.3059049 ] } },
{ "type": "Feature", "properties": { "内容": "デイサービスセンター陽だまりの家【認知症対応型通所介護】雲南市三刀屋町三刀屋1212-3", "url": "https://www.kaigokensaku.mhlw.go.jp/32/index.php?action_kouhyou_detail_004_kani=true&JigyosyoCd=3271500153-00&ServiceCd=720&Type=search", "url2": "http://unnanshakyo.jp/" }, "geometry": { "type": "Point", "coordinates": [ 132.885029300000042, 35.2941468 ] } },
{ "type": "Feature", "properties": { "内容": "デイサービスやわらぎ【認知症対応型通所介護】木次町里方84-53", "url": "https://www.kaigokensaku.mhlw.go.jp/32/index.php?action_kouhyou_detail_004_kani=true&JigyosyoCd=3291400038-00&ServiceCd=720&Type=search", "url2": "http://blog.canpan.info/ikiikiyawaragi/" }, "geometry": { "type": "Point", "coordinates": [ 132.90468809999993, 35.2970049 ] } },
{ "type": "Feature", "properties": { "内容": "デイサービス奥出雲　ふるさとの杜【認知症対応型通所介護】仁多郡奥出雲町三沢927-58", "url": "https://www.kaigokensaku.mhlw.go.jp/32/index.php?action_kouhyou_detail_004_kani=true&JigyosyoCd=3291300022-00&ServiceCd=720&Type=search", "url2": null }, "geometry": { "type": "Point", "coordinates": [ 132.989953, 35.1998011 ] } },
{ "type": "Feature", "properties": { "内容": "グループホームあさくら【認知症対応型通所介護】島根県鹿足郡吉賀町朝倉803", "url": "https://www.kaigokensaku.mhlw.go.jp/32/index.php?action_kouhyou_detail_004_kani=true&JigyosyoCd=3292100017-00&ServiceCd=720&Type=search", "url2": "http://yosika-shakyo:jp" }, "geometry": { "type": "Point", "coordinates": [ 131.893445, 34.370144 ] } }
]
}
